{
"type": "FeatureCollection",
"name": "Export_Output",
"crs": { "type": "name", "properties": { "name": "urn:ogc:def:crs:OGC:1.3:CRS84" } },
"features": [
{ "type": "Feature", "properties": { "OBJECTID": 1, "SHAPE_Leng": 16049.619168499999, "longitud": 16.0496, "Nombre_de": "Ejecutrans L18", "Punto_de_P": "Av Quevedo km8", "Punto_de_L": "Av Clemencia de Mora (Redondel de la Alborada)", "Sentido": "Ida", "Longitud_1": 16.0496 }, "geometry": { "type": "LineString", "coordinates": [ [ -79.226785049267392, -0.344140876060282 ], [ -79.226856353337922, -0.343135508756913 ], [ -79.226813570921209, -0.342550827079264 ], [ -79.226777919052196, -0.342115880809706 ], [ -79.226556876262407, -0.341531199518662 ], [ -79.226307312655351, -0.338978564379176 ], [ -79.226100531670184, -0.336832353957637 ], [ -79.226014966720641, -0.336482970407227 ], [ -79.225922271971555, -0.335477602216104 ], [ -79.226036357840144, -0.334122851441861 ], [ -79.22597931434467, -0.333595211436031 ], [ -79.225223492883202, -0.330892837965032 ], [ -79.224931146997832, -0.329488174330413 ], [ -79.224767148486265, -0.328967664058822 ], [ -79.224667322761618, -0.328753756253227 ], [ -79.224232368515899, -0.328368721453955 ], [ -79.222827681836662, -0.327113792506637 ], [ -79.222385597465177, -0.326590905835574 ], [ -79.222189511119524, -0.326270043243872 ], [ -79.221910238078777, -0.326109611839482 ], [ -79.221470530242314, -0.326079902669034 ], [ -79.220965460832872, -0.326062076921147 ], [ -79.220668361316157, -0.325972948581381 ], [ -79.220507927687564, -0.325836285153683 ], [ -79.220246480057355, -0.325182676276253 ], [ -79.220032568297128, -0.324772684927849 ], [ -79.21981271392572, -0.324540951080763 ], [ -79.218125188229763, -0.323447642050767 ], [ -79.218018231960585, -0.323162430677001 ], [ -79.218083593842906, -0.322823742871907 ], [ -79.218285622368882, -0.321748258503126 ], [ -79.218356926093804, -0.321320442025926 ], [ -79.218345042338086, -0.321070881906493 ], [ -79.217923160609217, -0.319787431442134 ], [ -79.2178637408025, -0.319217009043431 ], [ -79.217834030550051, -0.318729773925867 ], [ -79.217845914425283, -0.31833760779525 ], [ -79.218309389545524, -0.317178937483008 ], [ -79.218410403833062, -0.316786771297671 ], [ -79.21837475180233, -0.316626340318619 ], [ -79.218047941840879, -0.315426075753554 ], [ -79.217525047258803, -0.313952484177342 ], [ -79.217330149345258, -0.313448610006113 ], [ -79.217311135250725, -0.313001778830054 ], [ -79.217396699529331, -0.311580475147867 ], [ -79.217715190785398, -0.310249488862895 ], [ -79.218005159723333, -0.309236987543165 ], [ -79.218119245959883, -0.308690332358233 ], [ -79.218128753641579, -0.307768148254551 ], [ -79.218057449279542, -0.307131175617064 ], [ -79.217539307846934, -0.305191736546745 ], [ -79.217387192701068, -0.30437888346066 ], [ -79.216907079708903, -0.302962332562913 ], [ -79.216678907308648, -0.302363388008742 ], [ -79.216531545441782, -0.301926063496317 ], [ -79.216355662931875, -0.301136977357987 ], [ -79.216165518519574, -0.300276588490459 ], [ -79.21611322904009, -0.299720425446317 ], [ -79.216241576156449, -0.299192784367619 ], [ -79.216341401782344, -0.298822008421559 ], [ -79.216697921152473, -0.298337148426863 ], [ -79.216921340625063, -0.298075704879321 ], [ -79.217097223364618, -0.297638379926872 ], [ -79.216170272112734, -0.296288376694107 ], [ -79.215713927242135, -0.295342423992333 ], [ -79.215481001022809, -0.294562845458476 ], [ -79.214844019658955, -0.292846819802529 ], [ -79.213988372685407, -0.290489067233853 ], [ -79.213460723069247, -0.289020225336846 ], [ -79.212814235065409, -0.287242403742005 ], [ -79.212172832274206, -0.285640724049088 ], [ -79.211673704629476, -0.284870651337866 ], [ -79.21124588096211, -0.284371529997531 ], [ -79.210475798815537, -0.283658499820049 ], [ -79.209948150020978, -0.283344765806894 ], [ -79.208793026334277, -0.282360784223482 ], [ -79.206511301150115, -0.280563946699945 ], [ -79.205270613016296, -0.27948014031608 ], [ -79.203430971764803, -0.277626260507212 ], [ -79.200493250741502, -0.274645790956424 ], [ -79.195730148118201, -0.269725876293077 ], [ -79.190553483943035, -0.264435183046453 ], [ -79.189583750738592, -0.263622326648273 ], [ -79.188785146855992, -0.263223029656081 ], [ -79.18064223946412, -0.258402934162389 ], [ -79.176720523749495, -0.256049928369895 ], [ -79.176257761876798, -0.255806071843427 ], [ -79.175562548565082, -0.255542250271899 ], [ -79.175476983185746, -0.255424599813881 ], [ -79.175573243714894, -0.254822087964158 ], [ -79.174222034778722, -0.254986085079215 ], [ -79.172147090241523, -0.255164342570748 ], [ -79.171031184365461, -0.255274863353788 ], [ -79.169854669602074, -0.255196429610997 ], [ -79.168795806307031, -0.255100169747423 ], [ -79.168297867181877, -0.255044316031439 ], [ -79.1682978675572, -0.254844666802795 ], [ -79.168316881380136, -0.252838669763355 ], [ -79.16832163533924, -0.251117885146656 ], [ -79.168283606445499, -0.248817167161741 ], [ -79.168217056038173, -0.245608520888477 ], [ -79.168183781096459, -0.241487191285323 ], [ -79.168183781367361, -0.239457424819825 ], [ -79.168136244773365, -0.23924826808815 ], [ -79.168007898188009, -0.238963055385646 ], [ -79.168117231016211, -0.23873488403786 ], [ -79.168307374532446, -0.238658827333067 ], [ -79.168530793622494, -0.238663581178306 ], [ -79.168663894150257, -0.23882995593805 ], [ -79.168739951388133, -0.238996330296742 ], [ -79.168930095800377, -0.239253021821736 ], [ -79.169281861838272, -0.239466931693727 ], [ -79.170267044070911, -0.239338585924092 ], [ -79.175610084127698, -0.238986822941 ], [ -79.175610083831614, -0.238682595022708 ] ] } }
]
}
