{
"type": "FeatureCollection",
"name": "LINEA05B_RETORNO",
"crs": { "type": "name", "properties": { "name": "urn:ogc:def:crs:OGC:1.3:CRS84" } },
"features": [
{ "type": "Feature", "properties": { "OBJECTID": 1, "SHAPE_Leng": 16211.7344916, "long": 16.2117, "Nombre_ope": "Rio_Toachi", "Punto_part": "Brasilia_del_Toachi", "Punto_lleg": "U_Catolica", "Sentido": "Retorno" }, "geometry": { "type": "LineString", "coordinates": [ [ -79.131408617978806, -0.235070903689758 ], [ -79.132478176608828, -0.235056643112572 ], [ -79.132867970982005, -0.235023368648376 ], [ -79.133638053249399, -0.234802328489225 ], [ -79.13443190399795, -0.234588418569684 ], [ -79.135225754204015, -0.234367378407886 ], [ -79.135953053682599, -0.23417010541879 ], [ -79.136447427784049, -0.23404651277955 ], [ -79.136780179454234, -0.234029875700912 ], [ -79.136996468295777, -0.234155844925087 ], [ -79.137098670416066, -0.2342580460676 ], [ -79.137181857920439, -0.234398276520338 ], [ -79.137222264226082, -0.234590794928001 ], [ -79.137231771230645, -0.234947312099675 ], [ -79.137093917097559, -0.235553389647211 ], [ -79.136933087268517, -0.236121439390067 ], [ -79.136755619195341, -0.236653837636742 ], [ -79.136739773945578, -0.23686933174821 ], [ -79.136765126555417, -0.237192573690119 ], [ -79.136915023038426, -0.238106365499485 ], [ -79.136915022873183, -0.238481895893953 ], [ -79.136896009105072, -0.238619748885874 ], [ -79.136753400961936, -0.239095104328953 ], [ -79.136510967435584, -0.239608487798947 ], [ -79.136387373803743, -0.239979265594778 ], [ -79.13634459202467, -0.240544938281085 ], [ -79.136311317000263, -0.240744587456001 ], [ -79.136225751821897, -0.240972757583256 ], [ -79.136045115316364, -0.2412009281391 ], [ -79.135472043058883, -0.241716952813377 ], [ -79.13532547394351, -0.241863520338756 ], [ -79.135246247129842, -0.241954630535677 ], [ -79.135206634255425, -0.24216061746172 ], [ -79.1352145568586, -0.242295301904685 ], [ -79.135273976655014, -0.24248544384077 ], [ -79.135555231447739, -0.242798385569033 ], [ -79.135646341533104, -0.242917224688236 ], [ -79.135733490931102, -0.242830076223272 ], [ -79.135971170163529, -0.242521095614251 ], [ -79.136220734019687, -0.242247765690113 ], [ -79.136648557902603, -0.241732797828706 ], [ -79.137155607657164, -0.241205946120412 ], [ -79.137623044383901, -0.24069493924032 ], [ -79.137852801823129, -0.240441416359901 ], [ -79.13838362019915, -0.239811570281594 ], [ -79.138755984376445, -0.239407517972265 ], [ -79.139005548649919, -0.239189647532019 ], [ -79.139167962717011, -0.239078730783766 ], [ -79.139274918973726, -0.239027233820903 ], [ -79.139320077612581, -0.238997128424846 ], [ -79.139329585273416, -0.238955931142863 ], [ -79.139332753931896, -0.238910772376622 ], [ -79.1395363667026, -0.238527319010221 ], [ -79.13969878109431, -0.238206454027134 ], [ -79.13974631667827, -0.238127228190644 ], [ -79.139778007412303, -0.238158918364055 ], [ -79.139625495972282, -0.238457995879489 ], [ -79.139419507181998, -0.238850164122329 ], [ -79.139378309156498, -0.238923844111853 ], [ -79.13934741144098, -0.239033176502576 ], [ -79.139259469566795, -0.239075958179444 ], [ -79.139050311496447, -0.239197173394556 ], [ -79.138888689162016, -0.239351664266509 ], [ -79.138681908083356, -0.239537052602322 ], [ -79.138432344071461, -0.239812758809988 ], [ -79.13790469480324, -0.240447358081941 ], [ -79.137267713839691, -0.241143753700144 ], [ -79.136656876174385, -0.241785483272542 ], [ -79.136133981250424, -0.24240344461042 ], [ -79.135744186274522, -0.242885930464391 ], [ -79.135684766432306, -0.242945349460854 ], [ -79.136141111888577, -0.243289982494299 ], [ -79.136597456358359, -0.243675020275101 ], [ -79.136837512922625, -0.243879422280269 ], [ -79.13736753901587, -0.244290605260806 ], [ -79.137764464138129, -0.244647121503881 ], [ -79.137814376981837, -0.244656628532374 ], [ -79.13800689712366, -0.244475993464167 ], [ -79.13835390949663, -0.244190780735502 ], [ -79.138772226167987, -0.243962609810289 ], [ -79.139490019374151, -0.243549051088231 ], [ -79.140072334460925, -0.243221056064589 ], [ -79.140519172490329, -0.242957233943152 ], [ -79.140760813030496, -0.242821757172805 ], [ -79.141267863293152, -0.242571403845957 ], [ -79.14187473898437, -0.242271929787575 ], [ -79.141942873851761, -0.242235486072894 ], [ -79.142001501226517, -0.242244993338825 ], [ -79.14195871868273, -0.242278268438668 ], [ -79.141218742711359, -0.242633199959884 ], [ -79.140572253964436, -0.242969117740584 ], [ -79.140079464386162, -0.243260668689357 ], [ -79.139185789050515, -0.243764545135298 ], [ -79.138788071111634, -0.243997469073351 ], [ -79.138380847049376, -0.244227223978306 ], [ -79.137813584691031, -0.244696240909865 ], [ -79.137876965899949, -0.244765960228155 ], [ -79.137905487079721, -0.244892721110595 ], [ -79.137824676767607, -0.245228638754296 ], [ -79.13762185672347, -0.245786388871154 ], [ -79.137699498499416, -0.246012975016985 ], [ -79.137983129193188, -0.246453470667965 ], [ -79.138415706437414, -0.247107876158378 ], [ -79.138757965680639, -0.247683055916864 ], [ -79.139092301770759, -0.248264573566337 ], [ -79.139266599667806, -0.248854013445298 ], [ -79.139384251912247, -0.249124371366157 ], [ -79.139512598325283, -0.249233703623229 ], [ -79.139707495599936, -0.249297876211083 ], [ -79.140475201663435, -0.249240833096513 ], [ -79.140653461195868, -0.249205182095759 ], [ -79.141014734240983, -0.249026924024444 ], [ -79.141442557664334, -0.248672784722543 ], [ -79.141551890266001, -0.248556322604093 ], [ -79.141879888657456, -0.247919346854338 ], [ -79.142005859010055, -0.247781493299727 ], [ -79.143118199886075, -0.247087475273421 ], [ -79.143341619269719, -0.246899710542358 ], [ -79.144273323594987, -0.245984651969315 ], [ -79.144636973421115, -0.245670916904534 ], [ -79.145884791807035, -0.244969768834415 ], [ -79.146897307691233, -0.244418356904696 ], [ -79.147215798783364, -0.244259113012748 ], [ -79.147408318716487, -0.244066593980492 ], [ -79.147607970089609, -0.243738598562899 ], [ -79.147826635134322, -0.243170549411726 ], [ -79.148014402643554, -0.242911480848511 ], [ -79.148168893845579, -0.242740352820328 ], [ -79.149019787324463, -0.242027320524412 ], [ -79.149302626383104, -0.241777758481766 ], [ -79.149590218606576, -0.241642282495871 ], [ -79.149725696153411, -0.241632775642556 ], [ -79.149939608140983, -0.241597123925129 ], [ -79.150022795830765, -0.241611384605184 ], [ -79.150255722498599, -0.24169219468894 ], [ -79.150350794211491, -0.241794395963339 ], [ -79.150422098068162, -0.241958393600708 ], [ -79.15046488004117, -0.242129521013867 ], [ -79.150481518263319, -0.242217462265489 ], [ -79.150077462588214, -0.243016058739111 ], [ -79.149768478434822, -0.24357935516924 ], [ -79.149485639758907, -0.244040449651921 ], [ -79.149119612722231, -0.244380327763601 ], [ -79.148382805850474, -0.24490559531649 ], [ -79.147139740875033, -0.245666163922551 ], [ -79.147044669076678, -0.245756481194544 ], [ -79.14684977206592, -0.245944246900531 ], [ -79.146761830050451, -0.246101113770011 ], [ -79.146747569879665, -0.246265111041551 ], [ -79.146768960734036, -0.246388703062123 ], [ -79.146899684903062, -0.246469513833313 ], [ -79.147108842504551, -0.246531310082649 ], [ -79.147313247372438, -0.246595482963889 ], [ -79.147726809785283, -0.246709568417554 ], [ -79.148373298501198, -0.246788001931229 ], [ -79.149766102069364, -0.246944868560868 ], [ -79.150949747089271, -0.247070838260553 ], [ -79.152451882961671, -0.247196807436626 ], [ -79.153364572842662, -0.247310892608826 ], [ -79.153918366689595, -0.247424977284623 ], [ -79.155021201186401, -0.247707813998983 ], [ -79.155836442634836, -0.247950244485862 ], [ -79.157994573836518, -0.248549191946914 ], [ -79.159106914871856, -0.248858173196238 ], [ -79.161103424935646, -0.249378686495602 ], [ -79.161921042886391, -0.249642508870888 ], [ -79.162382141831671, -0.249780361717937 ], [ -79.162477213714823, -0.249780361540655 ], [ -79.162610314160645, -0.249749463531874 ], [ -79.162743414883437, -0.249813636109688 ], [ -79.162833733441545, -0.249903953957522 ], [ -79.162852748184108, -0.250037053303153 ], [ -79.162869385427442, -0.25016302220227 ], [ -79.163040514983635, -0.250381685397672 ], [ -79.163387526770379, -0.250669274714566 ], [ -79.164559287935518, -0.251707925755089 ], [ -79.165462471606858, -0.252492260720022 ], [ -79.166491624337212, -0.253438217350145 ], [ -79.166978868041724, -0.253894557280686 ], [ -79.167130982542275, -0.253958730283831 ], [ -79.168409699804897, -0.253958731056679 ], [ -79.16972644577983, -0.25395397706557 ], [ -79.170957626699902, -0.253856529687095 ], [ -79.17238608137751, -0.253504766698568 ], [ -79.173852566028032, -0.253198163034432 ], [ -79.174508561301352, -0.253046049517129 ], [ -79.175017195948996, -0.252996137200058 ], [ -79.175368962170793, -0.253112599043588 ], [ -79.17564942438257, -0.253314624556543 ], [ -79.175984552668453, -0.253490506401919 ], [ -79.176098639130345, -0.253412072661017 ], [ -79.176241247144333, -0.253383551411982 ], [ -79.176369593953467, -0.253426333433642 ], [ -79.17639336223138, -0.253552302505463 ], [ -79.176407622913786, -0.253754328373617 ], [ -79.176464665998779, -0.253854152500043 ], [ -79.176543099841297, -0.254008642791632 ], [ -79.17669759160205, -0.254094206881222 ], [ -79.177562746259554, -0.254524402668008 ], [ -79.178192597246564, -0.254802485020813 ], [ -79.178446914858583, -0.254878542387877 ], [ -79.178888998922446, -0.254959352238361 ], [ -79.179314446025728, -0.25494509188482 ], [ -79.181541504915145, -0.25495697536412 ], [ -79.183668738135111, -0.254937961551521 ], [ -79.185546407740219, -0.25492607740166 ], [ -79.187609468479081, -0.254871411726772 ], [ -79.189769977052137, -0.254869034711546 ], [ -79.192389207488901, -0.254850021054319 ], [ -79.193335172681103, -0.254802485665215 ], [ -79.19450455722729, -0.254586198908171 ], [ -79.195664434595614, -0.254350897946728 ], [ -79.197202222259463, -0.25404191738528 ], [ -79.197944574648204, -0.253744028602873 ], [ -79.198610078100828, -0.253294025980097 ], [ -79.199034732777221, -0.252910573389118 ], [ -79.200216793142346, -0.251554227063366 ], [ -79.201373501419909, -0.250242247592861 ], [ -79.201684069356745, -0.249849287437862 ], [ -79.20177914134868, -0.249586258279421 ], [ -79.201864706095364, -0.249205973968067 ], [ -79.202118230811706, -0.248955620134432 ], [ -79.202508025921134, -0.248999987135955 ], [ -79.202634788444556, -0.249221819756349 ], [ -79.202672817209418, -0.249453158686829 ], [ -79.202866130001397, -0.250033092145407 ], [ -79.202948525613621, -0.250229571697851 ], [ -79.203290784303618, -0.250676405447936 ], [ -79.203845370238739, -0.251433804279503 ], [ -79.204064036172127, -0.251798242857193 ], [ -79.204285870429558, -0.252317964687454 ], [ -79.204384111260254, -0.252609514968415 ], [ -79.204485520841644, -0.253065856108962 ], [ -79.204498197710151, -0.253287687787306 ], [ -79.204520000558688, -0.253295039945304 ], [ -79.204543451215358, -0.253286166764892 ], [ -79.204575776295215, -0.253232927029468 ], [ -79.204575776470662, -0.25301616562081 ], [ -79.204562466098267, -0.252828558284956 ], [ -79.204600494552423, -0.252758839661985 ], [ -79.204691763470294, -0.252715107623613 ], [ -79.204774159405517, -0.252692290437943 ], [ -79.205585439292335, -0.252562993862337 ], [ -79.205957487811133, -0.252561092327253 ], [ -79.206177420833399, -0.252509754090546 ], [ -79.206630469371262, -0.252447514506309 ], [ -79.207242732410066, -0.252389204392533 ], [ -79.207816966711832, -0.252344837541243 ], [ -79.208638388010428, -0.252485542639897 ], [ -79.20889191350534, -0.252508359496081 ], [ -79.209438259877189, -0.252495683942206 ], [ -79.209448400652136, -0.252754276917948 ], [ -79.209461077024997, -0.253308223778091 ], [ -79.209488964338462, -0.253886254820164 ], [ -79.209510514528048, -0.254456680848469 ], [ -79.209554880767158, -0.255124712443334 ], [ -79.20958403646803, -0.255562038542457 ], [ -79.209625867988436, -0.255572179657861 ], [ -79.210637433248991, -0.255540489800111 ], [ -79.210677997092375, -0.255909365042482 ], [ -79.210695743550389, -0.256285845762799 ], [ -79.21070715214303, -0.256415142336736 ], [ -79.210736307936983, -0.256449367377401 ], [ -79.210783209886245, -0.25646077613581 ], [ -79.211429699119392, -0.256405001147595 ], [ -79.212338586416962, -0.256334014875159 ], [ -79.212706197356638, -0.256318803971603 ], [ -79.213199304074209, -0.256275704344639 ], [ -79.214199459627324, -0.256214859561732 ] ] } }
]
}
