{
"type": "FeatureCollection",
"name": "LINEA_24B_IDA",
"crs": { "type": "name", "properties": { "name": "urn:ogc:def:crs:OGC:1.3:CRS84" } },
"features": [
{ "type": "Feature", "properties": { "OBJECTID": 1, "SHAPE_Leng": 9142.6739034300008, "long": 9.14267, "Nombre_ope": "Rio_Toachi", "Punto_part": "Abraham_Calazacon", "Punto_lleg": "Abraham_Calazacon", "Sentido": "Ida" }, "geometry": { "type": "LineString", "coordinates": [ [ -79.163344259979738, -0.242662069627236 ], [ -79.163562925977402, -0.24691174416055 ], [ -79.163569263346858, -0.247757876063509 ], [ -79.163391795954169, -0.248695910539857 ], [ -79.162998832273772, -0.249418450314202 ], [ -79.162796012224575, -0.249836761903324 ], [ -79.162859393850781, -0.250077608628359 ], [ -79.162517134858746, -0.250369159839743 ], [ -79.161972056028489, -0.250863529160854 ], [ -79.16162979743477, -0.25189029512412 ], [ -79.161452329643865, -0.252790300282264 ], [ -79.161325566932845, -0.254679043708407 ], [ -79.161173451795037, -0.257277649790059 ], [ -79.161186127883937, -0.258076245344058 ], [ -79.161629797140236, -0.258595966016682 ], [ -79.162770659704321, -0.258900193487284 ], [ -79.163822788781985, -0.259217096011418 ], [ -79.166231276499005, -0.25968611249848 ], [ -79.168804555641216, -0.260383299297786 ], [ -79.17055387869577, -0.260763583181939 ], [ -79.172442639796117, -0.261879081292072 ], [ -79.174648308382075, -0.262626973168864 ], [ -79.176613127047489, -0.263248102099732 ], [ -79.177715960917453, -0.263603034200923 ], [ -79.178083572170351, -0.263526976802411 ], [ -79.178907529156049, -0.262157956537283 ], [ -79.18092305268496, -0.258760756279407 ], [ -79.183090691886591, -0.25500862253409 ], [ -79.183940001275602, -0.25351284029326 ], [ -79.183762532968146, -0.250039580703852 ], [ -79.183699151721157, -0.247909990366524 ], [ -79.183648447493965, -0.242877564355519 ], [ -79.183661123131458, -0.241597273822126 ], [ -79.18347097972439, -0.241077552300287 ], [ -79.183090692373568, -0.240773325369723 ], [ -79.181201930034362, -0.239771910247601 ], [ -79.179515988921509, -0.238960637155218 ], [ -79.174559574633477, -0.239150779180469 ], [ -79.17068064091383, -0.239378949184786 ], [ -79.169742598081868, -0.239493034717751 ], [ -79.169615836332184, -0.239657824760262 ], [ -79.169514425960159, -0.239822614575171 ], [ -79.169235548598081, -0.239873319014435 ], [ -79.169096109374479, -0.239632472430836 ], [ -79.168956670477968, -0.2394296538923 ], [ -79.168614411826994, -0.239252188159302 ], [ -79.168297505895012, -0.239315568954107 ], [ -79.167993275314657, -0.239138102977532 ], [ -79.166586211627504, -0.239163454761493 ], [ -79.163898845978963, -0.239429654534487 ], [ -79.163467853823221, -0.239505710962592 ], [ -79.163239681030277, -0.23978458570106 ], [ -79.163201652142462, -0.240760648616728 ], [ -79.163341091444963, -0.242586013417042 ] ] } }
]
}
