{
"type": "FeatureCollection",
"name": "LINEA04A_IDA",
"crs": { "type": "name", "properties": { "name": "urn:ogc:def:crs:OGC:1.3:CRS84" } },
"features": [
{ "type": "Feature", "properties": { "OBJECTID": 3, "SHAPE_Leng": 9403.6551710500007, "long": 9.40366, "Nombre_ope": "Rio_Toachi", "Punto_part": "Villa_Florida", "Punto_lleg": "Plan_de_Vivienda_Sueno_de_Bolivar", "Sentido": "Ida" }, "geometry": { "type": "LineString", "coordinates": [ [ -79.197489103185546, -0.243582951520802 ], [ -79.1972704375532, -0.244238941338539 ], [ -79.197260930066179, -0.244875917889459 ], [ -79.197669739078719, -0.246225925848858 ], [ -79.19795495515163, -0.247138607315276 ], [ -79.197726782795755, -0.249372775988444 ], [ -79.197384523257654, -0.252034764100389 ], [ -79.197270437620404, -0.252633710987154 ], [ -79.197336987810132, -0.253603434456921 ], [ -79.197429419186065, -0.254114176898734 ], [ -79.196618138617382, -0.254272628384942 ], [ -79.193937111481347, -0.254893759028441 ], [ -79.192910335134698, -0.254988829958238 ], [ -79.190432127307375, -0.255014181673401 ], [ -79.187244049958409, -0.255007844030781 ], [ -79.181089729704695, -0.255102914902714 ], [ -79.17927068740444, -0.255121928577499 ], [ -79.178554479118333, -0.255058548327797 ], [ -79.177984047696427, -0.254868406496393 ], [ -79.176659379467182, -0.25431065656949 ], [ -79.176336134945913, -0.254202910233644 ], [ -79.176145991238442, -0.254063472823608 ], [ -79.175734013191644, -0.254120515260472 ], [ -79.175784718299511, -0.254348685063116 ], [ -79.175917818519707, -0.254621221947559 ], [ -79.175930495310794, -0.254747983371759 ], [ -79.175569222067963, -0.254805025633915 ], [ -79.174263568253025, -0.254950801015669 ], [ -79.172583964197656, -0.255064886763397 ], [ -79.171005771063932, -0.255267704247691 ], [ -79.169174052448469, -0.255090239038916 ], [ -79.168324743534157, -0.255026858510319 ], [ -79.168293053027213, -0.254329671369402 ], [ -79.168293053335461, -0.252409237783948 ], [ -79.168312067927943, -0.250850073721184 ], [ -79.168274038890701, -0.248834568419258 ], [ -79.168229671746957, -0.246673288346008 ], [ -79.168182136212678, -0.244111124323567 ], [ -79.168182136165427, -0.240669552155802 ], [ -79.168144107489866, -0.239338557366641 ], [ -79.168023682899815, -0.239116724797968 ], [ -79.168023682482442, -0.238875878155558 ], [ -79.168125092938425, -0.238641369547787 ], [ -79.168144107480401, -0.238463903616265 ], [ -79.167656071436383, -0.237823758398459 ], [ -79.167332826686248, -0.237132908917245 ], [ -79.167199726309505, -0.23648642560532 ], [ -79.167174374330784, -0.235839942208392 ], [ -79.167206064238485, -0.235015992558165 ], [ -79.167225078889928, -0.23448993241519 ], [ -79.167060288075518, -0.234039929337317 ], [ -79.16699690658352, -0.233627954968754 ], [ -79.167282122489681, -0.233393445908259 ], [ -79.16737719421242, -0.233222318026038 ], [ -79.167586352346163, -0.231992731600059 ], [ -79.167624380633086, -0.230877230135519 ], [ -79.167675085701347, -0.230078632820527 ], [ -79.167554661108483, -0.228094815280916 ], [ -79.167408250738546, -0.226475595406665 ], [ -79.166783153446701, -0.226095311228338 ], [ -79.166146171424103, -0.22574830091482 ], [ -79.165240612086649, -0.22519688850161 ], [ -79.164610760820992, -0.224804719799212 ], [ -79.164230473298247, -0.224583679541298 ], [ -79.163386710008425, -0.224077425864682 ], [ -79.16334709662398, -0.224129714411005 ], [ -79.163304377712521, -0.224127475485925 ], [ -79.163142121798529, -0.224050150436778 ], [ -79.162907611258547, -0.223903107542216 ], [ -79.162371405687381, -0.223621696579671 ], [ -79.161875763957184, -0.223345356554941 ], [ -79.161515758120458, -0.223150143355926 ], [ -79.160818564963051, -0.222722957264096 ], [ -79.160102356475392, -0.22232746074752 ], [ -79.159762632784577, -0.222130980866946 ], [ -79.159362063428134, -0.221918021405292 ], [ -79.159104734845315, -0.22177985151068 ], [ -79.158749800093275, -0.22157576508395 ], [ -79.158152616757022, -0.221243147564695 ], [ -79.157945835647027, -0.221647992625666 ], [ -79.157272409278292, -0.222840343552741 ], [ -79.157216950554954, -0.222828460013036 ], [ -79.156880238273061, -0.222610588589526 ], [ -79.156056281110679, -0.222162961355479 ], [ -79.155410584584232, -0.221830212253403 ] ] } }
]
}
