{
"type": "FeatureCollection",
"name": "LINEA12_A_IDA",
"crs": { "type": "name", "properties": { "name": "urn:ogc:def:crs:OGC:1.3:CRS84" } },
"features": [
{ "type": "Feature", "properties": { "OBJECTID": 1, "SHAPE_Leng": 10169.996232 }, "geometry": { "type": "LineString", "coordinates": [ [ -79.191870849905698, -0.279029751607537 ], [ -79.19212754416607, -0.278716018693967 ], [ -79.191210100485378, -0.277974466184586 ], [ -79.191837575071446, -0.277228160420986 ], [ -79.192721743312063, -0.277993480199157 ], [ -79.193753272866815, -0.276729038954922 ], [ -79.193848345016079, -0.276567419147313 ], [ -79.193886373973527, -0.276363016395886 ], [ -79.193867359542821, -0.276111078733415 ], [ -79.193800808905479, -0.275607203589852 ], [ -79.193719997801566, -0.274109838815625 ], [ -79.193504819096731, -0.271146164481846 ], [ -79.192145290994986, -0.27126975665533 ], [ -79.192040711415217, -0.269843693982658 ], [ -79.191854750879301, -0.267362947643293 ], [ -79.191847620796679, -0.26660000389661 ], [ -79.191897533004791, -0.265915492953967 ], [ -79.190465908708447, -0.264455165564146 ], [ -79.189693450204544, -0.263795611147473 ], [ -79.188576355221684, -0.263100405511395 ], [ -79.187164537768112, -0.262254273867605 ], [ -79.182656941513102, -0.259611302629714 ], [ -79.177281933486952, -0.256375642844082 ], [ -79.177072775043655, -0.256256804408077 ], [ -79.176968196027815, -0.256532510445312 ], [ -79.176906399236657, -0.256936562040819 ], [ -79.176706748138272, -0.256808215619841 ], [ -79.17618385353822, -0.25650874219595 ], [ -79.175832087142908, -0.256285326260382 ], [ -79.175527856897901, -0.256085676895932 ], [ -79.175399510382604, -0.255952577171877 ], [ -79.175442292030056, -0.255653103737025 ], [ -79.175508842482259, -0.255391659119536 ], [ -79.175589653965744, -0.254830740546571 ], [ -79.174529602498339, -0.254944825612453 ], [ -79.173398246786192, -0.255035143325011 ], [ -79.171130782059521, -0.255268066677847 ], [ -79.170080237627218, -0.255220530794618 ], [ -79.168506798154894, -0.25508743152998 ], [ -79.168202567425723, -0.255039896790598 ], [ -79.1679791485615, -0.254930565276754 ], [ -79.167527557450484, -0.254559787920612 ], [ -79.166377187139929, -0.253504500829073 ], [ -79.16363436386618, -0.251046915514634 ], [ -79.16284526680522, -0.250367158893699 ], [ -79.162750194566755, -0.250324376551963 ], [ -79.16256955864344, -0.250329130094554 ], [ -79.162393675304116, -0.250281594403691 ], [ -79.162303356592247, -0.250115219920008 ], [ -79.162303356630474, -0.250043916993317 ], [ -79.162175010156488, -0.249915571365192 ], [ -79.161904054787144, -0.249791979270694 ], [ -79.161671129011012, -0.249720676112536 ], [ -79.159612822756586, -0.249135989074733 ], [ -79.158386395182248, -0.248822255050421 ], [ -79.155215747109764, -0.247909573348202 ], [ -79.153870480067624, -0.247562564348526 ], [ -79.152910253775161, -0.247377175260562 ], [ -79.15232080817178, -0.247329639893452 ], [ -79.152278026444478, -0.247438972207444 ], [ -79.152297040147104, -0.24819478596492 ], [ -79.152487184525882, -0.25082825268264 ], [ -79.152667820612976, -0.252957842618734 ], [ -79.15275813880848, -0.254160490503009 ], [ -79.152815182604186, -0.254835493783294 ], [ -79.15311446038487, -0.25701875864673 ], [ -79.151888033177229, -0.257551155965617 ], [ -79.151631338725522, -0.257722283534235 ], [ -79.151222530235771, -0.2578553828745 ], [ -79.150499983354791, -0.257988482336516 ], [ -79.14932109215232, -0.258083553205126 ], [ -79.146136183695276, -0.258406793861871 ], [ -79.144320310897086, -0.258577921795739 ], [ -79.142314294242567, -0.259718773103862 ], [ -79.141838933971457, -0.259851871964995 ], [ -79.139794889052709, -0.260042014271876 ], [ -79.138996285118949, -0.260507861590732 ], [ -79.137018789276667, -0.261639205160726 ] ] } }
]
}
