{
"type": "FeatureCollection",
"name": "LINEA14_B_IDA",
"crs": { "type": "name", "properties": { "name": "urn:ogc:def:crs:OGC:1.3:CRS84" } },
"features": [
{ "type": "Feature", "properties": { "OBJECTID": 1, "SHAPE_Leng": 2061.3047812599998 }, "geometry": { "type": "LineString", "coordinates": [ [ -79.168840559981717, -0.229039684086879 ], [ -79.171103271102723, -0.228916091325531 ], [ -79.172957172732353, -0.227946366030948 ], [ -79.17477304526237, -0.226111492253516 ], [ -79.176726772873906, -0.224321778394891 ], [ -79.178445197763708, -0.222760233827893 ], [ -79.17937214797999, -0.221612249983499 ], [ -79.180251326071669, -0.220941522864977 ], [ -79.180582176292162, -0.220758985713866 ], [ -79.181618459858385, -0.220249403845702 ], [ -79.183238484651127, -0.219526863184436 ], [ -79.183981019837546, -0.219386205609959 ] ] } },
{ "type": "Feature", "properties": { "OBJECTID": 2, "SHAPE_Leng": 4660.1336149799999 }, "geometry": { "type": "LineString", "coordinates": [ [ -79.173273626064571, -0.227626601102427 ], [ -79.173012100027663, -0.228230200237089 ], [ -79.17281073785945, -0.228824680128679 ], [ -79.172739434119137, -0.22911702447155 ], [ -79.172760825495217, -0.230507438883234 ], [ -79.172746564847543, -0.231298906725332 ], [ -79.172539783384195, -0.231726726169961 ], [ -79.171905178212029, -0.23272497329371 ], [ -79.170471969627854, -0.235520063328836 ], [ -79.169309715638192, -0.237024563616148 ], [ -79.169024500250941, -0.237794638521636 ], [ -79.168725641603999, -0.238489037841915 ], [ -79.168514700560237, -0.238640557314049 ], [ -79.168586004543982, -0.238717802943239 ], [ -79.168663250702863, -0.23881881529455 ], [ -79.168707815494443, -0.238964393635801 ], [ -79.168862307072871, -0.239151564001093 ], [ -79.169135639401347, -0.239380329439169 ], [ -79.169400057414308, -0.239490255055036 ], [ -79.169542665181083, -0.239511051564218 ], [ -79.169622882656682, -0.239733874520367 ], [ -79.169593172126056, -0.239950755217997 ], [ -79.169774403257279, -0.240384517424155 ], [ -79.170089328810818, -0.24077371472798 ], [ -79.171230192043112, -0.242247315485521 ], [ -79.172989021826638, -0.244517136452089 ], [ -79.173357425419653, -0.245034084826088 ], [ -79.173401989960837, -0.245126185256154 ], [ -79.17442698364097, -0.247473251089965 ], [ -79.175457919757292, -0.24996292274768 ], [ -79.176188785145072, -0.251852457855637 ], [ -79.176233350272383, -0.25208716465581 ], [ -79.176352189749991, -0.253260696755639 ], [ -79.176378928876602, -0.253486490407802 ], [ -79.176423493245764, -0.253590474204157 ], [ -79.17641458056427, -0.253747935268728 ], [ -79.176465087929941, -0.25384300652867 ], [ -79.176530449858546, -0.253952932538183 ], [ -79.176622550835447, -0.25408365514024 ], [ -79.1766255212478, -0.254205464351425 ], [ -79.176512623746675, -0.254330245691287 ], [ -79.176408638472225, -0.254333215891768 ], [ -79.176331392408571, -0.254247057822916 ], [ -79.176298711404257, -0.25412524892899 ], [ -79.175971902138926, -0.25409256827246 ], [ -79.175719367066762, -0.254175755005208 ], [ -79.175796613261113, -0.254318361170829 ], [ -79.175948133924251, -0.254567922282129 ], [ -79.17596595993777, -0.254722412967623 ], [ -79.175808497812426, -0.254796687122584 ], [ -79.174646837321887, -0.254942264278559 ], [ -79.173479236451016, -0.255019509246579 ], [ -79.171135119855208, -0.255266099613572 ], [ -79.171197510920706, -0.255827612406145 ], [ -79.171215336217031, -0.255928625236663 ], [ -79.171702580313692, -0.25739331197762 ], [ -79.171815478204877, -0.257782508765745 ], [ -79.171812507227941, -0.257918578904515 ], [ -79.171675840713746, -0.258019592039521 ], [ -79.170962801707418, -0.258358282463842 ], [ -79.170439906353252, -0.258536539836466 ], [ -79.169593706959475, -0.258638325135944 ] ] } }
]
}
