{
"type": "FeatureCollection",
"name": "LINEA02_IDA",
"crs": { "type": "name", "properties": { "name": "urn:ogc:def:crs:OGC:1.3:CRS84" } },
"features": [
{ "type": "Feature", "properties": { "OBJECTID": 2, "SHAPE_Leng": 10314.7968728, "long": 10.3148, "Nombre_ope": "Río_Toachi", "Punto_part": "U_Catolica", "Punto_lleg": "El_Paraiso", "Sentido": "Ida" }, "geometry": { "type": "LineString", "coordinates": [ [ -79.120753142806265, -0.254313205134208 ], [ -79.120529723969213, -0.253707128213393 ], [ -79.120349087392128, -0.253260294549457 ], [ -79.120242131734216, -0.253005979214965 ], [ -79.120298699198145, -0.252962722244504 ], [ -79.120940434381438, -0.252715537457309 ], [ -79.121185244577887, -0.252613336855703 ], [ -79.121720024302903, -0.252392296836451 ], [ -79.12176518343648, -0.252382789875376 ], [ -79.121903037363523, -0.25271791474716 ], [ -79.122088428186629, -0.253129096972138 ], [ -79.122212021200141, -0.253471351636897 ], [ -79.122478222292372, -0.254184384596284 ], [ -79.122649351690058, -0.254685883449072 ], [ -79.122787206045174, -0.254997240652745 ], [ -79.122941697895811, -0.255313352144432 ], [ -79.12306529180907, -0.255498740033594 ], [ -79.123129464624341, -0.255522507543487 ], [ -79.123203145834822, -0.25552726113611 ], [ -79.123621461612402, -0.25540604562573 ], [ -79.123944706328047, -0.25530622131533 ], [ -79.124063546394964, -0.255353756749152 ], [ -79.124101574645621, -0.255463088037565 ], [ -79.124087314241208, -0.255541521792886 ], [ -79.123728417568998, -0.256152352889229 ], [ -79.123478854495929, -0.256599186526206 ], [ -79.123497868565835, -0.256820226050977 ], [ -79.123600070617769, -0.256988977389732 ], [ -79.123688012759402, -0.257103062443445 ], [ -79.123802098874819, -0.257167235361377 ], [ -79.123942329628022, -0.257133960082245 ], [ -79.124244182502238, -0.257000861276484 ], [ -79.125011888294765, -0.256713271620289 ], [ -79.12544921937571, -0.256506492236238 ], [ -79.125584379890455, -0.256467116981531 ], [ -79.126211854284506, -0.256435426225307 ], [ -79.126357631004183, -0.25649880720306 ], [ -79.12704214875852, -0.25616922775863 ], [ -79.127886703572997, -0.255777852821853 ], [ -79.128084770076029, -0.255643168379183 ], [ -79.129035489185412, -0.254858833231128 ], [ -79.129605920630624, -0.254541930537633 ], [ -79.129954517812436, -0.254462704381975 ], [ -79.132125325822301, -0.254272562214159 ], [ -79.133099812565504, -0.253939814398947 ], [ -79.133781161079483, -0.253607066079338 ], [ -79.135452841970718, -0.252783117406729 ], [ -79.137021528243423, -0.251967091422692 ], [ -79.138075241879079, -0.251396665687864 ], [ -79.13897050181275, -0.250976768820197 ], [ -79.139564701513947, -0.250707401591269 ], [ -79.140349044337015, -0.250477646737969 ], [ -79.140610491839411, -0.250374652760347 ], [ -79.140871939559958, -0.250232046189668 ], [ -79.141062083592871, -0.250105284554192 ], [ -79.14128233341583, -0.249885037472054 ], [ -79.141805228421077, -0.249219539813471 ], [ -79.142228298497329, -0.248668128885169 ], [ -79.142494499746846, -0.248382915603638 ], [ -79.143029279371774, -0.247841011044359 ], [ -79.144772264256616, -0.246801567726485 ], [ -79.145260299807148, -0.246529030806652 ], [ -79.145792702301733, -0.246465650335774 ], [ -79.146584968321932, -0.246560721693174 ], [ -79.147706816070368, -0.246712834497525 ], [ -79.149151908984578, -0.246826919917255 ], [ -79.150951937179755, -0.24701706240646 ], [ -79.152428720011727, -0.247150161674359 ], [ -79.153157604839862, -0.247238894613926 ], [ -79.153861137177813, -0.247378332135978 ], [ -79.154710445705845, -0.247600164524844 ], [ -79.156345682338937, -0.248037491067946 ], [ -79.159007695542954, -0.248823411211288 ], [ -79.162208448732898, -0.249710740679948 ], [ -79.162430283624815, -0.249786796901044 ], [ -79.162785218127738, -0.249799473098588 ], [ -79.162873952035369, -0.250065671695204 ], [ -79.162943671383786, -0.250274828528629 ], [ -79.163792980823175, -0.250946663261241 ], [ -79.16512398677726, -0.252163571361812 ], [ -79.166332033830912, -0.253279387614781 ], [ -79.166740842577084, -0.253643826672908 ], [ -79.166978522704568, -0.253865658726374 ], [ -79.167184511705443, -0.253941715134355 ], [ -79.167615504545466, -0.253951222621595 ], [ -79.168525025746831, -0.253954391663662 ], [ -79.169741945905088, -0.253970237083733 ], [ -79.170413787254873, -0.253906856047261 ], [ -79.171003233038505, -0.253799108887707 ], [ -79.171792329194403, -0.253643826467663 ], [ -79.173738134311037, -0.253228683047464 ], [ -79.174625471613737, -0.253025865618318 ], [ -79.174964561150503, -0.252987836692025 ], [ -79.175313158203252, -0.253048048911729 ], [ -79.175503301900548, -0.25320016221049 ], [ -79.175687107746199, -0.253358613569661 ], [ -79.175883589662163, -0.253437839171939 ], [ -79.176061057390328, -0.253444177950636 ], [ -79.176232186222109, -0.253374458598669 ], [ -79.176396977493823, -0.253469529768065 ], [ -79.176431837930537, -0.253646995875338 ], [ -79.176428668358184, -0.253805447027065 ], [ -79.176476204836163, -0.253897349305453 ], [ -79.176587121477269, -0.254011434198146 ], [ -79.17662831928476, -0.254179392835984 ], [ -79.176501557337758, -0.254261788168156 ], [ -79.176476204659863, -0.254398056234462 ], [ -79.176492049763084, -0.254733973074746 ], [ -79.176568107496536, -0.255234680919834 ], [ -79.176621981074589, -0.255573767261552 ], [ -79.176783603964381, -0.255957219877774 ], [ -79.176891352006521, -0.256030107721395 ], [ -79.177588545218981, -0.256454758016166 ], [ -79.178520249885736, -0.257003000044681 ], [ -79.17933469950529, -0.257475185527558 ], [ -79.18064669149976, -0.258254767116554 ], [ -79.181892133220941, -0.258993151379027 ], [ -79.183292858711496, -0.259820268240274 ], [ -79.184268930691871, -0.260397031528855 ], [ -79.185070703074061, -0.260856541734637 ], [ -79.186546457227394, -0.26171435774702 ], [ -79.187920245524381, -0.262531967766634 ], [ -79.188509691625555, -0.262878976551571 ], [ -79.188923254200901, -0.263107146963728 ], [ -79.189080122761723, -0.26313566816073 ], [ -79.189208470166193, -0.263092885713739 ], [ -79.189303541843714, -0.262974047847694 ], [ -79.189355831132332, -0.262864715805761 ], [ -79.189374845817767, -0.262565243024538 ], [ -79.189341570251258, -0.261818936128627 ], [ -79.189275019944063, -0.261143932957157 ], [ -79.189089629745069, -0.258111170440373 ], [ -79.188980297435108, -0.256304823173686 ], [ -79.188870964199907, -0.255007104351614 ] ] } }
]
}
