{
"type": "FeatureCollection",
"name": "LINEA17_A_IDA",
"crs": { "type": "name", "properties": { "name": "urn:ogc:def:crs:OGC:1.3:CRS84" } },
"features": [
{ "type": "Feature", "properties": { "OBJECTID": 1, "SHAPE_Leng": 10746.2432758, "Nombre_Ope": "Ejecutrans", "Punto_Part": "Av. Portal del lago", "Punto_Lleg": "Av. Italia (UTE)", "Longitud": 10.7462, "Sentido": "Ida" }, "geometry": { "type": "LineString", "coordinates": [ [ -79.136126155759058, -0.25350739908216 ], [ -79.13569239013286, -0.252633934665353 ], [ -79.137463104364016, -0.251742644195904 ], [ -79.138996138559705, -0.250982076828775 ], [ -79.139727003338663, -0.250679037656621 ], [ -79.140570767139195, -0.250423534545925 ], [ -79.14084409885227, -0.250263102359709 ], [ -79.141022358024145, -0.250185856769821 ], [ -79.141527427907306, -0.249579779701478 ], [ -79.142406842391608, -0.248462695346516 ], [ -79.143001042451814, -0.247892269152545 ], [ -79.143256547568171, -0.247737779246299 ], [ -79.14382103668602, -0.249157901869915 ], [ -79.144540017853046, -0.24885486367064 ], [ -79.145734359293797, -0.248539940873409 ], [ -79.145983922439271, -0.248474579571914 ], [ -79.147017829215883, -0.248468637298768 ], [ -79.147511015015155, -0.248480521042009 ], [ -79.147472392129799, -0.247820966338134 ], [ -79.147383261771267, -0.246668230154304 ], [ -79.148203257207058, -0.246730620259731 ], [ -79.149626364484234, -0.246894024345359 ], [ -79.151581280073287, -0.247090107859591 ], [ -79.153200473069248, -0.247244598349037 ], [ -79.15359561603637, -0.247321843895479 ], [ -79.155087056078273, -0.247716982471868 ], [ -79.157050884849724, -0.24825472723858 ], [ -79.159834708726947, -0.249003412142989 ], [ -79.16102607842852, -0.249321305609282 ], [ -79.162282809821946, -0.249734270118266 ], [ -79.162437301877233, -0.249763979721209 ], [ -79.162529402385047, -0.249758038117258 ], [ -79.162594765008762, -0.249737241134074 ], [ -79.162689836223592, -0.249755066688406 ], [ -79.162773023968683, -0.249805573348468 ], [ -79.162850269953651, -0.249888760146323 ], [ -79.162868095839372, -0.249986801951585 ], [ -79.16288295104296, -0.250099699477738 ], [ -79.162915631993414, -0.250188828251929 ], [ -79.162986935842383, -0.250274986547007 ], [ -79.163188964007787, -0.250462156831502 ], [ -79.163447441008145, -0.25067309555054 ], [ -79.163771278995, -0.250985047987634 ], [ -79.164849750957686, -0.251935757362391 ], [ -79.166602638835499, -0.253522253856059 ], [ -79.166997781942527, -0.25388768304464 ], [ -79.167101766614863, -0.253923334980827 ], [ -79.167303793758535, -0.253947102596592 ], [ -79.168281252023164, -0.253929277067127 ], [ -79.169989574708481, -0.253914422170908 ], [ -79.170435224647449, -0.253884711797706 ], [ -79.170863048128624, -0.253813408898004 ], [ -79.171896954496304, -0.253590586317274 ], [ -79.174163825676658, -0.253109289528043 ], [ -79.174535199483614, -0.253017189930851 ], [ -79.174802589766713, -0.25298748007402 ], [ -79.175105630962008, -0.252987479592152 ], [ -79.175375992149498, -0.253070667259392 ], [ -79.175497802604852, -0.253144941312747 ], [ -79.175598816656105, -0.253275664164379 ], [ -79.175774105624654, -0.253388560845536 ], [ -79.175946423093578, -0.253445008994458 ], [ -79.176071205153946, -0.253421241683398 ], [ -79.176181131971759, -0.253361822329206 ], [ -79.176249465002968, -0.253370734552084 ], [ -79.176374246788768, -0.253400444846193 ], [ -79.176403956675856, -0.253456892681424 ], [ -79.176430695283543, -0.25355790613601 ], [ -79.176433666494759, -0.253667831418147 ], [ -79.176439608744218, -0.253792612468799 ], [ -79.176510912917266, -0.253905508941601 ], [ -79.1765703325365, -0.254006521626582 ], [ -79.176775331696817, -0.254116447601574 ], [ -79.177758731023886, -0.25458883180212 ], [ -79.178373727206932, -0.25484136371681 ], [ -79.178795609131853, -0.254903754294523 ], [ -79.180001833502374, -0.254942376558031 ], [ -79.181736895904265, -0.254909696131503 ], [ -79.183849273785768, -0.254888898699469 ], [ -79.186288462717741, -0.254874043993873 ], [ -79.188751418915558, -0.25485027688927 ], [ -79.191374808732476, -0.254829479873123 ], [ -79.193294072503392, -0.254793827725159 ], [ -79.19420913941893, -0.254639337888942 ], [ -79.195474783809217, -0.254377892925122 ], [ -79.197272236407983, -0.253994637877991 ], [ -79.197762451282216, -0.253813409307302 ], [ -79.198228897627175, -0.253531167304106 ], [ -79.198621069271866, -0.253245954127714 ], [ -79.199013240811254, -0.252883496204622 ], [ -79.199714396024063, -0.252102131145632 ], [ -79.200555188100452, -0.251178160546408 ], [ -79.201544529822002, -0.250028395724608 ], [ -79.20167228247648, -0.249844195606409 ], [ -79.201782209931864, -0.249564924865291 ], [ -79.201814890649516, -0.249398550394027 ], [ -79.201850542445428, -0.249214350200253 ], [ -79.201915904455504, -0.249095512018946 ], [ -79.202088222325457, -0.248976673143694 ], [ -79.202254598056342, -0.248952905210797 ], [ -79.202373437842056, -0.248938050593182 ], [ -79.202617059884957, -0.24880435684436 ], [ -79.20279234859747, -0.248649866929604 ], [ -79.203237997895968, -0.248124004933144 ], [ -79.203618285972837, -0.247684302023001 ], [ -79.203870819918635, -0.247253511315468 ], [ -79.203989660475457, -0.247066339861125 ], [ -79.204161978275678, -0.246573159668452 ], [ -79.204271905098622, -0.246100774877668 ], [ -79.204393716077931, -0.245206513322604 ], [ -79.204491758610288, -0.24449942257923 ], [ -79.204642685215603, -0.243903446437414 ], [ -79.204846495214113, -0.243485727972934 ], [ -79.205045552615246, -0.243203485935979 ], [ -79.205295115903397, -0.242977692405485 ], [ -79.205666490572469, -0.242742985274941 ], [ -79.20597547468445, -0.242588495142512 ], [ -79.206534021707583, -0.242436975357782 ], [ -79.207502566860526, -0.242306252587665 ], [ -79.207428291236965, -0.241732855159047 ], [ -79.207273799700189, -0.240425628570615 ], [ -79.207163873101919, -0.239418469836929 ], [ -79.206988584309002, -0.238025084220889 ], [ -79.206843004948738, -0.236643582330651 ], [ -79.206721194584148, -0.235410629749843 ], [ -79.206590470564464, -0.234118256514641 ], [ -79.206406269028761, -0.232591177581219 ] ] } }
]
}
