{
"type": "FeatureCollection",
"name": "LINEA13_RETORNO",
"crs": { "type": "name", "properties": { "name": "urn:ogc:def:crs:OGC:1.3:CRS84" } },
"features": [
{ "type": "Feature", "properties": { "OBJECTID": 1, "SHAPE_Leng": 9908.031 }, "geometry": { "type": "LineString", "coordinates": [ [ -79.136847944880984, -0.261549642618729 ], [ -79.139628797995769, -0.259956016140374 ], [ -79.139906883397742, -0.259866887369668 ], [ -79.140106534706788, -0.259820540634625 ], [ -79.140338271744923, -0.25979914965206 ], [ -79.141132122769491, -0.259732599508947 ], [ -79.142021044709679, -0.259680310726606 ], [ -79.142249217186588, -0.259589993399463 ], [ -79.144050829578191, -0.258563226889788 ], [ -79.14439308821575, -0.258430127741404 ], [ -79.150829455265878, -0.257793153201613 ], [ -79.151794435204479, -0.257436637091309 ], [ -79.152730892823797, -0.256942267677611 ], [ -79.152949558474091, -0.256804415547859 ], [ -79.152684625243552, -0.254035394832875 ], [ -79.152228280149814, -0.254059162644888 ], [ -79.152166483211573, -0.253203523531998 ], [ -79.152665610375749, -0.253222537556563 ], [ -79.152831986539653, -0.25496043481222 ], [ -79.152915649217633, -0.255719101234096 ], [ -79.153037341148718, -0.2567838953344 ], [ -79.153299739874129, -0.25671544499727 ], [ -79.154182006739276, -0.256460654641987 ], [ -79.154984413871148, -0.256217273181468 ], [ -79.156042959886548, -0.255942676426038 ], [ -79.157267010413051, -0.255752533947611 ], [ -79.157819615795347, -0.255704999091317 ], [ -79.160077573087094, -0.25618629560437 ], [ -79.160648005212622, -0.256328902412575 ], [ -79.161111479889897, -0.256406147309188 ], [ -79.161236262252544, -0.254712695656767 ], [ -79.161337275905581, -0.253256922085992 ], [ -79.161390753708133, -0.252710263386186 ], [ -79.161456115594092, -0.252324037850931 ], [ -79.161646259330496, -0.251349560292477 ], [ -79.161729447332732, -0.251153476439826 ], [ -79.16232364721202, -0.250309721563326 ], [ -79.162323646759333, -0.250196825261389 ], [ -79.162311762697442, -0.249994798625216 ], [ -79.162389008852642, -0.249798715602631 ], [ -79.162644514765589, -0.249774947762947 ], [ -79.162810889963112, -0.249852192533774 ], [ -79.162840600018654, -0.250048276208219 ], [ -79.162953498610136, -0.250250302682789 ], [ -79.163142335093738, -0.250421311012533 ], [ -79.163570158705213, -0.249856827076516 ], [ -79.165132902363766, -0.25126506588384 ], [ -79.165911303168201, -0.251894911238958 ], [ -79.166386663245447, -0.252096937109716 ], [ -79.16665405269238, -0.252102878970186 ], [ -79.168478244456651, -0.25200186603988 ], [ -79.170961997356059, -0.251906795589087 ], [ -79.171597790823853, -0.251912736954323 ], [ -79.172138512527852, -0.25203157625587 ], [ -79.172875319501628, -0.251942447184475 ], [ -79.173386331025156, -0.251906795310922 ], [ -79.173927052003364, -0.251692885490848 ], [ -79.175638346810501, -0.25043913722714 ], [ -79.176196893735479, -0.251888969795973 ], [ -79.176339501776013, -0.251924620839004 ], [ -79.176779209056818, -0.251995923914805 ], [ -79.177135728467263, -0.251942446784296 ], [ -79.177712101656567, -0.251627524416244 ], [ -79.179797741390246, -0.250468847043801 ], [ -79.183071779810078, -0.250445079052873 ], [ -79.182994533868765, -0.249262633342881 ], [ -79.183665979248417, -0.249250749512891 ], [ -79.183677862970853, -0.244978496115507 ], [ -79.185769444728351, -0.24493096069804 ], [ -79.185710024874311, -0.244705166981684 ], [ -79.185668431240202, -0.244372419010644 ], [ -79.185656546797475, -0.243641560062908 ], [ -79.185662488636282, -0.242928527690824 ], [ -79.185739734924638, -0.24289881734074 ], [ -79.18896029482174, -0.241246957860489 ], [ -79.190540865633878, -0.240278422130912 ], [ -79.19107564498772, -0.239737704864833 ], [ -79.192038247323325, -0.238258162218319 ], [ -79.1929830249003, -0.23841859386936 ], [ -79.194022873395369, -0.238561201290294 ], [ -79.1953598215581, -0.238798878790108 ], [ -79.195841123656592, -0.23878105304499 ], [ -79.196447206636478, -0.238626561833926 ], [ -79.196857204314838, -0.238430478483427 ], [ -79.196976044380278, -0.238347291328198 ], [ -79.197356331287381, -0.237943239314878 ], [ -79.197635605494398, -0.23750353525137 ], [ -79.197700967194308, -0.237206437908501 ] ] } }
]
}
