{
"type": "FeatureCollection",
"name": "LINEA04B_IDA",
"crs": { "type": "name", "properties": { "name": "urn:ogc:def:crs:OGC:1.3:CRS84" } },
"features": [
{ "type": "Feature", "properties": { "OBJECTID": 1, "SHAPE_Leng": 10114.3470788, "long": 10.1143, "Nombre_ope": "Rio_Toachi", "Punto_part": "Camino_al_futuro", "Punto_lleg": "El_Eden", "Sentido": "Ida" }, "geometry": { "type": "LineString", "coordinates": [ [ -79.206280330502608, -0.265924997544591 ], [ -79.206535123437448, -0.265665929136544 ], [ -79.205898378993879, -0.265063060672298 ], [ -79.205656778048748, -0.265345302375672 ], [ -79.205390338606463, -0.265629801982254 ], [ -79.205080999005816, -0.265853337414349 ], [ -79.204868751017841, -0.265934623193249 ], [ -79.204710693302843, -0.265939139551288 ], [ -79.204040080686596, -0.265814952781565 ], [ -79.203558421903395, -0.26575993073213 ], [ -79.203118714778157, -0.265672782034285 ], [ -79.202595819138992, -0.265542060057958 ], [ -79.202346255894724, -0.265486601823353 ], [ -79.202413598696751, -0.265268731033672 ], [ -79.202453211435866, -0.264979557078696 ], [ -79.20246319399449, -0.264134139853745 ], [ -79.202463194409262, -0.263141836675166 ], [ -79.202449329750323, -0.262264411600703 ], [ -79.20241193412464, -0.260648998724554 ], [ -79.202402427358308, -0.260083326769837 ], [ -79.202414311110601, -0.259867040265841 ], [ -79.202447586877469, -0.259736318269144 ], [ -79.20254265840299, -0.259353657392711 ], [ -79.202954002554804, -0.258286962214536 ], [ -79.203259817602699, -0.257507644593863 ], [ -79.203386580255213, -0.257202625169 ], [ -79.203620298692371, -0.256596547765677 ], [ -79.203784693528647, -0.256190516000169 ], [ -79.20385995899413, -0.25598254861011 ], [ -79.204020392045805, -0.255566612458164 ], [ -79.204192710264124, -0.255107103174746 ], [ -79.204265995242181, -0.254871406450827 ], [ -79.204378892360367, -0.254481219254657 ], [ -79.204412564041405, -0.254271270939836 ], [ -79.204468022279755, -0.253919706653404 ], [ -79.204460100150797, -0.253539422476134 ], [ -79.204436332266383, -0.253171022905313 ], [ -79.204396718526993, -0.252893732268049 ], [ -79.204254110923088, -0.252406494187548 ], [ -79.204115464336951, -0.252038094094449 ], [ -79.203905513725005, -0.251630081063171 ], [ -79.20365594981142, -0.251261681111583 ], [ -79.20333112141833, -0.250802171526961 ], [ -79.203093441673133, -0.250489229513668 ], [ -79.202839916274286, -0.250207977805344 ], [ -79.202471512875235, -0.249930687375715 ], [ -79.202376441199263, -0.249847500134658 ], [ -79.202265523536809, -0.249811847966983 ], [ -79.202087264096136, -0.249835615992368 ], [ -79.201889197275676, -0.249974261357108 ], [ -79.20163567289832, -0.250207977116531 ], [ -79.201397993240107, -0.250469423008445 ], [ -79.201164274619529, -0.250718984392407 ], [ -79.200791909541977, -0.251119074111333 ], [ -79.200356163132724, -0.251590468337178 ], [ -79.200066985955928, -0.251915294119529 ], [ -79.199777808944106, -0.252232197379928 ], [ -79.19935790859887, -0.252687745718628 ], [ -79.198989504537423, -0.253107642511273 ], [ -79.198462648252757, -0.253551306746442 ], [ -79.198038786167743, -0.253880093575537 ], [ -79.197404973451029, -0.254090041834947 ], [ -79.196874947681536, -0.25423423350304 ], [ -79.195876693072194, -0.254433881927196 ], [ -79.195358551272108, -0.254552720796897 ], [ -79.19481664113232, -0.254647791768595 ], [ -79.194327020813475, -0.254776137556489 ], [ -79.193713807574241, -0.254875962033037 ], [ -79.193114854652123, -0.254971032828048 ], [ -79.190625555250747, -0.255034413317045 ], [ -79.189056868772539, -0.255050258338581 ], [ -79.187828857214171, -0.255010646105853 ], [ -79.18645823719956, -0.255002722887133 ], [ -79.184794479442999, -0.255018568355193 ], [ -79.182663284132659, -0.255034413135616 ], [ -79.180880686707894, -0.255034413656072 ], [ -79.179597216261257, -0.255089871655405 ], [ -79.178654420091078, -0.25503441401255 ], [ -79.177775004873311, -0.254820503725138 ], [ -79.177180805155913, -0.254519446263713 ], [ -79.176752981997879, -0.254289690817979 ], [ -79.176569175851043, -0.254273846279006 ], [ -79.176426568660219, -0.254283353382341 ], [ -79.176375863307484, -0.254223141688231 ], [ -79.176306143831823, -0.254134408430812 ], [ -79.176217409908674, -0.254102718338623 ], [ -79.175929025300334, -0.254112225520109 ], [ -79.17572937419493, -0.254162930269118 ], [ -79.175811770376427, -0.254315043754244 ], [ -79.17593536330682, -0.254559058620199 ], [ -79.175954377568161, -0.254720679640317 ], [ -79.175916349471194, -0.254777721880173 ], [ -79.175589935894308, -0.254837934050638 ], [ -79.175390285203562, -0.254847441094227 ], [ -79.175101899856642, -0.254907652317736 ], [ -79.174791331958374, -0.254923497811057 ], [ -79.174414213332867, -0.254955187432008 ], [ -79.174030756462784, -0.254983709374116 ], [ -79.17363145500623, -0.255018568855114 ], [ -79.17331454814132, -0.255031244818088 ], [ -79.172696581513165, -0.255097793807102 ], [ -79.172211714261024, -0.255161175124238 ], [ -79.171809243365303, -0.255189696007921 ], [ -79.171232474215401, -0.255230893249277 ], [ -79.171010639709323, -0.25527209064081 ], [ -79.170408518007704, -0.255240400258186 ], [ -79.170012384440511, -0.255186526975993 ], [ -79.169378572014708, -0.255148498570438 ], [ -79.168760604887609, -0.255088287168441 ], [ -79.168440529949009, -0.255075611415606 ], [ -79.168276530668521, -0.255058181698004 ], [ -79.168295544993583, -0.255027282948086 ], [ -79.168312182136532, -0.254891807324876 ], [ -79.168314559552229, -0.25474682401563 ], [ -79.16832406688458, -0.254532914064424 ], [ -79.168328423990573, -0.253947832098353 ], [ -79.168322481685408, -0.253607160860799 ], [ -79.168324462924943, -0.253359580397272 ], [ -79.168312578303969, -0.253003063771828 ], [ -79.168318521003627, -0.252682199457202 ], [ -79.168314559190151, -0.252301915333615 ], [ -79.168310598276179, -0.251798831914746 ], [ -79.168330404442813, -0.251371012089484 ], [ -79.168320501028987, -0.250974883486269 ], [ -79.168332385530732, -0.250566870476552 ], [ -79.168330405021635, -0.250184606289986 ], [ -79.168320501424162, -0.249606257279374 ], [ -79.16830069426122, -0.249265585922339 ], [ -79.168302675569961, -0.248954624560729 ], [ -79.168298713755931, -0.24858820555449 ], [ -79.168290791325347, -0.248289127575966 ], [ -79.168238105858663, -0.246694311885927 ], [ -79.168238105394892, -0.245783214378381 ], [ -79.168214337961572, -0.245093949886273 ], [ -79.168214337358734, -0.244396761882358 ], [ -79.168214338035398, -0.243628271617695 ], [ -79.168190569899608, -0.2427647099363 ], [ -79.168190569327351, -0.241893224714202 ], [ -79.16816680161368, -0.241100966228414 ], [ -79.168174724473687, -0.240538462459828 ], [ -79.16817472397365, -0.239746203582783 ], [ -79.168158879274031, -0.239381764266597 ], [ -79.168095498224147, -0.239239158462509 ], [ -79.16803290887168, -0.23910051255408 ], [ -79.168032908485429, -0.238839067642409 ], [ -79.16813748800233, -0.238691707162343 ], [ -79.168151748330317, -0.23856811493744 ], [ -79.16804241570479, -0.238292408660039 ], [ -79.167904562076842, -0.238130787984922 ], [ -79.167733432607747, -0.237883603086259 ], [ -79.167557549725487, -0.237588883076346 ], [ -79.167373743336626, -0.237221274660956 ], [ -79.167234304544024, -0.236688876209817 ], [ -79.167177261942385, -0.236321268516946 ], [ -79.167177261732931, -0.235966336266959 ], [ -79.167196276550072, -0.235592389837341 ], [ -79.16719627595441, -0.235136048755243 ], [ -79.167238530346239, -0.234726715149351 ], [ -79.167181487547239, -0.234260866331563 ], [ -79.1670198648671, -0.233899596530652 ], [ -79.167095922259222, -0.233471776958756 ], [ -79.167314587868418, -0.233357690996048 ], [ -79.167381138242504, -0.233062970710042 ], [ -79.167438181065023, -0.232815786388925 ], [ -79.167542760670443, -0.232245359594578 ], [ -79.167590296152554, -0.231722467964299 ], [ -79.167637832361692, -0.230933377725728 ], [ -79.167647339333129, -0.230524572283819 ], [ -79.167641397286999, -0.230484959259568 ], [ -79.167587919609772, -0.230480997978001 ], [ -79.167312607482884, -0.23050080459951 ], [ -79.166948165260834, -0.23052655243338 ], [ -79.166631258440987, -0.230582010611611 ], [ -79.166351985009015, -0.230653314556908 ], [ -79.165868702524847, -0.230867224358264 ], [ -79.165393343281892, -0.231095395305943 ], [ -79.165290349188169, -0.231052612921344 ], [ -79.16510337412457, -0.230955957123471 ], [ -79.164791221025567, -0.230814935444214 ], [ -79.164187514989763, -0.230537644081314 ], [ -79.1637311695752, -0.230311057774026 ], [ -79.163205105112169, -0.230052781667093 ], [ -79.163135385800643, -0.23020489501915 ], [ -79.163056159195506, -0.230382361759486 ], [ -79.162999116138081, -0.230515460982479 ], [ -79.162932566310289, -0.2306628209985 ], [ -79.162804219073351, -0.230922682275072 ], [ -79.162679040833069, -0.231174620773601 ], [ -79.162604567473366, -0.231289498579093 ], [ -79.162338366399595, -0.231346540939537 ], [ -79.162148222995796, -0.231387738763158 ], [ -79.16211019414655, -0.231514499674 ], [ -79.162183082694469, -0.231869432303716 ] ] } }
]
}
