{
"type": "FeatureCollection",
"name": "LINEA14_A_IDA",
"crs": { "type": "name", "properties": { "name": "urn:ogc:def:crs:OGC:1.3:CRS84" } },
"features": [
{ "type": "Feature", "properties": { "OBJECTID": 1, "SHAPE_Leng": 8098.81613956 }, "geometry": { "type": "LineString", "coordinates": [ [ -79.212229041780006, -0.26024340766153 ], [ -79.208049443307644, -0.260576868966268 ], [ -79.207923948144696, -0.259283904186529 ], [ -79.207834819076282, -0.258351021345272 ], [ -79.20774242106107, -0.257416652389615 ], [ -79.205751852515007, -0.257196800252815 ], [ -79.206487471677917, -0.262659813007057 ], [ -79.206493413406193, -0.26274894200332 ], [ -79.20244810486416, -0.263305106394531 ], [ -79.20240056887333, -0.260343647864381 ], [ -79.202436220481545, -0.259838583811624 ], [ -79.202513467047865, -0.259369171618903 ], [ -79.202632306653797, -0.25909584192659 ], [ -79.203458243309953, -0.256992398458829 ], [ -79.204076211262617, -0.255411844006702 ], [ -79.204290122950241, -0.254734463274866 ], [ -79.204420846174443, -0.254158095534854 ], [ -79.204456498215649, -0.253480714952072 ], [ -79.204408962081786, -0.253183618476989 ], [ -79.20439113614232, -0.25295782442466 ], [ -79.204248528389627, -0.252458702241696 ], [ -79.204004906724165, -0.251858566658845 ], [ -79.203749401053074, -0.251358255266525 ], [ -79.203285925827117, -0.250728410115705 ], [ -79.202911580654416, -0.250318416949777 ], [ -79.202311439278944, -0.249801468603217 ], [ -79.202055933089284, -0.249878713410452 ], [ -79.201544921757559, -0.250276822992271 ], [ -79.201331010273819, -0.250532326489125 ], [ -79.200054669778609, -0.251925116523827 ], [ -79.198804474169066, -0.253289384385169 ], [ -79.198414679344452, -0.253612625647683 ], [ -79.198043899165171, -0.253897838995089 ], [ -79.197110411857665, -0.254216326596397 ], [ -79.194633789175924, -0.254739216630021 ], [ -79.193816170927136, -0.254910344504782 ], [ -79.193378840263307, -0.254976893687677 ], [ -79.191068593720573, -0.255024429505139 ], [ -79.187626991559512, -0.255029183168309 ], [ -79.18336301676797, -0.255067211133778 ], [ -79.17925591076478, -0.255095732443649 ], [ -79.17873776956678, -0.255076718648164 ], [ -79.178357482179536, -0.255005415133631 ], [ -79.17793916524974, -0.254867562747851 ], [ -79.176688970246317, -0.254287629924701 ], [ -79.176565376450583, -0.254292383273407 ], [ -79.176360972228622, -0.254282876543452 ], [ -79.176327697286439, -0.254149776848868 ], [ -79.176223117734096, -0.254092734202752 ], [ -79.175923514649767, -0.254118910002182 ], [ -79.175758089421294, -0.254170248990159 ], [ -79.175779005617443, -0.254265319636168 ], [ -79.175828442493795, -0.254339474970705 ], [ -79.175936824291654, -0.254542926657343 ], [ -79.175980557422434, -0.254687435183634 ], [ -79.175946331609225, -0.254750181195987 ], [ -79.175830344030686, -0.25479961826259 ], [ -79.175263715959119, -0.254875675125478 ], [ -79.174339616931448, -0.254972647255003 ], [ -79.171166196398829, -0.255260930751238 ], [ -79.171244630494243, -0.255912166352394 ], [ -79.171636802415591, -0.257148088648826 ], [ -79.171850713576859, -0.258003726651044 ], [ -79.170484055607318, -0.25855038514342 ], [ -79.169593706959475, -0.258638325135944 ] ] } }
]
}
