{
"type": "FeatureCollection",
"name": "LINEA12_B_IDA",
"crs": { "type": "name", "properties": { "name": "urn:ogc:def:crs:OGC:1.3:CRS84" } },
"features": [
{ "type": "Feature", "properties": { "OBJECTID": 1, "SHAPE_Leng": 9835.0047836199992 }, "geometry": { "type": "LineString", "coordinates": [ [ -79.196560556408642, -0.275283994645507 ], [ -79.196495669617278, -0.274205654386132 ], [ -79.19465246286461, -0.274041657603739 ], [ -79.194509855299401, -0.271595960958642 ], [ -79.194017858581873, -0.271250140477877 ], [ -79.193572209258804, -0.271139620397119 ], [ -79.193222819649563, -0.271178837086785 ], [ -79.192599355935556, -0.271232166299353 ], [ -79.192542312432735, -0.270062795125898 ], [ -79.183634076730343, -0.264824391133499 ], [ -79.183025616469109, -0.264938475776156 ], [ -79.182778429441811, -0.264862418838028 ], [ -79.182607300450044, -0.264672277399018 ], [ -79.183158717261662, -0.263626497949404 ], [ -79.184009858403869, -0.262194690144383 ], [ -79.184756172663569, -0.260849437285661 ], [ -79.180715616756544, -0.258496432009762 ], [ -79.176774887508842, -0.256053109239337 ], [ -79.176033326983926, -0.255677579164639 ], [ -79.175453387638896, -0.25553972621546 ], [ -79.175562720361299, -0.254826693716322 ], [ -79.174697566557398, -0.254940779476618 ], [ -79.171046805545544, -0.255273527275736 ], [ -79.168465603598264, -0.255083385365868 ], [ -79.168014012256918, -0.254974053694324 ], [ -79.167053786059057, -0.254142182907458 ], [ -79.165618201319475, -0.252825450038215 ], [ -79.162899144579782, -0.250386879430643 ], [ -79.16274702976132, -0.250301315590941 ], [ -79.162514103458662, -0.250329837541388 ], [ -79.162347727618751, -0.250225258679637 ], [ -79.16229543794239, -0.250082652684763 ], [ -79.162162338000513, -0.249916278521611 ], [ -79.161477819709788, -0.249645325643409 ], [ -79.160355971553372, -0.249322084855464 ], [ -79.157028455469288, -0.248423663381119 ], [ -79.154166791420778, -0.247629821240136 ], [ -79.152930856646378, -0.247373128881361 ], [ -79.152232078552373, -0.247320839878539 ], [ -79.152388947152701, -0.249497966244646 ], [ -79.152593352205216, -0.251903262095286 ], [ -79.152854799815998, -0.255064371704899 ], [ -79.153063958021235, -0.256989558226386 ], [ -79.152498279618044, -0.25725575623807 ], [ -79.152008659377529, -0.257502940484731 ], [ -79.15162837190654, -0.257678821782688 ], [ -79.1513669242769, -0.257792907161699 ], [ -79.15065388482482, -0.257964034770388 ], [ -79.149389429111736, -0.258082873270567 ], [ -79.14556753912008, -0.258458403778767 ], [ -79.144307836248245, -0.258567735351982 ], [ -79.143718390650619, -0.258890976067751 ], [ -79.142311326986743, -0.259746614599003 ], [ -79.142064140115863, -0.259832178152147 ], [ -79.141850228547611, -0.259860700044306 ], [ -79.141113420946596, -0.259893974954557 ], [ -79.140495453687549, -0.25992724933017 ], [ -79.139820443640261, -0.260031827152935 ], [ -79.138850710066919, -0.260568978137905 ], [ -79.136877968615636, -0.261724089531557 ] ] } }
]
}
