{
"type": "FeatureCollection",
"name": "LINEA_A_RETORNO",
"crs": { "type": "name", "properties": { "name": "urn:ogc:def:crs:OGC:1.3:CRS84" } },
"features": [
{ "type": "Feature", "properties": { "OBJECTID": 1, "SHAPE_Leng": 10257.3649769 }, "geometry": { "type": "LineString", "coordinates": [ [ -79.136954989042252, -0.261485443326268 ], [ -79.138652022194236, -0.26052047351031 ], [ -79.139621755622969, -0.259940540646338 ], [ -79.140116129187447, -0.259821702211464 ], [ -79.140529692190981, -0.259769413677146 ], [ -79.141185688266688, -0.259726631241742 ], [ -79.142017566902652, -0.259655328432328 ], [ -79.142212463902339, -0.259617300002834 ], [ -79.143201212264614, -0.259042120744644 ], [ -79.144313552848686, -0.258428913383308 ], [ -79.145910760544268, -0.258272046726846 ], [ -79.150878266799594, -0.257787185010134 ], [ -79.151092179000642, -0.257730142299611 ], [ -79.151809971985415, -0.257440175909686 ], [ -79.152442199476624, -0.257088413364412 ], [ -79.152898544748837, -0.256845982287629 ], [ -79.152708401191234, -0.255144212788736 ], [ -79.152689386672691, -0.254597554529372 ], [ -79.152556285983096, -0.253470963976543 ], [ -79.152442199930022, -0.251916553901706 ], [ -79.152313852699805, -0.250200523126095 ], [ -79.152152230679647, -0.248237307293272 ], [ -79.152074746739203, -0.24708694788743 ], [ -79.153187088179848, -0.247229555044897 ], [ -79.153519839481717, -0.247267583209065 ], [ -79.154898382233839, -0.247628853162067 ], [ -79.161873093635378, -0.24959504009342 ], [ -79.162241497544201, -0.249731704334035 ], [ -79.162497003409982, -0.249779240328351 ], [ -79.162642580985462, -0.249761414291721 ], [ -79.162791131043392, -0.249838659264043 ], [ -79.162871348138125, -0.249942642724058 ], [ -79.162889173788372, -0.250132785531419 ], [ -79.162948593797253, -0.250221914460098 ], [ -79.164674742671309, -0.251769788347031 ], [ -79.166968351800534, -0.253855407429239 ], [ -79.167119873308081, -0.253920768548598 ], [ -79.16734864006726, -0.253947506876166 ], [ -79.169276816824791, -0.253926710806524 ], [ -79.170334491655126, -0.253885117927403 ], [ -79.170818763614051, -0.253828669331957 ], [ -79.171234703312862, -0.253721713960883 ], [ -79.173400559883689, -0.253276069453859 ], [ -79.174211641965869, -0.25309483976157 ], [ -79.174636494127739, -0.252990856596554 ], [ -79.175073230910058, -0.252976001635231 ], [ -79.175281200378606, -0.253008682444726 ], [ -79.17548916992213, -0.253124549717828 ], [ -79.175610980843345, -0.253279040622477 ], [ -79.175818950897821, -0.253397878468816 ], [ -79.176006123766726, -0.253463240304248 ], [ -79.17609525356032, -0.253406792149891 ], [ -79.176231919082298, -0.253377081847549 ], [ -79.176356701777763, -0.25336816896671 ], [ -79.176422063044583, -0.25345729855312 ], [ -79.17644583115495, -0.253552369629634 ], [ -79.176436917881091, -0.253656353077081 ], [ -79.176457715529935, -0.253790046912893 ], [ -79.176514164150959, -0.253920768959057 ], [ -79.176606265219775, -0.254018811240144 ], [ -79.176662714275636, -0.254107940498984 ], [ -79.176618148897262, -0.254280256380581 ], [ -79.176511192993303, -0.254348588603947 ], [ -79.176484454433208, -0.254624888099834 ], [ -79.1765557584188, -0.255153719864946 ], [ -79.176698366336524, -0.255750883993172 ], [ -79.176772641073654, -0.255932113057705 ], [ -79.176873654678388, -0.256027184394706 ], [ -79.177286623042505, -0.25626189082724 ], [ -79.179303930092388, -0.257435422099001 ], [ -79.181695582208476, -0.258846631732226 ], [ -79.184838896638439, -0.260688630472549 ], [ -79.187004753242476, -0.26195426177101 ], [ -79.189839083769968, -0.263668508363341 ], [ -79.190249081742934, -0.264013140376946 ], [ -79.191832622815127, -0.26554021628673 ], [ -79.192049505669402, -0.265813545389311 ], [ -79.191942549433605, -0.265985861443106 ], [ -79.191906897217592, -0.266401795894072 ], [ -79.191892042433167, -0.266695921775026 ], [ -79.191903926260537, -0.266995989098156 ], [ -79.192061032743069, -0.26923692754059 ], [ -79.192203957236345, -0.269802345893297 ], [ -79.192274596238235, -0.271155426552793 ], [ -79.193453487660193, -0.271012820003536 ], [ -79.19363593426101, -0.27106280427368 ], [ -79.19388435363328, -0.275321998712919 ], [ -79.193941396220325, -0.275970857230131 ], [ -79.193984179090634, -0.276417689595172 ], [ -79.193898614410472, -0.276676757760817 ], [ -79.193782151125731, -0.276836001459179 ], [ -79.192770039397175, -0.278059942137416 ], [ -79.192762909002539, -0.278084898209943 ], [ -79.191839523307507, -0.277311260219902 ], [ -79.191311874602889, -0.277970814132991 ], [ -79.192256650878576, -0.278740887301394 ], [ -79.191925088251367, -0.279122358037927 ] ] } }
]
}
