{
"type": "FeatureCollection",
"name": "LINEA15_RETORNO",
"crs": { "type": "name", "properties": { "name": "urn:ogc:def:crs:OGC:1.3:CRS84" } },
"features": [
{ "type": "Feature", "properties": { "OBJECTID": 1, "SHAPE_Leng": 9748.1604644199997 }, "geometry": { "type": "LineString", "coordinates": [ [ -79.181560445698921, -0.224952357299771 ], [ -79.18101675368159, -0.225020690025651 ], [ -79.18000364383019, -0.225038515286781 ], [ -79.179970962874037, -0.225074167519815 ], [ -79.180003643710037, -0.226850809731089 ], [ -79.180025431081276, -0.227818950264979 ], [ -79.178756221069875, -0.227911644756307 ], [ -79.175974972637235, -0.22821765510695 ], [ -79.175946450646975, -0.228778574486469 ], [ -79.174668221033514, -0.231917173913607 ], [ -79.172274299205867, -0.232177367017029 ], [ -79.171489955813385, -0.233599868381804 ], [ -79.170837525016026, -0.234947501677243 ], [ -79.170269262548231, -0.235576248470937 ], [ -79.169855699864598, -0.236196587591161 ], [ -79.169313789656854, -0.237102139358976 ], [ -79.168916865188933, -0.238083747868551 ], [ -79.168855068253436, -0.238276266899709 ], [ -79.168710083828287, -0.238513944669498 ], [ -79.168541330542979, -0.238630406882314 ], [ -79.168584112865219, -0.238711216920515 ], [ -79.16867443152114, -0.238820548464071 ], [ -79.168738605081401, -0.238975039172015 ], [ -79.168809908927827, -0.239141413809117 ], [ -79.169014313123398, -0.239272136667153 ], [ -79.169211587671427, -0.239386221902398 ], [ -79.169344688021127, -0.239445641053369 ], [ -79.169553845987636, -0.239526451821441 ], [ -79.169601382707398, -0.239721347535431 ], [ -79.169608512657803, -0.239999430332651 ], [ -79.169632280960144, -0.24014441367862 ], [ -79.170435637997926, -0.241211585863039 ], [ -79.171469544582436, -0.242563971825731 ], [ -79.172798174518746, -0.24425861260082 ], [ -79.173340084223625, -0.2450215574238 ], [ -79.173401881164693, -0.245107121454774 ], [ -79.174036486418956, -0.246504665482545 ], [ -79.174573642330941, -0.247792877151746 ], [ -79.175120305858186, -0.249135755783156 ], [ -79.175842852279345, -0.25094923454684 ], [ -79.176201748488594, -0.251909451287091 ], [ -79.176254038075271, -0.252204171047683 ], [ -79.176334849309072, -0.252959985681343 ], [ -79.176377631844375, -0.253454354280262 ], [ -79.176429920935647, -0.253532788120509 ], [ -79.176453688506498, -0.253708669281126 ], [ -79.1764489353871, -0.253815623845657 ], [ -79.176574905145671, -0.253989128642889 ], [ -79.176700875816209, -0.254098460130082 ], [ -79.176867251418358, -0.254162633603713 ], [ -79.178008113979487, -0.254695030482544 ], [ -79.178290953200872, -0.25479485522509 ], [ -79.178759182056325, -0.254906563198439 ], [ -79.179935696930158, -0.254930331287712 ], [ -79.181934583878927, -0.254899432710883 ], [ -79.183420081651263, -0.254904186880481 ], [ -79.185694676542923, -0.254882795442151 ], [ -79.1872895075835, -0.254873288872027 ], [ -79.189233727690578, -0.254859028038994 ], [ -79.191346700423068, -0.254835260561681 ], [ -79.193492948717449, -0.254780594564065 ], [ -79.194945172044484, -0.254481120483527 ], [ -79.196435423216201, -0.254181647487208 ], [ -79.19730295470869, -0.253991505244014 ], [ -79.197799705099925, -0.25378472623067 ], [ -79.197999356672739, -0.253708668962042 ], [ -79.198576918174084, -0.253285603386175 ], [ -79.198731409698198, -0.25314062081654 ], [ -79.199004741066943, -0.252881551716621 ], [ -79.199313725257895, -0.252544050136794 ], [ -79.20006003924972, -0.251690788014607 ], [ -79.200877657707778, -0.250792367024617 ], [ -79.201696464420479, -0.249827396464062 ], [ -79.201821246579215, -0.249385317091362 ], [ -79.201881854823057, -0.249142885424718 ], [ -79.202031592971366, -0.248989583951066 ], [ -79.202174200722354, -0.248950366701741 ], [ -79.202402373189287, -0.248968192508304 ], [ -79.202534284980075, -0.249046626426281 ], [ -79.20261984970054, -0.249150015818244 ], [ -79.202694719172101, -0.249338969731168 ], [ -79.202691154201617, -0.249463750364186 ], [ -79.202755327152545, -0.249634878499554 ], [ -79.20296567439658, -0.25025878150826 ], [ -79.203628800972638, -0.251107289920724 ], [ -79.203971059170598, -0.251609977975577 ], [ -79.204266970353643, -0.252241011117745 ], [ -79.204434534601361, -0.252800741875451 ], [ -79.204520099339149, -0.253360472142494 ], [ -79.20453079519126, -0.253734813764613 ], [ -79.204512969379323, -0.254166198156364 ], [ -79.204391752447123, -0.254676016481999 ], [ -79.204142188559345, -0.255438961006988 ], [ -79.20376071291561, -0.25647642268677 ], [ -79.205673749052735, -0.257130224806855 ], [ -79.205742201239914, -0.257130225452237 ], [ -79.206871655616141, -0.257261423411984 ], [ -79.207744415635673, -0.257348888220156 ], [ -79.208261606604452, -0.257337479670305 ], [ -79.208786403354694, -0.257305156029799 ], [ -79.208847249054045, -0.258303400710722 ], [ -79.210588965914326, -0.258187414353415 ], [ -79.212167159181647, -0.258071426996902 ], [ -79.213201541547676, -0.257987764821883 ], [ -79.213239570099617, -0.258537274579711 ] ] } },
{ "type": "Feature", "properties": { "OBJECTID": 2, "SHAPE_Leng": 90.5405071502 }, "geometry": { "type": "LineString", "coordinates": [ [ -79.213239570099617, -0.258537274579711 ], [ -79.213273330757545, -0.258991872359823 ], [ -79.213629850431843, -0.258938395413195 ] ] } }
]
}
