{
"type": "FeatureCollection",
"name": "LINEA03_IDA",
"crs": { "type": "name", "properties": { "name": "urn:ogc:def:crs:OGC:1.3:CRS84" } },
"features": [
{ "type": "Feature", "properties": { "OBJECTID": 1, "SHAPE_Leng": 8930.5516891999996, "long": 8.93055, "Nombre_ope": "Rio_Toachi", "Punto_part": "Libre_Ecuador", "Punto_lleg": "Coop_9_de_diciembre", "Sentido": "Ida" }, "geometry": { "type": "LineString", "coordinates": [ [ -79.200632562691538, -0.241275142040047 ], [ -79.200585026076439, -0.240735613893271 ], [ -79.200539867417334, -0.24003446466205 ], [ -79.20052521077686, -0.239863534422881 ], [ -79.2004875778984, -0.239845708753882 ], [ -79.199826035937576, -0.239920973132809 ], [ -79.199770577548449, -0.239930876711939 ], [ -79.199770577260836, -0.240063580047214 ], [ -79.199774538896278, -0.240334928374193 ], [ -79.199841880956726, -0.240414154198154 ], [ -79.199879514034038, -0.240546858016263 ], [ -79.199804248625185, -0.240645890374286 ], [ -79.199774538978403, -0.240711251522408 ], [ -79.199903282161856, -0.241354961696231 ], [ -79.199958740448736, -0.241598581690498 ], [ -79.200073619341708, -0.242790930576048 ], [ -79.200162748761343, -0.243908015474653 ], [ -79.200200381488301, -0.244514092866448 ], [ -79.200279607592563, -0.245417267789323 ], [ -79.200317240288612, -0.246207545672057 ], [ -79.200293472656028, -0.246437300584318 ], [ -79.200245936348054, -0.246536332878986 ], [ -79.200137000166961, -0.246581887525782 ], [ -79.19985376538726, -0.246167932999974 ], [ -79.199188261557438, -0.245326950359904 ], [ -79.198277156170931, -0.244199962606652 ], [ -79.19759382710474, -0.243356207323256 ], [ -79.19754827227419, -0.24337601398044 ], [ -79.197419528570407, -0.243738472064311 ], [ -79.197330398417748, -0.243982091289084 ], [ -79.197282862754776, -0.244239575108823 ], [ -79.197247211212471, -0.244728795035408 ], [ -79.197286824483612, -0.244996182554071 ], [ -79.197399722218123, -0.24542994412086 ], [ -79.197514600459954, -0.24581022776317 ], [ -79.197756241925731, -0.246626254533465 ], [ -79.197906772390709, -0.24702238347701 ], [ -79.197952327266208, -0.247202621895142 ], [ -79.197871119722862, -0.2479730932321 ], [ -79.197752280672788, -0.248886171616525 ], [ -79.197692859941952, -0.249393216191909 ], [ -79.19763740150006, -0.249700216327868 ], [ -79.197478948477837, -0.250967829343525 ], [ -79.197395761001559, -0.251773952189063 ], [ -79.197284843777879, -0.252449351926144 ], [ -79.197265037202797, -0.252999971828895 ], [ -79.197308611707982, -0.253499094601921 ], [ -79.19737793460871, -0.253903145871936 ], [ -79.197417548102464, -0.254101210561393 ], [ -79.196615379260493, -0.254285409995672 ], [ -79.196141999705659, -0.254386422889699 ], [ -79.194898142570409, -0.254634003960631 ], [ -79.193868197267307, -0.25487366164893 ], [ -79.193371050602948, -0.254958829624818 ], [ -79.191281449639206, -0.254986558647855 ], [ -79.189936974338266, -0.254992896331682 ], [ -79.187358149969612, -0.255011118315169 ], [ -79.185066916806477, -0.255013495178 ], [ -79.182438178923888, -0.255042016808251 ], [ -79.179823701899494, -0.25508717572975 ], [ -79.178777911847732, -0.255072914674775 ], [ -79.178295421851743, -0.254961206434003 ], [ -79.177458788584914, -0.254611820879486 ], [ -79.176760010358834, -0.25431710024403 ], [ -79.176618406655948, -0.254254881696269 ], [ -79.176442523522581, -0.254304794083427 ], [ -79.176345074874945, -0.254254881703546 ], [ -79.176330814156387, -0.254143173409159 ], [ -79.176271393646985, -0.254074246938782 ], [ -79.176045597895609, -0.254067117227583 ], [ -79.175788903877944, -0.254119405389392 ], [ -79.175717600263383, -0.254169318163143 ], [ -79.175748498689117, -0.254288157144784 ], [ -79.175879222077086, -0.254542471743439 ], [ -79.175948149873548, -0.254658933410468 ], [ -79.175893482992663, -0.254761134314741 ], [ -79.175439514635357, -0.254825307984119 ], [ -79.174353318427279, -0.254953653235405 ], [ -79.173421614162862, -0.255015449890133 ], [ -79.171879072776235, -0.255153301996015 ], [ -79.171073338444046, -0.255245997043725 ], [ -79.170151140795326, -0.255193707741697 ], [ -79.169214682995317, -0.255093882723208 ], [ -79.168306746148446, -0.255043970970109 ], [ -79.167945472756017, -0.254877596710183 ], [ -79.167493881309852, -0.254509196686956 ], [ -79.166940087488427, -0.254014828046221 ], [ -79.16648611953903, -0.253582255109605 ], [ -79.165967977588721, -0.253116407150703 ], [ -79.165014881942156, -0.252265521602832 ], [ -79.163769440328537, -0.251146060886516 ], [ -79.162813968059538, -0.250330827519189 ], [ -79.162628577860147, -0.250290422405392 ], [ -79.16245982447478, -0.250250016931529 ], [ -79.162357622435351, -0.250166830231514 ], [ -79.162286318514987, -0.249990949209738 ], [ -79.162105682431871, -0.249874487274113 ], [ -79.161939306334745, -0.249791299709156 ], [ -79.160758038206183, -0.24941576961088 ], [ -79.158977817220503, -0.248940414776511 ], [ -79.158233879225008, -0.248743142449371 ], [ -79.158257647100911, -0.248514971880925 ], [ -79.158243386844617, -0.248217875030735 ], [ -79.158226749022973, -0.247842344089598 ], [ -79.158229125793454, -0.247438292719375 ], [ -79.158193474006325, -0.246941546609415 ], [ -79.158210111299468, -0.246480451947204 ], [ -79.158236255751945, -0.245995590105452 ], [ -79.158298052975283, -0.245425163907178 ], [ -79.158305183216854, -0.244845230847021 ], [ -79.158267154672657, -0.24440315061473 ], [ -79.158200604511308, -0.243495222118183 ], [ -79.15810790931765, -0.242482715980799 ], [ -79.158005706552473, -0.241505860931728 ], [ -79.157934403264179, -0.240578918140921 ], [ -79.157834577407328, -0.239518875267958 ], [ -79.157758520254873, -0.238480224188004 ], [ -79.157668201256044, -0.237348878260392 ], [ -79.157594521264016, -0.236528890501456 ], [ -79.157492318965524, -0.235326241363065 ], [ -79.157463797000872, -0.23499111598852 ] ] } }
]
}
