{
"type": "FeatureCollection",
"name": "LINEA12_B_RETORNO",
"crs": { "type": "name", "properties": { "name": "urn:ogc:def:crs:OGC:1.3:CRS84" } },
"features": [
{ "type": "Feature", "properties": { "OBJECTID": 1, "SHAPE_Leng": 9899.2625619299997 }, "geometry": { "type": "LineString", "coordinates": [ [ -79.136824870560247, -0.261563942590384 ], [ -79.139330015025351, -0.260114110833369 ], [ -79.139653259183063, -0.259947736829155 ], [ -79.14025221182176, -0.259805131179125 ], [ -79.141716319433016, -0.259705306171089 ], [ -79.142134635628636, -0.259662524617725 ], [ -79.144078856290278, -0.258545440734195 ], [ -79.144402100736002, -0.258412341495206 ], [ -79.149978066689187, -0.257879944890121 ], [ -79.150924031803967, -0.257761105698627 ], [ -79.151233016031213, -0.257699309635244 ], [ -79.151917533473124, -0.257380822587273 ], [ -79.152892020241168, -0.256838918179318 ], [ -79.152706629874046, -0.255289261820434 ], [ -79.152673354519351, -0.254666547088383 ], [ -79.152554515258473, -0.253378335173509 ], [ -79.152388138872965, -0.251286774109902 ], [ -79.152083908785002, -0.247136925676157 ], [ -79.153357872190497, -0.247265270940286 ], [ -79.158235060260964, -0.248582004266461 ], [ -79.16103968161616, -0.249323558231017 ], [ -79.162308891033319, -0.249756131629626 ], [ -79.162613120826308, -0.249751377347304 ], [ -79.162750975381101, -0.24977989912233 ], [ -79.162850801210539, -0.24989873785945 ], [ -79.16287932261065, -0.250084125748107 ], [ -79.162888829651607, -0.250198211627559 ], [ -79.163777752143332, -0.250987300518941 ], [ -79.166938891959134, -0.253829922841573 ], [ -79.167095760420963, -0.253915486005693 ], [ -79.167338193811659, -0.253953515132001 ], [ -79.16792288620212, -0.253934500508784 ], [ -79.168483810507823, -0.253924993524222 ], [ -79.170138061225927, -0.25391073312993 ], [ -79.170879622044367, -0.253820415711523 ], [ -79.173099550737319, -0.253340306637801 ], [ -79.174492354004045, -0.25303132662627 ], [ -79.174934437688478, -0.252960023435578 ], [ -79.175271943001661, -0.253017065518936 ], [ -79.175547651826022, -0.253173932925212 ], [ -79.175671245193683, -0.253345060841426 ], [ -79.175889911015062, -0.253421117409782 ], [ -79.176094314974861, -0.25344488528447 ], [ -79.176194140255376, -0.253392596474647 ], [ -79.176303473126026, -0.253392595697583 ], [ -79.17642706710113, -0.253501927696116 ], [ -79.17643182074346, -0.253635026956164 ], [ -79.176455588164274, -0.253863197527347 ], [ -79.176569674672436, -0.253996296952277 ], [ -79.176621964426147, -0.254153163580522 ], [ -79.176612457307399, -0.254257741960483 ], [ -79.176488863620662, -0.254338551647497 ], [ -79.176469849538364, -0.254514433063129 ], [ -79.176626718177488, -0.255517431916469 ], [ -79.176764572461977, -0.255911976520613 ], [ -79.177249438916462, -0.256244724256633 ], [ -79.179521656820654, -0.257580471420942 ], [ -79.182896709343566, -0.259548439704925 ], [ -79.184840929209756, -0.260708304156209 ], [ -79.184859943634592, -0.260841403414392 ], [ -79.184793393089421, -0.26098401043904 ], [ -79.184208701127858, -0.261996515021394 ], [ -79.18314864922317, -0.263878918936941 ], [ -79.183495661586193, -0.264563429032087 ], [ -79.183681051879546, -0.264753570837799 ], [ -79.18394725316648, -0.264900930759421 ], [ -79.189342582963903, -0.268076297591608 ], [ -79.19268911412199, -0.27007753875478 ], [ -79.192698620921078, -0.271128071690122 ], [ -79.193606557353093, -0.27107578258819 ], [ -79.194039134649643, -0.271180360482871 ], [ -79.194571536801092, -0.27155588987764 ], [ -79.194718898222376, -0.273975442806497 ], [ -79.196568046520696, -0.274141815961828 ], [ -79.196644104690094, -0.275292173018409 ] ] } }
]
}
