{
"type": "FeatureCollection",
"name": "LINEA04A_RETORNO",
"crs": { "type": "name", "properties": { "name": "urn:ogc:def:crs:OGC:1.3:CRS84" } },
"features": [
{ "type": "Feature", "properties": { "OBJECTID": 7, "SHAPE_Leng": 9279.6439756300006, "long": 9.27964, "Nombre_ope": "Rio_Toachi", "Punto_part": "Plan_de_Vivienda_Sueño_de_Bolivar", "Punto_lleg": "Villa_Florida", "Sentido": "Retorno" }, "geometry": { "type": "LineString", "coordinates": [ [ -79.155440864165584, -0.221808979525057 ], [ -79.155749847553608, -0.221953962953536 ], [ -79.156172917110283, -0.222196394737076 ], [ -79.156615001616117, -0.222434072609255 ], [ -79.156937770931805, -0.222608242946351 ], [ -79.157259113580267, -0.222806942122673 ], [ -79.157419785414859, -0.222522679199493 ], [ -79.157504399451469, -0.222381022992258 ], [ -79.157722256879651, -0.221995461963905 ], [ -79.157869617802234, -0.221712625046846 ], [ -79.15803219123552, -0.221397464476343 ], [ -79.158129640058732, -0.221202568708129 ], [ -79.158181929056568, -0.221228712898638 ], [ -79.158457637449885, -0.221376073150192 ], [ -79.159013808353038, -0.221694561969615 ], [ -79.15966267343255, -0.222041571237076 ], [ -79.160202207272093, -0.222343422645503 ], [ -79.160523074349626, -0.222514550159784 ], [ -79.160862956445328, -0.222709446837516 ], [ -79.161402489741533, -0.223039819042938 ], [ -79.161766139394445, -0.223251351894157 ], [ -79.162032340918756, -0.223389204980002 ], [ -79.162442338020426, -0.223620149285135 ], [ -79.162850354709889, -0.223836040168329 ], [ -79.163208855573899, -0.224044008063335 ], [ -79.163307888738785, -0.224099466373695 ], [ -79.163323734023152, -0.224107943130134 ], [ -79.163352255930036, -0.224101288640829 ], [ -79.163395038035006, -0.224043294592014 ], [ -79.163509124200743, -0.224122204165872 ], [ -79.163791487845458, -0.224286677429107 ], [ -79.164017758708766, -0.224408368360002 ], [ -79.164106175348081, -0.22448252373314 ], [ -79.164302974869486, -0.224582348592008 ], [ -79.16449882280655, -0.224706891403726 ], [ -79.164660444506936, -0.224800060989999 ], [ -79.164852489539641, -0.224923653887082 ], [ -79.165116789601839, -0.225092880612675 ], [ -79.165276510664768, -0.225193655785662 ], [ -79.165488520675709, -0.225315346910713 ], [ -79.165729053222805, -0.225461757038012 ], [ -79.16601521919776, -0.225641440890646 ], [ -79.166164482238202, -0.225728906761419 ], [ -79.1663955070226, -0.225855351421294 ], [ -79.166578995871944, -0.225949471638774 ], [ -79.166772942227965, -0.226061655897281 ], [ -79.166853753608905, -0.226108240344871 ], [ -79.166995410709703, -0.226194754937237 ], [ -79.167132313666229, -0.226280319458594 ], [ -79.167271119058597, -0.226365883329671 ], [ -79.167562038828322, -0.226500884684807 ], [ -79.167582004380179, -0.226701484053003 ], [ -79.167613377603359, -0.227020923450658 ], [ -79.167700368839661, -0.228233555529255 ], [ -79.167747904320464, -0.229140692796145 ], [ -79.167799401340446, -0.229893339561732 ], [ -79.167763749635739, -0.230832166967324 ], [ -79.167676600682256, -0.231862104130811 ], [ -79.167664716602928, -0.232515717444247 ], [ -79.16766867761072, -0.233038608586603 ], [ -79.167755827322111, -0.233434738047853 ], [ -79.167819208404993, -0.233656570849532 ], [ -79.167819207992125, -0.233957629798053 ], [ -79.167593412974512, -0.234183423223504 ], [ -79.167430997704528, -0.23446071381125 ], [ -79.167391385230033, -0.234840998292546 ], [ -79.167316119782811, -0.235474806006302 ], [ -79.167284428965601, -0.235981851400827 ], [ -79.167331964941297, -0.236492858950416 ], [ -79.167415152454822, -0.236904833420697 ], [ -79.167557760624049, -0.237297001591616 ], [ -79.167795439995757, -0.237708975994344 ], [ -79.168037081276196, -0.238053608558752 ], [ -79.168231186101295, -0.238370511863744 ], [ -79.168389639565945, -0.238667609743948 ], [ -79.168579783671277, -0.2387230676496 ], [ -79.168670893966905, -0.2388775583442 ], [ -79.168659009853116, -0.239146925835875 ], [ -79.168468866276299, -0.239297455135571 ], [ -79.168270800116176, -0.239416294243554 ], [ -79.168278722165141, -0.239614358457859 ], [ -79.168286644682922, -0.240193500180824 ], [ -79.168291398689576, -0.240996850571108 ], [ -79.168291399041095, -0.241752664873738 ], [ -79.168315166295031, -0.242365873364116 ], [ -79.16831516639985, -0.242879256721179 ], [ -79.168316354640879, -0.243579415441795 ], [ -79.168327288702628, -0.244236831759043 ], [ -79.168324911394905, -0.244831025411126 ], [ -79.168356602299454, -0.24608596267045 ], [ -79.168362940047317, -0.247537380756341 ], [ -79.168362939907624, -0.248348652802369 ], [ -79.168407307041861, -0.249419786322568 ], [ -79.168407306765644, -0.250167678392547 ], [ -79.168400969096496, -0.250864865573165 ], [ -79.168438997534679, -0.251809236479023 ], [ -79.168426321545098, -0.252601494565884 ], [ -79.168400969371092, -0.253286005750794 ], [ -79.168407307062793, -0.25395150291826 ], [ -79.168990414937056, -0.253980023471251 ], [ -79.169982331605837, -0.253938826391208 ], [ -79.170885514689559, -0.253837417676803 ], [ -79.171440100137161, -0.253726501450819 ], [ -79.172289409262291, -0.253536359831511 ], [ -79.173401750488239, -0.253317695809666 ], [ -79.173820066612478, -0.253197273145569 ], [ -79.174251059095724, -0.253124385098815 ], [ -79.17482782845623, -0.252997624122969 ], [ -79.175293681022268, -0.253029314213263 ], [ -79.175414105323867, -0.253137061405541 ], [ -79.175563051394008, -0.253235301547397 ], [ -79.175864112113118, -0.253466641014634 ], [ -79.1760605947767, -0.25345079533096 ], [ -79.176168342156728, -0.253387414968351 ], [ -79.176314119662933, -0.253412766946201 ], [ -79.176374331887899, -0.253491993142488 ], [ -79.176393346317596, -0.253691642357138 ], [ -79.176453558245086, -0.253869107547364 ], [ -79.176602504570511, -0.254094109269563 ], [ -79.177160258972577, -0.254322278957836 ], [ -79.177502518283362, -0.254499745493239 ], [ -79.177797240792671, -0.254645520581858 ], [ -79.178247248288372, -0.254819817728247 ], [ -79.178494434903484, -0.254908550153729 ], [ -79.17885887686073, -0.254921226588967 ], [ -79.179261348050773, -0.254959254255903 ], [ -79.179996570684295, -0.254975099594071 ], [ -79.180452915952685, -0.25496242335897 ], [ -79.181216659597467, -0.25497193103601 ], [ -79.182075476489487, -0.254949747487497 ], [ -79.182465270741687, -0.254937071644219 ], [ -79.183254367723379, -0.254927564125689 ], [ -79.18396423719814, -0.254921226533601 ], [ -79.184639248471854, -0.254921226526813 ], [ -79.185352287469769, -0.254927564514696 ], [ -79.185833984830666, -0.254908549956649 ], [ -79.186613574631679, -0.254905380723845 ], [ -79.187355135027872, -0.254905380961396 ], [ -79.188790720942222, -0.2548895361781 ], [ -79.189861863762658, -0.254880029252567 ], [ -79.190473493461951, -0.254873690916322 ], [ -79.191623863240139, -0.254870522263449 ], [ -79.192308380223096, -0.254861014693857 ], [ -79.192961207294616, -0.254835662361339 ], [ -79.193496779579604, -0.254807141105061 ], [ -79.193965800843046, -0.254734253734182 ], [ -79.19446651274697, -0.254629675799311 ], [ -79.195128846277612, -0.254483899895308 ], [ -79.195524979724411, -0.254398335806587 ], [ -79.196272878153039, -0.254255729460925 ], [ -79.197074651583932, -0.254078264189721 ], [ -79.197312330846572, -0.25401488311427 ], [ -79.197267964144331, -0.253827910578409 ], [ -79.197207752367248, -0.25345396501012 ], [ -79.197150708687587, -0.252981778892855 ], [ -79.197176061507534, -0.252655368880123 ], [ -79.197248949573819, -0.252056421709874 ], [ -79.197286979043, -0.251631770597576 ], [ -79.19735986714457, -0.251305360816567 ], [ -79.19741374119036, -0.250763456522731 ], [ -79.19748346064911, -0.250183523062688 ], [ -79.197530996860181, -0.249724013152208 ], [ -79.197626068804624, -0.249010981141325 ], [ -79.197673604314062, -0.248706753325093 ], [ -79.197749662159737, -0.2481585110844 ], [ -79.197794028978208, -0.247851115094758 ], [ -79.197809874450328, -0.247600760829067 ], [ -79.197813043069146, -0.247150758640014 ], [ -79.197752830796105, -0.246963784961446 ], [ -79.19768311146845, -0.246697586876966 ], [ -79.197607054343067, -0.246456740359398 ], [ -79.197499305987222, -0.246139836841613 ], [ -79.197334514833472, -0.245604269689798 ], [ -79.197252118497445, -0.245331732799516 ], [ -79.197176853482588, -0.24486905386667 ], [ -79.197176853745034, -0.244409543796726 ], [ -79.197208543969083, -0.244068873104708 ], [ -79.197315499844393, -0.243755930549383 ], [ -79.197402649311002, -0.243526175477159 ] ] } }
]
}
