{
"type": "FeatureCollection",
"name": "LINEA01_IDA",
"crs": { "type": "name", "properties": { "name": "urn:ogc:def:crs:OGC:1.3:CRS84" } },
"features": [
{ "type": "Feature", "properties": { "OBJECTID": 1, "SHAPE_Leng": 11541.0224184, "long": 11.541, "Nombre_ope": "Rio_Toachi", "Punto_part": "Rio_Verde", "Punto_lleg": "EPACEN", "Sentido": "Ida" }, "geometry": { "type": "LineString", "coordinates": [ [ -79.153072620265036, -0.277196561220671 ], [ -79.153151846861775, -0.277367688221261 ], [ -79.153389526705368, -0.277706774455066 ], [ -79.153544810913658, -0.277852549939456 ], [ -79.153741292698086, -0.277865226010347 ], [ -79.156059462607828, -0.277380364947504 ], [ -79.156192563074029, -0.277328075317573 ], [ -79.156087984132213, -0.27705237007069 ], [ -79.156097491258734, -0.276828954345016 ], [ -79.156187809207594, -0.276634058948619 ], [ -79.15651105384454, -0.276367861087426 ], [ -79.156962644957773, -0.276082648483493 ], [ -79.157148035513728, -0.275963809719268 ], [ -79.157314411022909, -0.275902014119512 ], [ -79.158279390868231, -0.275840218205095 ], [ -79.158749996638036, -0.275783175706629 ], [ -79.159144545002263, -0.275726133071837 ], [ -79.159334688656543, -0.275645322629904 ], [ -79.159420253942258, -0.275521730668822 ], [ -79.159634165471147, -0.274789685703639 ], [ -79.159757758637411, -0.274319085636143 ], [ -79.159857584062607, -0.273877005851139 ], [ -79.160180828650525, -0.273959400599886 ], [ -79.160851085327252, -0.274144788403727 ], [ -79.161792297649924, -0.274463275929326 ], [ -79.162524350719806, -0.274724720264109 ], [ -79.16313756441933, -0.274943383750957 ], [ -79.163585194774882, -0.275110549210381 ], [ -79.163912004333611, -0.275209581448563 ], [ -79.164450745402476, -0.275391800862728 ], [ -79.164607218082523, -0.274916446362369 ], [ -79.164621082497916, -0.274866931017138 ], [ -79.165593588449056, -0.275171949704765 ], [ -79.166908205289602, -0.275611750813178 ], [ -79.167312260587664, -0.275759111008522 ], [ -79.167706809104757, -0.275854181535972 ], [ -79.167716316447311, -0.275744850079966 ], [ -79.166404324293538, -0.275312277862622 ], [ -79.165558184002492, -0.275031819414037 ], [ -79.16512560683816, -0.274855938181603 ], [ -79.165177896875875, -0.274071603792609 ], [ -79.165225432250963, -0.272089378066015 ], [ -79.165201664633528, -0.270245003699127 ], [ -79.165187403378027, -0.268685842071069 ], [ -79.165211171512667, -0.2673500964118 ], [ -79.165225432676351, -0.265138114545919 ], [ -79.165271383620251, -0.262176655988568 ], [ -79.165280891398936, -0.261211686258811 ], [ -79.165290398578421, -0.25950041003971 ], [ -79.165257123076017, -0.258326284065227 ], [ -79.165200080256383, -0.257608498865592 ], [ -79.16507173272251, -0.257432618057466 ], [ -79.165138283703627, -0.2571806798043 ], [ -79.165200080020966, -0.256824163591295 ], [ -79.165362891087753, -0.25629651996773 ], [ -79.165614434983638, -0.255353733076838 ], [ -79.165744168814385, -0.25484411276755 ], [ -79.165848747301254, -0.254421047698273 ], [ -79.166010369627926, -0.254368758220753 ], [ -79.166119702760085, -0.254330729643105 ], [ -79.166309846149844, -0.254425801407123 ], [ -79.166480976062786, -0.254596929089618 ], [ -79.166618830265776, -0.254725274877197 ], [ -79.166685380367667, -0.254877388110777 ], [ -79.166770945130651, -0.255110311917798 ], [ -79.166847002204818, -0.255324221304131 ], [ -79.166980103236369, -0.255457321113692 ], [ -79.167075175405586, -0.255514363158018 ], [ -79.16750775181832, -0.255675984069094 ], [ -79.16772641721191, -0.255690245018154 ], [ -79.167859518534655, -0.255694997977254 ], [ -79.168019555440665, -0.255746098421367 ], [ -79.168282984472796, -0.25589464746907 ], [ -79.168570972949382, -0.255971892389292 ], [ -79.168784884417349, -0.255971892405786 ], [ -79.169131896674727, -0.255753229237764 ], [ -79.169312533576544, -0.255734214952852 ], [ -79.1697308494781, -0.255781750826345 ], [ -79.170248991551176, -0.255807895240561 ], [ -79.170893103660589, -0.255786504133872 ], [ -79.17161089655859, -0.255750852400099 ], [ -79.172525963079011, -0.255727084736562 ], [ -79.172979931910163, -0.255705693336657 ], [ -79.173721492411545, -0.25564627430805 ], [ -79.174474937482586, -0.255536943051452 ], [ -79.175059629574704, -0.255479900406754 ], [ -79.175316323676824, -0.25543949548015 ], [ -79.175504090879812, -0.255468016761455 ], [ -79.175715625030847, -0.255503667992735 ], [ -79.176017478710648, -0.255601115467553 ], [ -79.176290810785758, -0.255757982981245 ], [ -79.176659214137985, -0.255950501428564 ], [ -79.176694865800343, -0.255879198508913 ], [ -79.176609301008867, -0.255788880433353 ], [ -79.176568896051933, -0.255655781482066 ], [ -79.176547504376046, -0.255506044878146 ], [ -79.176476200567052, -0.255244599394521 ], [ -79.176412026852788, -0.25477875196868 ], [ -79.176350230114707, -0.254265368350401 ], [ -79.176295564269637, -0.25412989281152 ], [ -79.176226636408188, -0.25407760355607 ], [ -79.176022232254965, -0.254087110926414 ], [ -79.175767914609324, -0.254141776746905 ], [ -79.175737016850618, -0.254184558771552 ], [ -79.17578930591587, -0.254282005780182 ], [ -79.17585823320627, -0.254434120070595 ], [ -79.17595092827527, -0.254555335246242 ], [ -79.175977073170841, -0.254681304642839 ], [ -79.17577979924485, -0.254785882434493 ], [ -79.17540901898812, -0.254838171388073 ], [ -79.174845717839503, -0.254909474934184 ], [ -79.174319178025044, -0.254964932731515 ], [ -79.173526912019653, -0.25500296071222 ], [ -79.172652250547657, -0.255085355591161 ], [ -79.171904352114609, -0.255148736349003 ], [ -79.17118814329649, -0.255237469062952 ], [ -79.171010675596932, -0.255253314442318 ], [ -79.1701581977768, -0.255227962376857 ], [ -79.169565583578617, -0.25514239805608 ], [ -79.169258183736019, -0.25508852484786 ], [ -79.168747964636381, -0.255104369536906 ], [ -79.168351832341799, -0.255044158284635 ], [ -79.168301127280699, -0.254990284808544 ], [ -79.168307465060337, -0.254812819031285 ], [ -79.168320141379183, -0.254331126587257 ], [ -79.168310634561919, -0.253763869341169 ], [ -79.168316972007062, -0.252493087415262 ], [ -79.16832331077967, -0.251805407725901 ], [ -79.168313803479037, -0.250829345480597 ], [ -79.168310633889732, -0.250122651355525 ], [ -79.168251795238859, -0.24849007079052 ], [ -79.168220104362476, -0.246886540016296 ], [ -79.168220104835186, -0.244813991806082 ], [ -79.16818207575372, -0.243109051368509 ], [ -79.168182075485916, -0.240383681187934 ], [ -79.168175737788246, -0.239369590596039 ], [ -79.168029961256025, -0.239084377345431 ], [ -79.168074327649791, -0.238761135445049 ], [ -79.168137709067963, -0.238507612251787 ], [ -79.167801788588903, -0.237981552325501 ], [ -79.167313752760293, -0.237189293646905 ], [ -79.167180651573815, -0.236549148332624 ], [ -79.167174314162324, -0.235668156217809 ], [ -79.167206004939672, -0.234692093773795 ], [ -79.167180652157981, -0.234413217736175 ], [ -79.16712994739143, -0.234083638025855 ], [ -79.166996846296783, -0.23376039634949 ], [ -79.167206004772751, -0.233392788465901 ], [ -79.167351781281738, -0.233101237181354 ], [ -79.167535586968498, -0.232347006231727 ], [ -79.16757995426363, -0.231706860803819 ], [ -79.167636997303703, -0.231155448041125 ], [ -79.167643335530514, -0.23001459496167 ], [ -79.167560939200584, -0.228715289584252 ], [ -79.167313752606034, -0.224912443190682 ], [ -79.167091917833716, -0.222275802908692 ], [ -79.167345443594442, -0.221217344069722 ], [ -79.168384896166728, -0.219899023811169 ], [ -79.169956751507954, -0.218352532177368 ], [ -79.170526770461834, -0.217820315234938 ], [ -79.171258824529801, -0.217088267365238 ] ] } }
]
}
