{
"type": "FeatureCollection",
"name": "LINEA14_A_RETORNO",
"crs": { "type": "name", "properties": { "name": "urn:ogc:def:crs:OGC:1.3:CRS84" } },
"features": [
{ "type": "Feature", "properties": { "OBJECTID": 1, "SHAPE_Leng": 8919.4097914199992 }, "geometry": { "type": "LineString", "coordinates": [ [ -79.169593706959475, -0.258638325135944 ], [ -79.168695277883586, -0.258741952818073 ], [ -79.168505134116202, -0.25702116865857 ], [ -79.165567413055157, -0.257468002306483 ], [ -79.165462833992564, -0.257620116067068 ], [ -79.165225154148558, -0.257658143894877 ], [ -79.165044517687335, -0.257620115996176 ], [ -79.165044517156659, -0.257334902947558 ], [ -79.165187125372739, -0.256821520362809 ], [ -79.165814599487618, -0.254492281674303 ], [ -79.165909671862025, -0.254159533154694 ], [ -79.165985728973155, -0.253978899086794 ], [ -79.166594189133605, -0.25342748749456 ], [ -79.167278706816148, -0.25274297574678 ], [ -79.167611458446515, -0.252419734562851 ], [ -79.167657806108338, -0.252372199381679 ], [ -79.167698211237223, -0.252253361116269 ], [ -79.167693457641946, -0.252139275594558 ], [ -79.167683950322868, -0.252027566713981 ], [ -79.16800244181475, -0.252025190206072 ], [ -79.16867507515839, -0.251970524920317 ], [ -79.17002984953443, -0.251937249717694 ], [ -79.171422652707037, -0.251880207410761 ], [ -79.171515348199733, -0.251894468145483 ], [ -79.1716246802483, -0.251911104933846 ], [ -79.172140446019412, -0.252008552967856 ], [ -79.172235517777494, -0.252013306573965 ], [ -79.17281545633108, -0.251937250040333 ], [ -79.172996092514353, -0.251925365431934 ], [ -79.173428669711512, -0.251887337814086 ], [ -79.173680610410372, -0.251818411140097 ], [ -79.173861246814226, -0.25172809385834 ], [ -79.173946811095632, -0.251654413453437 ], [ -79.174895153390153, -0.250962772166632 ], [ -79.175669989126618, -0.250435128513904 ], [ -79.176005118290703, -0.251319288116175 ], [ -79.176200015387863, -0.251880206957198 ], [ -79.176266565390932, -0.252205824916313 ], [ -79.176292710771378, -0.252464893780682 ], [ -79.176344999785286, -0.253059086958371 ], [ -79.176371144659726, -0.253410849840093 ], [ -79.176432941668963, -0.25353919530136 ], [ -79.176440071414945, -0.253650903489718 ], [ -79.176440071405736, -0.253779249233479 ], [ -79.176504245067875, -0.253888580965148 ], [ -79.176596940773948, -0.254012173477654 ], [ -79.176734795114982, -0.254069216335228 ], [ -79.176884533148325, -0.254157157087429 ], [ -79.178129974372339, -0.254753726865081 ], [ -79.178450842721531, -0.254853551611245 ], [ -79.178755072748459, -0.254886825992222 ], [ -79.180178774385453, -0.25492960810497 ], [ -79.182125370578845, -0.254903463952637 ], [ -79.183886577764198, -0.254891579742772 ], [ -79.186163549761702, -0.254884449855304 ], [ -79.188431014228144, -0.25485117467437 ], [ -79.190841086311067, -0.25482740685192 ], [ -79.193011102682263, -0.25480126252586 ], [ -79.193567273140133, -0.254760857423105 ], [ -79.194993351603458, -0.254461384143474 ], [ -79.196571544488052, -0.254142895622311 ], [ -79.197550784807802, -0.253883827579076 ], [ -79.197940579859903, -0.253726960647801 ], [ -79.198587068517654, -0.253270619965416 ], [ -79.19900300822539, -0.25287607514712 ], [ -79.200006016784613, -0.251761368742058 ], [ -79.201094590220322, -0.250534952394804 ], [ -79.20162936943909, -0.249888469697013 ], [ -79.201700673261087, -0.249776761738644 ], [ -79.201790991511231, -0.249489171602259 ], [ -79.201831397527101, -0.24930616029407 ], [ -79.201900324066173, -0.249092250843245 ], [ -79.20205481633775, -0.248980542503811 ], [ -79.202225945421617, -0.248937759964236 ], [ -79.202368553128295, -0.248952021094304 ], [ -79.202487393639103, -0.249011439760324 ], [ -79.202651392395182, -0.249142162835584 ], [ -79.202663276305756, -0.249306160730376 ], [ -79.202744087623756, -0.249600880427823 ], [ -79.202912839493862, -0.250097626426503 ], [ -79.203000781616197, -0.250294898904069 ], [ -79.203411967518875, -0.250801151819124 ], [ -79.203720951235795, -0.251219463683255 ], [ -79.204003790059915, -0.251649659771908 ], [ -79.204298512385662, -0.252310403013939 ], [ -79.204474395781432, -0.252937871243482 ], [ -79.204529062066996, -0.253372821391644 ], [ -79.204531438903246, -0.253769742729489 ], [ -79.204507670929416, -0.254164286662476 ], [ -79.204367439521874, -0.254729959034326 ], [ -79.204096485395397, -0.255573713661598 ], [ -79.203566459545911, -0.256947488979029 ], [ -79.203088723139913, -0.258152512660428 ], [ -79.202601479714588, -0.259390811944069 ], [ -79.202504030802331, -0.259873296292439 ], [ -79.202477886422614, -0.260332013607853 ], [ -79.202506407229833, -0.261016524674434 ], [ -79.202523045429359, -0.262856146183442 ], [ -79.202550774332479, -0.263230884185872 ], [ -79.204775456454527, -0.262919526371081 ], [ -79.206415447019978, -0.262679472604666 ], [ -79.2082384499207, -0.262473881603176 ], [ -79.208138624688203, -0.260491653706733 ], [ -79.212239194385916, -0.260174949094479 ] ] } }
]
}
