{
"type": "FeatureCollection",
"name": "LINEA_19_RETONORNO",
"crs": { "type": "name", "properties": { "name": "urn:ogc:def:crs:OGC:1.3:CRS84" } },
"features": [
{ "type": "Feature", "properties": { "OBJECTID": 1, "SHAPE_Leng": 15097.130340899999, "long": 15.0971, "Nombre_ope": "Rio_Toachi", "Punto_part": "CC_Shopping", "Punto_lleg": "Duragas", "Sentido": "Retorno" }, "geometry": { "type": "LineString", "coordinates": [ [ -79.163004547359776, -0.249245515318525 ], [ -79.163258072709624, -0.248858893389569 ], [ -79.163372158457378, -0.248440580906852 ], [ -79.163441877616108, -0.247819450371214 ], [ -79.163429201284657, -0.246615218516034 ], [ -79.163384835099137, -0.245258871641451 ], [ -79.163239057988946, -0.243160970730303 ], [ -79.163042575837693, -0.240150387765714 ], [ -79.163055252454811, -0.23983348413059 ], [ -79.162890461267594, -0.239656018316171 ], [ -79.162865108521316, -0.239484890343134 ], [ -79.162915813905343, -0.239288409862218 ], [ -79.163093281111784, -0.239193338765775 ], [ -79.163251733837441, -0.23918700134338 ], [ -79.163391173255178, -0.239301086623662 ], [ -79.163555963979945, -0.239415171722786 ], [ -79.164747531909612, -0.239288409892672 ], [ -79.166712350942717, -0.239098267891373 ], [ -79.167618703243178, -0.239015872801112 ], [ -79.167954623868454, -0.238996858723302 ], [ -79.168087724310226, -0.23884474565036 ], [ -79.168144767716498, -0.238667279399834 ], [ -79.168144767055907, -0.238407418745109 ], [ -79.167688422422643, -0.237811639235536 ], [ -79.167327149283636, -0.237076423226652 ], [ -79.167206724895905, -0.236461630678017 ], [ -79.167181372142338, -0.235663033586102 ], [ -79.167238415889159, -0.234750350820272 ], [ -79.167200386852016, -0.234420770952184 ], [ -79.167060948188052, -0.233964429610208 ], [ -79.167029257541301, -0.23369189257552 ], [ -79.167117991110501, -0.233419355079457 ], [ -79.16738419224319, -0.23337498877729 ], [ -79.167663069822297, -0.233463722054447 ], [ -79.167992652330113, -0.233805978315514 ], [ -79.168227162982092, -0.234091191047445 ], [ -79.168753227409923, -0.234496828085906 ], [ -79.170337758984729, -0.235542609758383 ], [ -79.171909614651241, -0.236556701366051 ], [ -79.173088506122255, -0.237310932432033 ], [ -79.173538512473186, -0.23752008808466 ], [ -79.173988519936458, -0.237653187595626 ], [ -79.174343455049893, -0.237731779637774 ], [ -79.174768109091332, -0.237785653747139 ], [ -79.175278328591006, -0.237807836481595 ], [ -79.176098323744284, -0.23771672740029 ], [ -79.177155998623817, -0.237514701229719 ], [ -79.177857153040605, -0.237403785166516 ], [ -79.178966325355105, -0.237261177728554 ], [ -79.179235696153086, -0.23725325584146 ], [ -79.180214143764999, -0.237340404455606 ], [ -79.180602354105318, -0.23741170709907 ], [ -79.181335200060573, -0.237720688274687 ], [ -79.181802637010776, -0.237942520418172 ], [ -79.182551327590787, -0.23828319249782 ], [ -79.183244560220672, -0.238615940531831 ], [ -79.18437987716797, -0.239150715410795 ], [ -79.185929549253871, -0.23990653099731 ], [ -79.187897537751141, -0.240828719879657 ], [ -79.188971849832683, -0.241313581962757 ], [ -79.189238051226639, -0.241422913919651 ], [ -79.190454971364389, -0.241598795266813 ], [ -79.19291257977261, -0.241922036979059 ], [ -79.194785495509393, -0.242154960870359 ], [ -79.19606896667554, -0.242326088833581 ], [ -79.196525311281547, -0.242487709599702 ], [ -79.19718606116551, -0.242858486265349 ], [ -79.197694696087666, -0.243438420004851 ], [ -79.198607386299727, -0.24453649016652 ], [ -79.199401235948812, -0.245515721756913 ], [ -79.200679953505357, -0.247198478377458 ], [ -79.200892412224448, -0.247494783679907 ], [ -79.201191493073736, -0.247892893246639 ], [ -79.201389558816643, -0.248166222534177 ], [ -79.201575741178772, -0.248470449584748 ], [ -79.201786484256331, -0.248633654470805 ], [ -79.202051101139986, -0.24886182503492 ], [ -79.202193708975969, -0.248934712626608 ], [ -79.202464663427619, -0.249020276909861 ], [ -79.202602518424939, -0.249154960770019 ], [ -79.202642131265719, -0.249316581494988 ], [ -79.202672237786913, -0.249473448911508 ], [ -79.202806922152348, -0.249864824013495 ], [ -79.202954284474572, -0.250267291050807 ], [ -79.203171364864872, -0.250547751023189 ], [ -79.203545314110229, -0.251002507172337 ], [ -79.203943031780994, -0.251574517124772 ], [ -79.204161697159165, -0.252060963522451 ], [ -79.204320149764101, -0.252469768881768 ], [ -79.204496033321561, -0.253147942146957 ], [ -79.204524554937763, -0.253781747946293 ], [ -79.204488110469896, -0.254277701937126 ], [ -79.204350256523384, -0.254799007744731 ], [ -79.204087224311806, -0.255575419645432 ], [ -79.203765564092535, -0.256419967135909 ], [ -79.203588096716786, -0.256816096025153 ], [ -79.203247421917652, -0.25773194580657 ], [ -79.20280375369191, -0.258858536398196 ], [ -79.202594595136787, -0.259375088189892 ], [ -79.202477339976539, -0.259934421998298 ], [ -79.202475755779261, -0.260668053001869 ], [ -79.202499523877194, -0.261358901507262 ], [ -79.202505861830915, -0.26230485659962 ], [ -79.202507445731129, -0.263307854987898 ], [ -79.202521707365136, -0.264269655185793 ], [ -79.202523291785084, -0.264906629659157 ], [ -79.202501108326786, -0.265215609973662 ], [ -79.202339485565176, -0.265755929744587 ], [ -79.20206853079516, -0.26643251691321 ], [ -79.201905323768401, -0.266808046961216 ], [ -79.201531374428143, -0.267684283276097 ], [ -79.201171686139162, -0.268486048254284 ], [ -79.201033831395804, -0.268788690199489 ], [ -79.200754954400793, -0.269474784647836 ], [ -79.200342976372283, -0.270452429358525 ], [ -79.20013540202963, -0.270918277120359 ], [ -79.199853356036485, -0.271593279387588 ], [ -79.199648951567553, -0.27208764749616 ], [ -79.199498421197688, -0.272626382224952 ], [ -79.199484159924523, -0.272910010678627 ], [ -79.199587154111271, -0.273203145446853 ], [ -79.199732931442981, -0.273453498816622 ], [ -79.199866031961832, -0.273637302411651 ], [ -79.199978534259401, -0.273795753187907 ], [ -79.200377835888219, -0.274274276354671 ], [ -79.200861117916673, -0.274809841913233 ], [ -79.201155840735822, -0.275117237702492 ], [ -79.201341231283422, -0.275307379467729 ], [ -79.201395105422506, -0.275418295179522 ], [ -79.201376090420766, -0.275575161779752 ], [ -79.200902315452026, -0.275739951226791 ], [ -79.200426956227204, -0.275861958748076 ], [ -79.199062674839737, -0.27599822684071 ], [ -79.198027975388271, -0.276155093759262 ], [ -79.197165990309671, -0.27642604548788 ], [ -79.196570206240494, -0.276738194144445 ], [ -79.195736742629975, -0.277299112324264 ], [ -79.195419836881086, -0.277552634489 ], [ -79.194833559656345, -0.27796777672046 ], [ -79.194337601985495, -0.278311615720448 ], [ -79.193630900320954, -0.278861441944019 ], [ -79.192840219736226, -0.279412852545159 ], [ -79.191892669622263, -0.28008785481682 ], [ -79.191545656746584, -0.28036039083266 ], [ -79.190750222187219, -0.280957751904134 ], [ -79.190003907696251, -0.281496485864954 ], [ -79.18909597171519, -0.282131875610825 ], [ -79.188609519931902, -0.282467792157774 ], [ -79.188335396426211, -0.282616736718638 ], [ -79.18802482819622, -0.282753004787765 ], [ -79.187544715325217, -0.282892441844895 ], [ -79.18714699766393, -0.282966913267491 ], [ -79.186690652908197, -0.282957406239329 ], [ -79.186386422856629, -0.282960575759529 ], [ -79.186112298541261, -0.282908286317926 ], [ -79.185459471408024, -0.282700715844298 ], [ -79.184418434442648, -0.282277651096589 ], [ -79.1827958742942, -0.281676328268169 ], [ -79.181272742917542, -0.281054407195607 ], [ -79.179593139653207, -0.280390893115322 ], [ -79.178234404163291, -0.27981254559502 ], [ -79.177200497375708, -0.279362939838458 ], [ -79.175994272523496, -0.278832128616788 ], [ -79.175362440760765, -0.278576625472478 ], [ -79.174211674390733, -0.278069581627312 ], [ -79.173647185554302, -0.277833885639023 ], [ -79.172831151408317, -0.277546692355913 ], [ -79.171781399433414, -0.277178293170838 ], [ -79.170555368339564, -0.276790087006948 ], [ -79.169636339908593, -0.276491010901127 ], [ -79.168069634076801, -0.275974062935136 ], [ -79.167497222616305, -0.275793824589573 ], [ -79.166221674047577, -0.275373928567651 ], [ -79.164789654258556, -0.274908478194033 ], [ -79.163490338003868, -0.274494524106458 ], [ -79.161945419968973, -0.273973615238321 ], [ -79.160218280808834, -0.273405170855435 ], [ -79.159929103366849, -0.273308119767004 ] ] } }
]
}
