{
"type": "FeatureCollection",
"name": "LINEA03_RETORNO",
"crs": { "type": "name", "properties": { "name": "urn:ogc:def:crs:OGC:1.3:CRS84" } },
"features": [
{ "type": "Feature", "properties": { "OBJECTID": 1, "SHAPE_Leng": 8851.1708510900007, "long": 8.85117, "Nombre_ope": "Rio_Toachi", "Punto_part": "Coop_9_de_diciembre", "Punto_lleg": "Libre_Ecuador", "Sentido": "Retorno" }, "geometry": { "type": "LineString", "coordinates": [ [ -79.157561710892438, -0.234987873656529 ], [ -79.157650445230331, -0.236356897703502 ], [ -79.15778354522638, -0.237656202129644 ], [ -79.157948336462113, -0.239880865257401 ], [ -79.158043408549815, -0.241002703834926 ], [ -79.158214538125193, -0.242809053853166 ], [ -79.158265243316279, -0.243544269973074 ], [ -79.158353977317873, -0.244361880387684 ], [ -79.158392006025608, -0.244875264314645 ], [ -79.158328624044728, -0.245718227293865 ], [ -79.158290595926502, -0.246225272644625 ], [ -79.158284257981151, -0.247042883496633 ], [ -79.158296933629401, -0.247759085069868 ], [ -79.158334962971722, -0.248487962521775 ], [ -79.158334962454688, -0.24860838563603 ], [ -79.159000465579837, -0.248773175780025 ], [ -79.160496263244553, -0.249166135705028 ], [ -79.161884313001281, -0.249603462165254 ], [ -79.162353334159448, -0.249799942184802 ], [ -79.162594183111437, -0.249755575886779 ], [ -79.162784327206751, -0.249863322983575 ], [ -79.162860384349926, -0.25005346494484 ], [ -79.162892074803864, -0.250211916191729 ], [ -79.163608283436787, -0.250858399127071 ], [ -79.164711117711647, -0.251790094229594 ], [ -79.166246686487753, -0.253191757625149 ], [ -79.166805233992818, -0.253702764098034 ], [ -79.167015184475375, -0.253916673556954 ], [ -79.167403394613572, -0.253980054681897 ], [ -79.168068897982806, -0.25398797701255 ], [ -79.168809666337907, -0.253944403059157 ], [ -79.169871302615078, -0.253956286418599 ], [ -79.170528883276546, -0.253896866735416 ], [ -79.171570712599589, -0.253706725625264 ], [ -79.172873990243829, -0.25341358995676 ], [ -79.174249362923391, -0.253133130042107 ], [ -79.174743737048573, -0.253014291453615 ], [ -79.175047966782145, -0.253000030820363 ], [ -79.175356951254329, -0.253066580881616 ], [ -79.175518572759685, -0.253237708738448 ], [ -79.175799035517713, -0.253423096628262 ], [ -79.175951149794088, -0.253475385891945 ], [ -79.176079497075492, -0.253418343770364 ], [ -79.176222105286499, -0.253375561283053 ], [ -79.176359959178569, -0.253442110672929 ], [ -79.176412249202031, -0.253603731918779 ], [ -79.176412249227482, -0.253751091744052 ], [ -79.176469291999041, -0.253936479701132 ], [ -79.176645174617093, -0.254069579775487 ], [ -79.177082505246887, -0.25428824292297 ], [ -79.17788586306618, -0.25467327983754 ], [ -79.178356468948493, -0.254858668099714 ], [ -79.178903132616966, -0.254939478371144 ], [ -79.179273912554692, -0.254958492840152 ], [ -79.18063819411627, -0.254963246389392 ], [ -79.18193592539923, -0.254953738998773 ], [ -79.182511110798131, -0.254925217715482 ], [ -79.185425063915702, -0.254901450353262 ], [ -79.188273259303188, -0.254872929102629 ], [ -79.189895819592479, -0.25480954840182 ], [ -79.192722623979137, -0.254834900711266 ], [ -79.193381789166452, -0.254822224508513 ], [ -79.195764924280098, -0.254340531867874 ], [ -79.197184665184622, -0.254023628561085 ], [ -79.197274982708677, -0.253998276183829 ], [ -79.197219524103616, -0.253594224164269 ], [ -79.197140298265097, -0.25311094755306 ], [ -79.197148220881147, -0.252445450776103 ], [ -79.197314595998421, -0.251463050180845 ], [ -79.197409668033728, -0.250274663421994 ], [ -79.19779787888146, -0.247438378410138 ], [ -79.197797878440255, -0.247208623297028 ], [ -79.197322518774854, -0.245632029470046 ], [ -79.197156143347371, -0.245053680695737 ], [ -79.197100684451925, -0.244657551371546 ], [ -79.197140297974528, -0.244095047330268 ], [ -79.197306673503206, -0.24359592507497 ], [ -79.197528507961735, -0.24327109850016 ], [ -79.19761961834395, -0.243286943804497 ], [ -79.197857298433476, -0.243572156973929 ], [ -79.198217779527326, -0.244035628668799 ], [ -79.198724829228169, -0.244661512957561 ], [ -79.199299222019121, -0.245370584316632 ], [ -79.199742890922053, -0.245944971807553 ], [ -79.200127139900729, -0.246463900914273 ], [ -79.200210327288829, -0.246404481020544 ], [ -79.200238057102368, -0.246301487989193 ], [ -79.200174675659682, -0.245497344911844 ], [ -79.200095449492736, -0.244304996081296 ], [ -79.199905305221904, -0.242205511281905 ], [ -79.199810233843721, -0.241314219542844 ], [ -79.199707238489324, -0.240815096609134 ], [ -79.199647819359129, -0.240684373895549 ], [ -79.199521056452937, -0.240597225900454 ], [ -79.199532940544046, -0.240395200129517 ], [ -79.199675547960027, -0.240300128425351 ], [ -79.199656649532614, -0.239994613469465 ], [ -79.199660610487442, -0.239893601216474 ], [ -79.199864619669341, -0.239879736668514 ], [ -79.200391476074444, -0.239828239769944 ], [ -79.200512296067899, -0.23981437503673 ], [ -79.200565774477283, -0.239834181372229 ], [ -79.20059746514805, -0.240376878705048 ], [ -79.200654904514082, -0.241070105376674 ], [ -79.200670749298112, -0.241276092100563 ] ] } }
]
}
