{
"type": "FeatureCollection",
"name": "LINEA05B_IDA",
"crs": { "type": "name", "properties": { "name": "urn:ogc:def:crs:OGC:1.3:CRS84" } },
"features": [
{ "type": "Feature", "properties": { "OBJECTID": 1, "SHAPE_Leng": 16576.160322399999, "long": 16.5762, "Nombre_ope": "Rio_Toachi", "Punto_part": "U_Catolica", "Punto_lleg": "Brasilia_del_Toachi", "Sentido": "Ida" }, "geometry": { "type": "LineString", "coordinates": [ [ -79.214202439768911, -0.256248968850397 ], [ -79.213725100146235, -0.256288581111905 ], [ -79.213029887054262, -0.256322252294068 ], [ -79.212645638019367, -0.256355923719799 ], [ -79.212278026653735, -0.256367807738468 ], [ -79.211232235925095, -0.256448617891293 ], [ -79.210766383345174, -0.256491399259288 ], [ -79.210671311630819, -0.25643911084703 ], [ -79.210652297250491, -0.256306011582536 ], [ -79.210642789946974, -0.255835410213553 ], [ -79.210614268571931, -0.255578718903001 ], [ -79.210540588109723, -0.255581094979306 ], [ -79.209972533459407, -0.255600109282383 ], [ -79.209601752630974, -0.255606447828731 ], [ -79.209552236193645, -0.255586641523649 ], [ -79.209542332740639, -0.255465822028707 ], [ -79.209520545409774, -0.25512515073235 ], [ -79.209482913228896, -0.254639892668089 ], [ -79.209450429868653, -0.253918146343228 ], [ -79.20942666197854, -0.253195606387632 ], [ -79.209402894206505, -0.252601412730795 ], [ -79.209398537126219, -0.252533674741007 ], [ -79.209246025936096, -0.252537636061465 ], [ -79.208883563749964, -0.252545558863137 ], [ -79.208325016826592, -0.252472274878835 ], [ -79.207812024464587, -0.252385126399015 ], [ -79.207190095763636, -0.252426720407007 ], [ -79.206994009757409, -0.252440584813192 ], [ -79.206318603308461, -0.252517829981881 ], [ -79.205956142432896, -0.252599035927921 ], [ -79.205619428859066, -0.252601016519794 ], [ -79.204969770907709, -0.252698068906071 ], [ -79.204783588930482, -0.252719855235538 ], [ -79.204625135921091, -0.252785216537461 ], [ -79.204603347985341, -0.252832752621644 ], [ -79.204597406214702, -0.252904055496905 ], [ -79.204617212739322, -0.253038739612751 ], [ -79.204611271101186, -0.253252648989925 ], [ -79.204537986402997, -0.253337816897899 ], [ -79.204448460309592, -0.253334053435445 ], [ -79.204415185566859, -0.253134404594041 ], [ -79.204348634635295, -0.252777888605703 ], [ -79.204229795319506, -0.252316793984152 ], [ -79.204049158728708, -0.251922249751031 ], [ -79.203892289457272, -0.251613269499747 ], [ -79.203540523334865, -0.251104639005365 ], [ -79.20319351120412, -0.250657806271666 ], [ -79.202936817049903, -0.250315550237341 ], [ -79.20265160112892, -0.250092133056748 ], [ -79.202314096139943, -0.249835441974596 ], [ -79.202200009931104, -0.249816427272397 ], [ -79.201995605312163, -0.249887730742184 ], [ -79.201786447667118, -0.250035090943729 ], [ -79.201391898688073, -0.250462910428131 ], [ -79.201073408384559, -0.250762383701217 ], [ -79.200251036573164, -0.251698832824681 ], [ -79.199618808570975, -0.252388097790978 ], [ -79.199024608862487, -0.253072608329081 ], [ -79.198283048270667, -0.253709584090541 ], [ -79.197983571748267, -0.253885465392783 ], [ -79.197199228187586, -0.254199199353547 ], [ -79.196196220317987, -0.254370327106323 ], [ -79.195335819463978, -0.254560469076779 ], [ -79.194061856577207, -0.254821914512897 ], [ -79.193477164424664, -0.254945506510655 ], [ -79.192269751012006, -0.254988288157199 ], [ -79.189336783334625, -0.255002548584597 ], [ -79.18778711125951, -0.255002548729132 ], [ -79.184787593195239, -0.255021563237513 ], [ -79.182567664841542, -0.255054837918606 ], [ -79.179801072732104, -0.255088112949034 ], [ -79.178883628727903, -0.255078605850031 ], [ -79.178351226414563, -0.254983534503619 ], [ -79.177438536384614, -0.254617511283116 ], [ -79.176673207200764, -0.254256242277918 ], [ -79.17649257096113, -0.254284763485271 ], [ -79.176359470283899, -0.254232474134829 ], [ -79.176311933983683, -0.254094621380056 ], [ -79.176088515468081, -0.254070853441419 ], [ -79.175831821186009, -0.254099374686321 ], [ -79.175703474097958, -0.25414215641768 ], [ -79.175741503146497, -0.254308531151317 ], [ -79.175869849886638, -0.254517687090464 ], [ -79.175969675166755, -0.254631772216325 ], [ -79.175884110825081, -0.254755364642562 ], [ -79.175147303539319, -0.254874203546675 ], [ -79.173554849537481, -0.255002548740437 ], [ -79.171796019509557, -0.255159415619843 ], [ -79.17106396563355, -0.255244980209367 ], [ -79.169918349135926, -0.255183183994533 ], [ -79.169072209447535, -0.255083359258454 ], [ -79.168297373468732, -0.25505483799753 ], [ -79.167974129424991, -0.254916985200596 ], [ -79.167527291006351, -0.25451293337038 ], [ -79.166571818534891, -0.253685816517722 ], [ -79.165606839227408, -0.252777888633806 ], [ -79.164470730128286, -0.251789150460014 ], [ -79.163448706989755, -0.250876469075166 ], [ -79.16287827580571, -0.250377346457551 ], [ -79.162716653586074, -0.250296535892862 ], [ -79.162421930878594, -0.25027276826388 ], [ -79.162307844468103, -0.250125407977024 ], [ -79.162241294339296, -0.24994002021318 ], [ -79.161865760344128, -0.249726110106745 ], [ -79.160862751382709, -0.249455157723457 ], [ -79.159284558113001, -0.249017831010406 ], [ -79.157763408201063, -0.248613779737122 ], [ -79.15568133378757, -0.248000571888903 ], [ -79.15385119962724, -0.247506202833818 ], [ -79.152653294287376, -0.247316060239937 ], [ -79.151246229649828, -0.247201975386969 ], [ -79.149496906964231, -0.247011833497897 ], [ -79.147338775240115, -0.246797923034962 ], [ -79.146045797871679, -0.246693345434014 ], [ -79.145720968483445, -0.24674563447433 ], [ -79.145229764137596, -0.246951621498619 ], [ -79.144934037798095, -0.247042414050198 ], [ -79.144710618409718, -0.247028153300981 ], [ -79.144663082161969, -0.246914068680533 ], [ -79.144872240987141, -0.246809490373274 ], [ -79.145456932550331, -0.246448220780744 ], [ -79.146036871604309, -0.246101211253228 ], [ -79.147296574022747, -0.245435713808613 ], [ -79.148418422626307, -0.244741695795304 ], [ -79.148931810144276, -0.244394686605895 ], [ -79.149312098063177, -0.244080952558927 ], [ -79.149815978812782, -0.243320383614862 ], [ -79.150124962907228, -0.242664393593988 ], [ -79.150400607751237, -0.242121981534225 ], [ -79.150401875265203, -0.242028178641942 ], [ -79.150372719853564, -0.241911558081775 ], [ -79.150306803684344, -0.241792402371659 ], [ -79.150235816402855, -0.241731556961052 ], [ -79.150081165927233, -0.241665640765577 ], [ -79.150012714505621, -0.241636485382641 ], [ -79.149869473017077, -0.241637753399419 ], [ -79.149589327396058, -0.241710007550529 ], [ -79.149329464193215, -0.24184944435747 ], [ -79.148800864731555, -0.242298180170864 ], [ -79.14822282755398, -0.242801422826982 ], [ -79.148047895703328, -0.242992832292698 ], [ -79.147903385840365, -0.243213397306885 ], [ -79.147680284190514, -0.243783823151267 ], [ -79.14749394300577, -0.244081712344255 ], [ -79.147245488820602, -0.244313686214452 ], [ -79.146812119633921, -0.244556275578283 ], [ -79.145851892913413, -0.245088673695549 ], [ -79.144682509196628, -0.245754170679036 ], [ -79.144454336568074, -0.245934805016933 ], [ -79.143826861889806, -0.246543259731212 ], [ -79.143227908761148, -0.247113686019456 ], [ -79.142010988834002, -0.2479027750629 ], [ -79.141934931151894, -0.24802636746897 ], [ -79.141611686923099, -0.248663342989712 ], [ -79.141269427815402, -0.248958063426875 ], [ -79.14109829850922, -0.249119684103274 ], [ -79.140622938920188, -0.249309825894889 ], [ -79.13963419142479, -0.249404896562171 ], [ -79.139320453988248, -0.249195741152548 ], [ -79.139168339437646, -0.248758413838133 ], [ -79.139054252649871, -0.24834960934712 ], [ -79.138179592023874, -0.246904529371683 ], [ -79.137651315115164, -0.246045854012667 ], [ -79.137550301641852, -0.245796292116119 ], [ -79.137696870887154, -0.245360550039146 ], [ -79.137774908922182, -0.245105839129878 ], [ -79.13782719814445, -0.244915697102522 ], [ -79.137815314554459, -0.244794481605561 ], [ -79.137750190546981, -0.24472682283086 ], [ -79.137816740045523, -0.244644427814776 ], [ -79.137975193670883, -0.244504990151677 ], [ -79.138342804534631, -0.244207100907737 ], [ -79.13887507530346, -0.24390300598087 ], [ -79.139594056995946, -0.243494992237535 ], [ -79.140152603692002, -0.243174127513605 ], [ -79.140582408263015, -0.242922585455068 ], [ -79.141186510544216, -0.242613604882092 ], [ -79.141529694331481, -0.242438515902853 ], [ -79.141938502750435, -0.24224520437335 ], [ -79.14199554594569, -0.242219852492589 ], [ -79.142005053244404, -0.242261049734178 ], [ -79.141875121582842, -0.242311754015604 ], [ -79.141339550542128, -0.242581121811054 ], [ -79.141162082355748, -0.242657179211205 ], [ -79.140664540118237, -0.242917040209283 ], [ -79.140122630011618, -0.243237112602271 ], [ -79.139599734922143, -0.243538170113193 ], [ -79.139064162611547, -0.243832890477719 ], [ -79.13873457992004, -0.244026201420055 ], [ -79.138347955062045, -0.244251202825758 ], [ -79.138062738998201, -0.244485712006518 ], [ -79.137783861088366, -0.244710712895901 ], [ -79.137672944272552, -0.244666346633645 ], [ -79.137213430101724, -0.244273386723453 ], [ -79.136519405225584, -0.24368711549527 ], [ -79.136047214909496, -0.243306830968265 ], [ -79.135685942125306, -0.243037462766861 ], [ -79.135622560483412, -0.242964575099152 ], [ -79.135752492094213, -0.242799785611969 ], [ -79.136189822338082, -0.242267387236584 ], [ -79.136719055920366, -0.241662101578663 ], [ -79.137371883247539, -0.240977590420342 ], [ -79.137961329288018, -0.24032160001986 ], [ -79.138373307033547, -0.239811385306293 ], [ -79.138721904484981, -0.239408917614848 ], [ -79.139045148673645, -0.239130042915955 ], [ -79.139285997026576, -0.238996943829496 ], [ -79.139311349458708, -0.238952576597153 ], [ -79.139431774534586, -0.238699053691358 ], [ -79.1396599468967, -0.238255389533049 ], [ -79.13972332821433, -0.23829975528889 ], [ -79.139507831886291, -0.238699054106777 ], [ -79.139368393055179, -0.239003281210159 ], [ -79.139301842669752, -0.239040676472326 ], [ -79.139038018225108, -0.239207050656159 ], [ -79.138693382476262, -0.239518408523265 ], [ -79.138420050734723, -0.239829766078515 ], [ -79.137928053809233, -0.240412076541101 ], [ -79.137222145252053, -0.241196412742926 ], [ -79.136670727805168, -0.241769215023827 ], [ -79.136164470548763, -0.24236578594691 ], [ -79.135724762731826, -0.242898183958786 ], [ -79.13555363318028, -0.242912444606681 ], [ -79.135263663647692, -0.242589203160453 ], [ -79.135182852848786, -0.242453727331771 ], [ -79.135144824438882, -0.242284975664097 ], [ -79.135144823984092, -0.242104341111845 ], [ -79.135180476251719, -0.241947473344889 ], [ -79.135285054852545, -0.241790606062748 ], [ -79.135501343479561, -0.241590957 ], [ -79.135753284549708, -0.241358032821247 ], [ -79.135993340690177, -0.241144123293752 ], [ -79.136076528781217, -0.241051429317933 ], [ -79.136159716650297, -0.240920706222349 ], [ -79.136235774512699, -0.240704419342833 ], [ -79.136297571137433, -0.24012686294821 ], [ -79.136314208818632, -0.240005646980088 ], [ -79.136395019948779, -0.239715680637139 ], [ -79.136504352474461, -0.239439974568689 ], [ -79.136704003541325, -0.239033546210003 ], [ -79.136827596525393, -0.238646130986751 ], [ -79.13684661106727, -0.238382308783312 ], [ -79.136848988215064, -0.238144631594076 ], [ -79.136772930498523, -0.237693043480216 ], [ -79.136678452242293, -0.236973276885511 ], [ -79.136678452771093, -0.236707077553777 ], [ -79.136868596029231, -0.236089115514463 ], [ -79.137020711686205, -0.235532949172392 ], [ -79.137158565834895, -0.235014811757343 ], [ -79.137177580325584, -0.234720092148799 ], [ -79.137125290383523, -0.23440160381635 ], [ -79.137044479399208, -0.234282764619289 ], [ -79.136792539352427, -0.234106883256921 ], [ -79.136469294752857, -0.234092622483743 ], [ -79.135561357996977, -0.234339807634092 ], [ -79.134035453767069, -0.234762873494661 ], [ -79.133003924136588, -0.235033826489634 ], [ -79.132851809481252, -0.235071854943832 ], [ -79.132443000080031, -0.235119390434069 ], [ -79.131406716492933, -0.235138404559594 ] ] } }
]
}
