{
"type": "FeatureCollection",
"name": "LINEA04B_RETORNO",
"crs": { "type": "name", "properties": { "name": "urn:ogc:def:crs:OGC:1.3:CRS84" } },
"features": [
{ "type": "Feature", "properties": { "OBJECTID": 1, "SHAPE_Leng": 13270.474352900001, "long": 13.2705, "Nombre_ope": "Rio_Toachi", "Punto_part": "El_Eden", "Punto_lleg": "Camino_al_Futuro", "Sentido": "Retorno" }, "geometry": { "type": "LineString", "coordinates": [ [ -79.162189761488548, -0.231760663031489 ], [ -79.162223036341075, -0.231987249397111 ], [ -79.162460716592719, -0.231949220962042 ], [ -79.163159494240247, -0.231901684767911 ], [ -79.163517598811652, -0.231896931728755 ], [ -79.164034156054839, -0.231984079796348 ], [ -79.164317786870043, -0.232014186336815 ], [ -79.164821668607729, -0.232164715372685 ], [ -79.165175018488611, -0.232346934626394 ], [ -79.165789618641668, -0.232649181321497 ], [ -79.166255470824041, -0.232913003676765 ], [ -79.166973263892061, -0.233293288755638 ], [ -79.167132509166805, -0.233383605954651 ], [ -79.167334536868736, -0.233409750360161 ], [ -79.167522303762169, -0.233378852738138 ], [ -79.16768867976873, -0.233464416274134 ], [ -79.167800388936797, -0.233635544203412 ], [ -79.167840794829488, -0.233778151289118 ], [ -79.167812273304776, -0.233954032621936 ], [ -79.167712447488043, -0.234053857642999 ], [ -79.167546071741555, -0.234215477722567 ], [ -79.16744624636776, -0.234353331593158 ], [ -79.16740346465437, -0.23452921280513 ], [ -79.167389203357104, -0.234876221853104 ], [ -79.167289377629146, -0.235731862486938 ], [ -79.167275116861845, -0.236045596347817 ], [ -79.167336913987128, -0.236473416095244 ], [ -79.167441492671927, -0.23689172960203 ], [ -79.167541318840478, -0.23724824592736 ], [ -79.167769491273148, -0.237709340563401 ], [ -79.168154532213535, -0.238246492399826 ], [ -79.168293337094028, -0.238509838614583 ], [ -79.168426437344678, -0.238671459617184 ], [ -79.168635595850006, -0.238747516540585 ], [ -79.168683131799057, -0.238975687317365 ], [ -79.168873275873267, -0.239146815364781 ], [ -79.169063419040384, -0.239365478911925 ], [ -79.169348635539095, -0.239413013845686 ], [ -79.170004630937029, -0.239355971365657 ], [ -79.170670134231699, -0.239346464693365 ], [ -79.171915576222631, -0.239203858006816 ], [ -79.173817014014091, -0.239051743684514 ], [ -79.1759751455631, -0.238947166185951 ], [ -79.177971655603386, -0.238918644621503 ], [ -79.179093503504561, -0.238861601944255 ], [ -79.179578370657694, -0.238899630662711 ], [ -79.180101265550761, -0.239146815289756 ], [ -79.180975927717625, -0.239536606459895 ], [ -79.181841081847679, -0.240040483339228 ], [ -79.182991451444337, -0.240544360010522 ], [ -79.183438289764069, -0.240886615085178 ], [ -79.183593732330138, -0.240970119389663 ], [ -79.183726832236403, -0.241020823605949 ], [ -79.18381873539461, -0.241074697200066 ], [ -79.183853595299695, -0.241185613762721 ], [ -79.183821904630605, -0.241302868479653 ], [ -79.183733170676177, -0.241375756376635 ], [ -79.183609577238599, -0.24138209408438 ], [ -79.183524012530938, -0.241337727959308 ], [ -79.183447955300991, -0.241214135195208 ], [ -79.183397250247211, -0.241106387814055 ], [ -79.183270487507215, -0.24097328886585 ], [ -79.183035976786996, -0.240773639043731 ], [ -79.182262725404712, -0.240383847889789 ], [ -79.181074326412272, -0.23980391436185 ], [ -79.179752827206414, -0.23913524834337 ], [ -79.179378878451701, -0.239021162541875 ], [ -79.179112676903287, -0.238998979589516 ], [ -79.178146112865619, -0.239017993927907 ], [ -79.176875318572698, -0.239052852822107 ], [ -79.176035516310179, -0.239122571842451 ], [ -79.174298870303801, -0.239208135495487 ], [ -79.171814324210601, -0.239372926188771 ], [ -79.170198102383083, -0.239471165683366 ], [ -79.169874858449987, -0.239499687106224 ], [ -79.169687883629194, -0.23962327971887 ], [ -79.169567458871214, -0.239692998736702 ], [ -79.169519922749899, -0.239791238174275 ], [ -79.16933294791464, -0.239860957250812 ], [ -79.169190340070259, -0.239807083557926 ], [ -79.16906991612457, -0.23966130776331 ], [ -79.168901955864001, -0.239439475906323 ], [ -79.168708642755789, -0.239303206854722 ], [ -79.168550189389535, -0.239242994897366 ], [ -79.168382229353639, -0.239290531278472 ], [ -79.168268143389099, -0.239455321093923 ], [ -79.16826814297643, -0.239661308322426 ], [ -79.168296664592418, -0.239914831223669 ], [ -79.168293495608182, -0.240272931814672 ], [ -79.168290326895558, -0.240890893983661 ], [ -79.168312509501149, -0.241996886429263 ], [ -79.168306172162616, -0.242928583194052 ], [ -79.168325186459185, -0.243974364697372 ], [ -79.168312510179078, -0.244893384588719 ], [ -79.168356877255306, -0.24599303944647 ], [ -79.168356876721049, -0.246674381150004 ], [ -79.168394905890906, -0.24759657030709 ], [ -79.168388567269844, -0.248040234806809 ], [ -79.168391736198259, -0.248712069512327 ], [ -79.168420257685824, -0.249808555545052 ], [ -79.168407581993705, -0.25055327819229 ], [ -79.16845194916759, -0.252045891926702 ], [ -79.168439272440494, -0.253731816989985 ], [ -79.168439272666276, -0.25395998768477 ], [ -79.169193509276198, -0.253972663683844 ], [ -79.170144228691001, -0.253972663620818 ], [ -79.171094947498929, -0.25378886032339 ], [ -79.172552716311884, -0.253490971358407 ], [ -79.173883722581436, -0.253218433922432 ], [ -79.174409787017808, -0.253059982963138 ], [ -79.175125995096167, -0.252977587961998 ], [ -79.175480930720667, -0.253148715151412 ], [ -79.175715441399248, -0.25332618143791 ], [ -79.175873894768444, -0.253433928639338 ], [ -79.176146434133017, -0.253383224189076 ], [ -79.176355592230578, -0.253421252164555 ], [ -79.176431649785187, -0.253605055809545 ], [ -79.176457001607119, -0.253788859505104 ], [ -79.176520383355921, -0.253959988030988 ], [ -79.176792922266202, -0.254118439495967 ], [ -79.177414059293994, -0.254460694647931 ], [ -79.177895756602339, -0.254663512409963 ], [ -79.178371116078537, -0.254809287951739 ], [ -79.178865490186467, -0.254910697293244 ], [ -79.179619726776949, -0.254929711192293 ], [ -79.180532417284255, -0.2549423878672 ], [ -79.181800042114389, -0.254923373190737 ], [ -79.186509270198769, -0.254886929573964 ], [ -79.193061307527699, -0.254847316372042 ], [ -79.193766424087016, -0.254768090829586 ], [ -79.196016458704023, -0.254276890605735 ], [ -79.197363310739945, -0.253991678300544 ], [ -79.197933741940702, -0.253769846106929 ], [ -79.198504173391044, -0.253326180953217 ], [ -79.199027068593495, -0.252874594583036 ], [ -79.200175854000875, -0.251575291144694 ], [ -79.201649468498971, -0.249967006698591 ], [ -79.201760386097234, -0.249665948318803 ], [ -79.201815844642098, -0.249325277403905 ], [ -79.201942606874169, -0.249032141744518 ], [ -79.202275358128844, -0.248952916199583 ], [ -79.202592265184606, -0.249087600219913 ], [ -79.202663568910779, -0.249420349119529 ], [ -79.202822021647023, -0.249864013142956 ], [ -79.202909171074893, -0.25011753552447 ], [ -79.202972552738572, -0.250287871441011 ], [ -79.203384530956086, -0.25078699418192 ], [ -79.20395892364553, -0.25161886540248 ], [ -79.204168874080523, -0.252034800874396 ], [ -79.204315442432474, -0.25239527783893 ], [ -79.204438243735112, -0.252850826160404 ], [ -79.204509548144614, -0.253318258692076 ], [ -79.204533315551345, -0.253833226443546 ], [ -79.204497664268644, -0.254185780996845 ], [ -79.204410514465664, -0.254562103749733 ], [ -79.204311481477276, -0.254914658406945 ], [ -79.204026266040245, -0.255718800627465 ], [ -79.203626171419558, -0.256776464856076 ], [ -79.203095353164912, -0.258087651170793 ], [ -79.202584342183229, -0.259359224694552 ], [ -79.202473424870405, -0.259862308485355 ], [ -79.202465501826666, -0.260646643532453 ], [ -79.202501153837574, -0.262048939306404 ], [ -79.202524922540505, -0.263522537930693 ], [ -79.202524922005935, -0.264988214310874 ], [ -79.202485308531152, -0.265257581766779 ], [ -79.202410043918235, -0.265439800954896 ], [ -79.202455598927799, -0.265471490985684 ], [ -79.203194386659774, -0.265643807217474 ], [ -79.203584578053309, -0.265732935369172 ], [ -79.204024285588545, -0.265774528984259 ], [ -79.204687808016885, -0.265901290101636 ], [ -79.204856164586786, -0.265899309957245 ], [ -79.205062153334254, -0.265820084122703 ], [ -79.205363213924585, -0.265602213723401 ], [ -79.205874225964862, -0.265039710326789 ], [ -79.205892051994482, -0.265017923283181 ], [ -79.205927703301583, -0.265035749221974 ], [ -79.206430792066598, -0.265521006743347 ], [ -79.206589245538737, -0.265669555091541 ], [ -79.206531806080861, -0.265723032441438 ], [ -79.206298087737068, -0.265956748681241 ] ] } }
]
}
