{
"type": "FeatureCollection",
"name": "LINEA_19_IDA",
"crs": { "type": "name", "properties": { "name": "urn:ogc:def:crs:OGC:1.3:CRS84" } },
"features": [
{ "type": "Feature", "properties": { "OBJECTID": 1, "SHAPE_Leng": 15168.206664699999, "long": 15.1682, "Nombre_ope": "Rio_Toachi", "Punto_part": "Duragas", "Punto_lleg": "CC_SHOPPING", "Sentido": "Ida" }, "geometry": { "type": "LineString", "coordinates": [ [ -79.159938769233278, -0.273177365042712 ], [ -79.161673831024302, -0.273759674529013 ], [ -79.163476236123373, -0.274369711885097 ], [ -79.166134287204699, -0.275225348865689 ], [ -79.167722780373381, -0.275783890031108 ], [ -79.170412522621703, -0.27662764311857 ], [ -79.172927965915903, -0.2774634740581 ], [ -79.173823226829725, -0.277788299021216 ], [ -79.176176256121366, -0.278790503630633 ], [ -79.178255953817228, -0.279729327113488 ], [ -79.179008605962167, -0.28002246207487 ], [ -79.181060574491156, -0.280882059425274 ], [ -79.182351967445442, -0.281400987944569 ], [ -79.183869156878487, -0.281983295998339 ], [ -79.1849783284582, -0.282415075753088 ], [ -79.185655715885048, -0.282656713980077 ], [ -79.186348948579038, -0.282850816208182 ], [ -79.1866698157108, -0.282870623300104 ], [ -79.187533385706502, -0.282795358855427 ], [ -79.188036474064418, -0.28265275227999 ], [ -79.188456374861005, -0.282478455756301 ], [ -79.189518011026252, -0.281698083458257 ], [ -79.190315347239448, -0.281145563882186 ], [ -79.190885778826427, -0.280703484875639 ], [ -79.191670122074541, -0.280152074587085 ], [ -79.193150074465564, -0.279087282578845 ], [ -79.193904311410364, -0.278532702928154 ], [ -79.194969116531738, -0.277734108323753 ], [ -79.195637788754468, -0.27724924782123 ], [ -79.196132163208915, -0.276897485588499 ], [ -79.196675129327062, -0.27651799449773 ], [ -79.197140981479251, -0.276313592599336 ], [ -79.197716165741483, -0.276094929581503 ], [ -79.199061433323095, -0.275885773849635 ], [ -79.199898065617973, -0.275781196370476 ], [ -79.200439976218448, -0.275700386343137 ], [ -79.200744206222936, -0.275586301389093 ], [ -79.20087730641302, -0.275448448443458 ], [ -79.200934350027438, -0.27533436382924 ], [ -79.200901074538791, -0.275030136540986 ], [ -79.200145252782093, -0.274174499755226 ], [ -79.199560560786708, -0.273523264327882 ], [ -79.199151751859532, -0.273161995526581 ], [ -79.199199287833309, -0.272767452089556 ], [ -79.199413199035533, -0.272330125883874 ], [ -79.199693661586124, -0.271740686793359 ], [ -79.199812501576545, -0.271574313186682 ], [ -79.200420961021507, -0.270076947866315 ], [ -79.201400597622253, -0.267619366322977 ], [ -79.202470156909698, -0.265171291059379 ], [ -79.202351317130166, -0.261415991040067 ], [ -79.202398852869095, -0.259609643853563 ], [ -79.203824931420201, -0.255878109756571 ], [ -79.204442898817163, -0.254119297604941 ], [ -79.204324058521621, -0.252740768849854 ], [ -79.203325804009125, -0.250768045848051 ], [ -79.202256245064675, -0.24976980024668 ], [ -79.201757117392589, -0.249341981374418 ], [ -79.201329294317759, -0.248106057797122 ], [ -79.198738584826799, -0.244849875676592 ], [ -79.197003523428165, -0.242900919514931 ], [ -79.196076571887716, -0.242401797064457 ], [ -79.189183859914479, -0.241546157712402 ], [ -79.18176825239685, -0.238028528459574 ], [ -79.1804372465174, -0.237529405153189 ], [ -79.179153775641197, -0.237291728059673 ], [ -79.175350900197628, -0.237885921666033 ], [ -79.173924821389818, -0.237743314808503 ], [ -79.173015300774708, -0.237408348552937 ], [ -79.171696969928036, -0.236533693907405 ], [ -79.170353287461154, -0.235735096769337 ], [ -79.16840114511767, -0.23446748258117 ], [ -79.168165049101958, -0.234307002176154 ], [ -79.1679083551155, -0.234188164148169 ], [ -79.167656415163222, -0.234140628109764 ], [ -79.167490039077848, -0.23423569966654 ], [ -79.167423488738933, -0.234473377058127 ], [ -79.167323663695342, -0.235352784537437 ], [ -79.167311303910608, -0.236206523302423 ], [ -79.167420636649808, -0.236900541603372 ], [ -79.167601273396144, -0.237390157590174 ], [ -79.168195472200324, -0.238307593693344 ], [ -79.168366602117914, -0.238626081862217 ], [ -79.168542484607585, -0.238692631385138 ], [ -79.168647063946992, -0.238811470482871 ], [ -79.168689846072169, -0.238968337440328 ], [ -79.168651817798917, -0.239153725854164 ], [ -79.168490195565568, -0.23929633309653 ], [ -79.168304805397312, -0.239324854032896 ], [ -79.168166950895326, -0.239258304140798 ], [ -79.168005328427725, -0.239172740685389 ], [ -79.167368347232539, -0.239148972340091 ], [ -79.166536467955098, -0.239253550835537 ], [ -79.164159670482292, -0.239443693135434 ], [ -79.163641528769872, -0.23950548934138 ], [ -79.163422863361887, -0.239624327964769 ], [ -79.163242226876221, -0.239842991503773 ], [ -79.163246980896105, -0.240275564555901 ], [ -79.163380080786098, -0.242443184930383 ], [ -79.163470399822089, -0.244192492019508 ], [ -79.163579732101482, -0.246003594756464 ], [ -79.163641528614349, -0.24752948457775 ], [ -79.163638359850495, -0.247958888097391 ], [ -79.16356230208504, -0.248377200572063 ], [ -79.163467230861968, -0.248833541853015 ], [ -79.163163000507822, -0.249327910525287 ], [ -79.162884123047675, -0.249784251094837 ], [ -79.162776374638113, -0.250132844683565 ], [ -79.162573554741059, -0.250310311139119 ], [ -79.162358058600262, -0.250246929890267 ], [ -79.162326368165282, -0.250088478689156 ], [ -79.162478482374098, -0.24979058983632 ], [ -79.162757360526044, -0.249581433285277 ], [ -79.162979194468491, -0.24931523405947 ] ] } }
]
}
