{
"type": "FeatureCollection",
"name": "LINEA_24B_RETONORNO",
"crs": { "type": "name", "properties": { "name": "urn:ogc:def:crs:OGC:1.3:CRS84" } },
"features": [
{ "type": "Feature", "properties": { "OBJECTID": 1, "SHAPE_Leng": 9360.6484088599991, "long": 9.36065, "Nombre_ope": "Rio_Toachi", "Punto_part": "Abraham_Calazacon", "Punto_lleg": "Abraham_Calazacon", "Sentido": "Retorno" }, "geometry": { "type": "LineString", "coordinates": [ [ -79.163209575440064, -0.242598094482422 ], [ -79.16315411610411, -0.241528546093172 ], [ -79.163073305737086, -0.240291037399077 ], [ -79.163078059092456, -0.240015331821932 ], [ -79.163021015721128, -0.239768146492038 ], [ -79.162892668656596, -0.239625540427625 ], [ -79.162859393894152, -0.239459166000818 ], [ -79.162930697950912, -0.239297544926587 ], [ -79.163092320133813, -0.239226242060189 ], [ -79.163234927923213, -0.239202473735224 ], [ -79.163396549559693, -0.239297545349099 ], [ -79.163548664672618, -0.239364094324249 ], [ -79.163681765459842, -0.239383109039461 ], [ -79.165250452029397, -0.239245255613866 ], [ -79.166976006626328, -0.239088388979506 ], [ -79.167760349671155, -0.239017085462103 ], [ -79.167893449801213, -0.239002824989055 ], [ -79.16800753606779, -0.238950535778791 ], [ -79.168069333545773, -0.238822189890924 ], [ -79.168159651748752, -0.238717611019153 ], [ -79.168278491492501, -0.238651062146206 ], [ -79.168478142771164, -0.238655815516632 ], [ -79.168606489561583, -0.238736625274132 ], [ -79.168677792976339, -0.238879232162186 ], [ -79.168692053913247, -0.238988564359046 ], [ -79.168768111245626, -0.239093142088882 ], [ -79.168901211962307, -0.239183459981038 ], [ -79.169020052346127, -0.239302298332836 ], [ -79.16919118184758, -0.239406877121848 ], [ -79.169286253735081, -0.23944965898914 ], [ -79.169409846489799, -0.239454412156442 ], [ -79.169599990695033, -0.239435398393444 ], [ -79.17000879984387, -0.239387862699092 ], [ -79.170607752399519, -0.239335573460932 ], [ -79.172086120490277, -0.239226241616485 ], [ -79.173973297742151, -0.239112156198488 ], [ -79.174790916098132, -0.239045606587786 ], [ -79.175751142342634, -0.239012331358864 ], [ -79.17679693314922, -0.238964796272403 ], [ -79.178593791832441, -0.238902999703185 ], [ -79.179335352325012, -0.23888398599245 ], [ -79.179611060712233, -0.238926767691832 ], [ -79.180152970599778, -0.239150185179925 ], [ -79.18246797069375, -0.240333819369108 ], [ -79.183109706627832, -0.240680828900071 ], [ -79.183375907394336, -0.240842449229985 ], [ -79.183509008502156, -0.240951781101921 ], [ -79.183561297483209, -0.241023084665589 ], [ -79.183656369720879, -0.24099456308095 ], [ -79.18380373112673, -0.241056359227723 ], [ -79.183870281457587, -0.241146677075333 ], [ -79.183846513583987, -0.241260762475528 ], [ -79.183798977152051, -0.241365340760023 ], [ -79.183765702758379, -0.241517454101598 ], [ -79.183732427158517, -0.241712349526708 ], [ -79.183701528481947, -0.241831188620141 ], [ -79.18371816638512, -0.24321209534644 ], [ -79.183840175575241, -0.246209051173631 ], [ -79.183821160927067, -0.24909920937285 ], [ -79.183909895081612, -0.250975276744757 ], [ -79.184004966568125, -0.252375989277992 ], [ -79.184030318973726, -0.253320361197927 ], [ -79.184030319404968, -0.253497826732025 ], [ -79.183694398296382, -0.254080928146212 ], [ -79.183047909969645, -0.25528516039827 ], [ -79.18178028466015, -0.257465454344445 ], [ -79.180696464633883, -0.259322506200296 ], [ -79.179238696236681, -0.261724631189905 ], [ -79.178249948494582, -0.263492950084187 ], [ -79.178211919711231, -0.263645062728658 ], [ -79.178256286240241, -0.263778162559874 ], [ -79.178097832926952, -0.263961965689182 ], [ -79.17793937961936, -0.263911261557331 ], [ -79.177806278991568, -0.263803514356416 ], [ -79.177590783166323, -0.263689429651308 ], [ -79.176234424554011, -0.263239427733902 ], [ -79.174022417961254, -0.262497874519289 ], [ -79.172597924123849, -0.261982590325386 ], [ -79.172387181884346, -0.26188371656507 ], [ -79.171791397848494, -0.261557306037321 ], [ -79.17088663001968, -0.261029980133548 ], [ -79.170530110958154, -0.260868358920736 ], [ -79.168305428217423, -0.260345469564866 ], [ -79.166789032029683, -0.259960432229629 ], [ -79.165053969418054, -0.259523105993108 ], [ -79.163905976532178, -0.259279011328233 ], [ -79.162834832970859, -0.258981122635603 ], [ -79.161969678980014, -0.258754536426179 ], [ -79.161375479803581, -0.258436049025545 ], [ -79.161071249759956, -0.258230061690639 ], [ -79.161128292734944, -0.257436220071465 ], [ -79.16117424427506, -0.256314382819857 ], [ -79.161253470511824, -0.255091136386648 ], [ -79.16131526753388, -0.253806094585148 ], [ -79.161370725952551, -0.252864892093322 ], [ -79.161516503198015, -0.252039358433324 ], [ -79.161644850126152, -0.251445165045269 ], [ -79.161709815744643, -0.251205902796188 ], [ -79.16187777605515, -0.250923859072032 ], [ -79.162240633868493, -0.250438997715799 ], [ -79.162343628600681, -0.250215580681203 ], [ -79.162346797782121, -0.250058713238846 ], [ -79.162338874856232, -0.249901846041768 ], [ -79.162424439975211, -0.249811528570485 ], [ -79.162632013222009, -0.249730718503362 ], [ -79.162766698355384, -0.249659415526374 ], [ -79.16295684189221, -0.249415399758225 ], [ -79.163170754167638, -0.248995502654706 ], [ -79.163332376688047, -0.248672261154636 ], [ -79.163421110037405, -0.248215920822778 ], [ -79.163500336139933, -0.247775425428601 ], [ -79.163459138870522, -0.247224013452891 ], [ -79.163422694973875, -0.246278056699877 ], [ -79.163392588264514, -0.245346361092841 ], [ -79.163257903002872, -0.243058317731196 ], [ -79.163207673989263, -0.242617505136873 ] ] } }
]
}
