{
"type": "FeatureCollection",
"name": "LINEA05A_IDA",
"crs": { "type": "name", "properties": { "name": "urn:ogc:def:crs:OGC:1.3:CRS84" } },
"features": [
{ "type": "Feature", "properties": { "OBJECTID": 1, "SHAPE_Leng": 10506.1282641, "Long": 10.5061, "Nombre_ope": "Rio_Toachi", "Punto_part": "Luz_del_Dia", "Punto_lleg": "Brisas_1", "Sentido": "Ida" }, "geometry": { "type": "LineString", "coordinates": [ [ -79.217263765784097, -0.25584551503287 ], [ -79.217200384178966, -0.254890844166359 ], [ -79.217160771280305, -0.253944096439925 ], [ -79.216657682135477, -0.253955980368009 ], [ -79.216289279071475, -0.253952019030365 ], [ -79.214997885860583, -0.254031244247947 ], [ -79.213722337450633, -0.254138199630813 ], [ -79.212592566868892, -0.254283182286516 ], [ -79.211381984970629, -0.254289520692336 ], [ -79.209284064555334, -0.254466986998891 ], [ -79.207224174199482, -0.254587410131515 ], [ -79.204441736188897, -0.25477755197807 ], [ -79.204305467043085, -0.254757745313118 ], [ -79.204333988156932, -0.254619892134867 ], [ -79.204398161869733, -0.254360823780553 ], [ -79.204429060494121, -0.254132653750839 ], [ -79.204464712470781, -0.253788021642168 ], [ -79.204450451826929, -0.25347666381987 ], [ -79.204433814058532, -0.253193827691865 ], [ -79.204350626273509, -0.252730357006264 ], [ -79.20426981451773, -0.25245465129731 ], [ -79.204098685068473, -0.252045845998302 ], [ -79.203937063616365, -0.251701213683144 ], [ -79.203639963609888, -0.251230612235441 ], [ -79.203300081377279, -0.250786155993965 ], [ -79.202945939016047, -0.250339322389734 ], [ -79.202606056681049, -0.25002083400309 ], [ -79.202299449968052, -0.24978553348649 ], [ -79.202173479749533, -0.249768896318633 ], [ -79.201881133853476, -0.24992100974914 ], [ -79.201450933763638, -0.250355959148229 ], [ -79.201013603058271, -0.250826560476823 ], [ -79.199948797767419, -0.251993556828524 ], [ -79.199014715769906, -0.253065482113658 ], [ -79.198375358020996, -0.253652545044734 ], [ -79.198054489881926, -0.253861701803717 ], [ -79.197446029708701, -0.254092248622295 ], [ -79.196728237430577, -0.254270506153765 ], [ -79.196245747066925, -0.254358447318252 ], [ -79.194924247942524, -0.254634153230522 ], [ -79.1937762551281, -0.254897974664904 ], [ -79.193386459865749, -0.254945509971914 ], [ -79.192195684916911, -0.254978785478881 ], [ -79.191340037670955, -0.255000176312259 ], [ -79.189723815849547, -0.254985915878489 ], [ -79.187539538691354, -0.255004929853916 ], [ -79.184349876849907, -0.255009683114119 ], [ -79.180062134651095, -0.255130898674408 ], [ -79.178572675459023, -0.25505167303583 ], [ -79.177745549139686, -0.254815580297244 ], [ -79.176712435206326, -0.254276844416031 ], [ -79.176420881024825, -0.25421346426411 ], [ -79.176325808997731, -0.254029660604981 ], [ -79.176306795121349, -0.25387120812066 ], [ -79.176084960143243, -0.25368740458322 ], [ -79.176065946264984, -0.253541629080945 ], [ -79.176148341840218, -0.253313459141627 ], [ -79.17618637096065, -0.252895146608715 ], [ -79.176122989726508, -0.252210636170118 ], [ -79.175742701566634, -0.251101474159712 ], [ -79.175210299578126, -0.249783156437045 ], [ -79.174297609069797, -0.247596523886872 ], [ -79.173746192157012, -0.246208487384235 ], [ -79.173262381689668, -0.245160329336823 ], [ -79.171883839328316, -0.243334965178829 ], [ -79.17041022518957, -0.241395516637565 ], [ -79.169259855376694, -0.23989339338395 ], [ -79.168908089235714, -0.239437052393784 ], [ -79.168524632934393, -0.239272262550403 ], [ -79.168353502717196, -0.239329305048272 ], [ -79.168125330565303, -0.23923423422513 ], [ -79.168004905906699, -0.239006063667576 ], [ -79.168080963572777, -0.238809583275063 ], [ -79.168195050361433, -0.238644793437087 ], [ -79.168157021214896, -0.238422961098024 ], [ -79.167745043287695, -0.237922253852145 ], [ -79.167364755444353, -0.237244079938573 ], [ -79.167180949346104, -0.23647717337935 ], [ -79.167199964003956, -0.235583505015305 ], [ -79.167218978289554, -0.234696174626372 ], [ -79.167180950002731, -0.234201805079807 ], [ -79.167003482280791, -0.233878562976693 ], [ -79.167098554150925, -0.233567997453057 ], [ -79.167250668866231, -0.233377855864266 ], [ -79.167383769905186, -0.233175037565315 ], [ -79.167554899141564, -0.232287707026041 ], [ -79.167649970674276, -0.230246846466237 ], [ -79.167611942170865, -0.228713032765167 ], [ -79.167482010487035, -0.227098407657546 ], [ -79.167415460235077, -0.226486783895928 ], [ -79.167328310922031, -0.226440832502737 ], [ -79.166819676418854, -0.226127098077118 ], [ -79.166745203188754, -0.226077977971796 ], [ -79.166147835318782, -0.225759489593767 ], [ -79.165612263910475, -0.225428324222914 ], [ -79.164536367096218, -0.22475965724116 ], [ -79.16382649622507, -0.224341344584308 ], [ -79.163392335054809, -0.224095744237317 ], [ -79.163370151171947, -0.224151201714814 ], [ -79.163332123080664, -0.224160708857796 ], [ -79.163180008051214, -0.22406880745764 ], [ -79.162910637543291, -0.223908770419587 ], [ -79.162634928464044, -0.223755072413261 ], [ -79.162157984497895, -0.223503133491604 ], [ -79.161639843414463, -0.223219505050955 ], [ -79.161050397085177, -0.222867741583906 ], [ -79.160700216082333, -0.222650662019525 ], [ -79.160270807642007, -0.222422491763176 ], [ -79.159784673871158, -0.222147180762933 ], [ -79.159293469053367, -0.221877812971452 ], [ -79.158567753051301, -0.22147851345561 ], [ -79.158162113584254, -0.221250343049821 ], [ -79.158008413650734, -0.221543478789852 ], [ -79.157722299780289, -0.222055226350868 ], [ -79.157464813938645, -0.222506814190407 ], [ -79.157270708304793, -0.22286729210146 ], [ -79.156930034082009, -0.22264149794417 ], [ -79.156597282450193, -0.22247116221614 ], [ -79.156226502804614, -0.222289734635083 ], [ -79.155922272002911, -0.222099592995327 ], [ -79.155580013834765, -0.221922126164598 ], [ -79.15500958210373, -0.22160522294789 ] ] } }
]
}
