{
"type": "FeatureCollection",
"name": "LINEA01_RETORNO",
"crs": { "type": "name", "properties": { "name": "urn:ogc:def:crs:OGC:1.3:CRS84" } },
"features": [
{ "type": "Feature", "properties": { "OBJECTID": 1, "SHAPE_Leng": 10874.1980203, "long": 10.8742, "Nombre_ope": "Rio_Toachi", "Punto_lleg": "EPACEN", "Punto_part": "Rio_Verde", "Sentido": "Retorno" }, "geometry": { "type": "LineString", "coordinates": [ [ -79.171363007190294, -0.217276125328577 ], [ -79.17023006692699, -0.218377367005438 ], [ -79.169200121727386, -0.219375614012076 ], [ -79.168083027199486, -0.220524391157046 ], [ -79.167512595516058, -0.221292883681523 ], [ -79.167322451473169, -0.221871232660572 ], [ -79.167298683366809, -0.222718951314548 ], [ -79.167401678655125, -0.223986566135064 ], [ -79.167591822344775, -0.226276196591919 ], [ -79.167674217932728, -0.227865469992435 ], [ -79.167816825847567, -0.229766892026654 ], [ -79.167807318389677, -0.23038485414054 ], [ -79.167721753359629, -0.231658807612538 ], [ -79.167674217372777, -0.232666561024105 ], [ -79.167683724655049, -0.233065859694657 ], [ -79.16782633305877, -0.233455651206267 ], [ -79.167864361447201, -0.233826428604975 ], [ -79.167731260828234, -0.23407361379873 ], [ -79.167493581375865, -0.234320798742705 ], [ -79.16737949502496, -0.234872211058563 ], [ -79.167322451542503, -0.235528200999313 ], [ -79.167284422941435, -0.236041585357689 ], [ -79.167389001870617, -0.236602504187421 ], [ -79.16750308818672, -0.237020817171906 ], [ -79.167693231727114, -0.23744863695649 ], [ -79.168006969587651, -0.237990541946518 ], [ -79.168282677973863, -0.238427869107258 ], [ -79.168406271646262, -0.238608504635506 ], [ -79.168615429428371, -0.238751111005687 ], [ -79.168700994064992, -0.238912732002117 ], [ -79.168662965529336, -0.239093366691936 ], [ -79.168529864646899, -0.239302522704749 ], [ -79.168311199156392, -0.239397594035686 ], [ -79.168320706571805, -0.239825413425483 ], [ -79.168315952657451, -0.24048378070082 ], [ -79.168315952841638, -0.241276039639907 ], [ -79.168319914325082, -0.242044530489762 ], [ -79.168319914467816, -0.242912054186395 ], [ -79.168343682283393, -0.24389049295963 ], [ -79.168335759884471, -0.244587680830058 ], [ -79.168335759704377, -0.245415590453938 ], [ -79.168363488858773, -0.246192004165346 ], [ -79.168375373271203, -0.246940688197593 ], [ -79.168383295271241, -0.247728985766037 ], [ -79.16839121824664, -0.248481630850933 ], [ -79.16839914092057, -0.249143166635231 ], [ -79.168434793037292, -0.251151540708086 ], [ -79.168406270994453, -0.252393009609637 ], [ -79.168398348567166, -0.253961680056373 ], [ -79.16896877991843, -0.253957719373177 ], [ -79.169669935291395, -0.253945835130501 ], [ -79.170478046259035, -0.253886416112785 ], [ -79.171036593521478, -0.253763615725453 ], [ -79.172090306685192, -0.253553667242978 ], [ -79.173389622989077, -0.253296183351877 ], [ -79.173912518762251, -0.253173383726049 ], [ -79.174110584718051, -0.253125848183423 ], [ -79.174111377266797, -0.253303313750887 ], [ -79.174181096805512, -0.253756485284747 ], [ -79.17425081566509, -0.254111417088663 ], [ -79.174269830439911, -0.254326911578319 ], [ -79.174339549367744, -0.254865646919242 ], [ -79.174371240351178, -0.25522374734477 ], [ -79.174396592460752, -0.255512129552416 ], [ -79.174399761894918, -0.255610368874283 ], [ -79.174063840827586, -0.255651566286777 ], [ -79.1736455248342, -0.255711778585179 ], [ -79.17313847474361, -0.255756144385414 ], [ -79.172726496814235, -0.255784665624329 ], [ -79.171639507815641, -0.255813187662763 ], [ -79.171050062507433, -0.255832201196766 ], [ -79.170156386325445, -0.255873398781334 ], [ -79.169576447388337, -0.255822694633733 ], [ -79.169275387197231, -0.25580051132676 ], [ -79.169148624742178, -0.255819525206546 ], [ -79.169047214601818, -0.255870230020973 ], [ -79.168828548797237, -0.256009667165331 ], [ -79.168644743008713, -0.256041357859129 ], [ -79.168397556054529, -0.255996990666508 ], [ -79.168121847476243, -0.255892413368084 ], [ -79.1680331140048, -0.255822694384623 ], [ -79.16781444880418, -0.255749806269305 ], [ -79.167535571376817, -0.255752975416109 ], [ -79.167294722877116, -0.255686425744838 ], [ -79.167076056870485, -0.255607200573346 ], [ -79.166908096345253, -0.255489945696945 ], [ -79.166781334062506, -0.255306141946985 ], [ -79.166664078964899, -0.254992408465558 ], [ -79.166603866703014, -0.254795928378631 ], [ -79.166521471109945, -0.25468818064226 ], [ -79.166353510574567, -0.254526560841614 ], [ -79.166210902787213, -0.254418813556155 ], [ -79.166090478393755, -0.254393460632098 ], [ -79.166001745032247, -0.254412475468637 ], [ -79.16591617970586, -0.254450503823433 ], [ -79.165890827514716, -0.254621631360519 ], [ -79.165764065412418, -0.255039943143162 ], [ -79.165611949588708, -0.255575509901644 ], [ -79.165453496635152, -0.256168118456606 ], [ -79.165298212911736, -0.256694178032353 ], [ -79.165225324340923, -0.256988897960322 ], [ -79.165241169706846, -0.25711565910949 ], [ -79.165333072313118, -0.257220237010203 ], [ -79.165482018187063, -0.257318477054736 ], [ -79.165469342368866, -0.257432562636037 ], [ -79.165409130010872, -0.257571999609961 ], [ -79.165310888768531, -0.257736789341239 ], [ -79.165310889241624, -0.258022001528186 ], [ -79.165345748474408, -0.258671653569856 ], [ -79.165386946213658, -0.259514615664948 ], [ -79.16539962251386, -0.260617438385696 ], [ -79.165380608740762, -0.262905477487133 ], [ -79.165355255752615, -0.264572387296304 ], [ -79.165342579214681, -0.267411836743975 ], [ -79.165306927261327, -0.270214248501903 ], [ -79.165330695890006, -0.272301844746289 ], [ -79.165295043633208, -0.274072538787917 ], [ -79.165299004720609, -0.274844989047881 ], [ -79.165287121313824, -0.275003440528417 ], [ -79.166229917173226, -0.275296575423321 ], [ -79.167648072545674, -0.27577192948643 ], [ -79.167624305393602, -0.275808373124524 ], [ -79.167090634923412, -0.275642316120582 ], [ -79.166180479574109, -0.275334286455912 ], [ -79.165345114851803, -0.275063017913542 ], [ -79.164675808726003, -0.274858933133714 ], [ -79.164621300693241, -0.274943863110968 ], [ -79.164486932802447, -0.275392596800925 ], [ -79.164466650351841, -0.275431892961491 ], [ -79.164308197515993, -0.275387526908543 ], [ -79.163901290123121, -0.275240483898295 ], [ -79.163178743439843, -0.275007243770117 ], [ -79.162660284749151, -0.274812031620582 ], [ -79.161780552546489, -0.274492593013104 ], [ -79.160834904655374, -0.274169352890322 ], [ -79.160699268242013, -0.274133859522191 ], [ -79.159989398164072, -0.273932309163277 ], [ -79.159908270256494, -0.273908225177381 ], [ -79.15974981737115, -0.274637101392326 ], [ -79.159554602568861, -0.275308934571611 ], [ -79.159483615810217, -0.275540907248052 ], [ -79.159361924171819, -0.275687950125887 ], [ -79.159141356644767, -0.275776682579808 ], [ -79.158365570446151, -0.275880626770133 ], [ -79.157719081866674, -0.275927528539291 ], [ -79.157331188180763, -0.275952880467137 ], [ -79.157168932388203, -0.275999782637673 ], [ -79.15666061457982, -0.276324290999553 ], [ -79.156243565925379, -0.276646263422495 ], [ -79.156145958699398, -0.27684274375468 ], [ -79.156140887897095, -0.276955561097661 ], [ -79.156138352656441, -0.277034152612606 ], [ -79.156238495554561, -0.27732570251138 ], [ -79.156227086692411, -0.277358660984778 ], [ -79.15606736629752, -0.277401759159709 ], [ -79.155556512962505, -0.27751077425085 ], [ -79.154155787520423, -0.277815000896003 ], [ -79.153741273921597, -0.277893592591615 ], [ -79.153527045109016, -0.277887254382824 ], [ -79.153399014657623, -0.277787112956117 ], [ -79.153229153172589, -0.277532323265925 ], [ -79.153080840727597, -0.277306688477222 ], [ -79.153036473836124, -0.277205279824602 ] ] } }
]
}
