{
"type": "FeatureCollection",
"name": "LINEA02_RETORNO",
"crs": { "type": "name", "properties": { "name": "urn:ogc:def:crs:OGC:1.3:CRS84" } },
"features": [
{ "type": "Feature", "properties": { "OBJECTID": 1, "SHAPE_Leng": 9466.8588176400008, "long": 9.46686, "Nombre_ope": "Rio_Toachi", "Punto_part": "El_Paraiso", "Punto_lleg": "U_Catolica", "Sentido": "Retorno" }, "geometry": { "type": "LineString", "coordinates": [ [ -79.18882025982191, -0.255001400227737 ], [ -79.186719171105153, -0.25500456935732 ], [ -79.185370892819449, -0.255027940712878 ], [ -79.185337221204932, -0.255057650389878 ], [ -79.185456061844533, -0.255305231390763 ], [ -79.185770987522076, -0.256022224860651 ], [ -79.186008667234091, -0.256616417877377 ], [ -79.186044319236544, -0.25676694673821 ], [ -79.186020550554204, -0.257032353409197 ], [ -79.185931421034994, -0.257616643191713 ], [ -79.185841499059933, -0.258144089191497 ], [ -79.185591143239805, -0.258860290200853 ], [ -79.185305926764201, -0.259652547199598 ], [ -79.185153812373116, -0.260099380503649 ], [ -79.185084092830493, -0.260318043823024 ], [ -79.184811552890949, -0.260850440935782 ], [ -79.183924215372542, -0.260327551390458 ], [ -79.182995680086194, -0.259766632547612 ], [ -79.181236849818319, -0.258739866778424 ], [ -79.18020056700658, -0.258134582048762 ], [ -79.179455836576651, -0.257675072256952 ], [ -79.177994898740977, -0.256806757526962 ], [ -79.177136082656943, -0.256258515316863 ], [ -79.177060024930128, -0.256242670645631 ], [ -79.177018826934102, -0.256337741521246 ], [ -79.176926924110646, -0.256553234917763 ], [ -79.176863543510109, -0.256591263947032 ], [ -79.176739949432573, -0.256477178869397 ], [ -79.176502270336755, -0.256195134621099 ], [ -79.176217053955099, -0.255802174944384 ], [ -79.175865288174734, -0.255605694624139 ], [ -79.175526198292133, -0.255548652726319 ], [ -79.175513522452874, -0.255409215275747 ], [ -79.175561058068936, -0.255085973763612 ], [ -79.175576903861185, -0.254822943925099 ], [ -79.175301195103174, -0.254851465043759 ], [ -79.17441068812262, -0.254946536692372 ], [ -79.173542365438195, -0.255019424223253 ], [ -79.172642351143097, -0.255092311613593 ], [ -79.171108524303051, -0.255260270515179 ], [ -79.170988100483726, -0.255266608457778 ], [ -79.170110269893797, -0.255219072898103 ], [ -79.169216593741808, -0.255111326293218 ], [ -79.168421159233802, -0.255073297335839 ], [ -79.168284889617226, -0.255051114250332 ], [ -79.167895095245939, -0.254902170145282 ], [ -79.167625724032717, -0.254629632963754 ], [ -79.16719156294694, -0.254265194423344 ], [ -79.166453170740482, -0.253526809931211 ], [ -79.165394704507847, -0.252620466728925 ], [ -79.163635873961354, -0.251039120073157 ], [ -79.162802410888531, -0.250322918108607 ], [ -79.162628112502915, -0.250303903995597 ], [ -79.162456983000183, -0.250265875492234 ], [ -79.162361910873116, -0.250170805071247 ], [ -79.162298529522786, -0.250018690999142 ], [ -79.162178105497915, -0.24986974648095 ], [ -79.161664717005792, -0.249698618440351 ], [ -79.160964354214585, -0.249460941214918 ], [ -79.158476639078188, -0.248801782611873 ], [ -79.156397733867081, -0.24819332764268 ], [ -79.154977994205808, -0.247813043796964 ], [ -79.153615296832626, -0.247464449997852 ], [ -79.153048034926229, -0.247378886439957 ], [ -79.152696268942307, -0.247325012990285 ], [ -79.151080045946244, -0.247150715979827 ], [ -79.149165932712449, -0.246970080985664 ], [ -79.146963433224897, -0.246764093747675 ], [ -79.146139477405129, -0.246700712879215 ], [ -79.145749682432978, -0.246719727098171 ], [ -79.145112701072478, -0.246947897607751 ], [ -79.144681707951733, -0.247195082613395 ], [ -79.144310928114635, -0.247286984888028 ], [ -79.143791201228993, -0.247578535201914 ], [ -79.143261968294311, -0.247892269827795 ], [ -79.143027457292931, -0.248038045680967 ], [ -79.142678860385516, -0.248370793965632 ], [ -79.142355615799076, -0.24868769686783 ], [ -79.141905608940064, -0.249267630455912 ], [ -79.14139222094748, -0.249917282480147 ], [ -79.141183062864087, -0.250158128206361 ], [ -79.140831296910704, -0.250440172917453 ], [ -79.140371782000159, -0.250601792867978 ], [ -79.139608037947326, -0.250855316146621 ], [ -79.138704855342098, -0.251264120598154 ], [ -79.138067873815217, -0.251587361979088 ], [ -79.136793909850269, -0.252211661792147 ], [ -79.134819583752659, -0.253266949856663 ], [ -79.133504422876911, -0.253900755471405 ], [ -79.132921315480189, -0.254176461696694 ], [ -79.132483984580631, -0.254322236852951 ], [ -79.132068837221141, -0.254426814940409 ], [ -79.131387488421396, -0.25448385765567 ], [ -79.130183244732919, -0.254594773996241 ], [ -79.129802956828357, -0.254620125958417 ], [ -79.129467036721266, -0.254762732516726 ], [ -79.128979000878786, -0.25507329755773 ], [ -79.128303990735105, -0.255646892593599 ], [ -79.127949055090554, -0.255894076461795 ], [ -79.127197987074098, -0.256245839315708 ], [ -79.126415228855421, -0.256629291813651 ], [ -79.126241775233055, -0.256496403821129 ], [ -79.126115013200831, -0.256490066272652 ], [ -79.125775289738598, -0.256502741601709 ], [ -79.125549969100177, -0.256509397060621 ], [ -79.125406726943467, -0.256552495698544 ], [ -79.125087285837111, -0.25670714474804 ], [ -79.124990945881493, -0.256750243045883 ], [ -79.124492769540325, -0.25693531508119 ], [ -79.12402628316238, -0.257129259591516 ], [ -79.123827266258431, -0.257198978013335 ], [ -79.123710645014768, -0.257162217744095 ], [ -79.123628248773088, -0.257076019451068 ], [ -79.123483739729537, -0.25687066623956 ], [ -79.123453316766515, -0.256760383914135 ], [ -79.123445710646905, -0.256582918824758 ], [ -79.123626981167277, -0.256252071395112 ], [ -79.123800646149434, -0.255942774498968 ], [ -79.124014875018759, -0.25557516616086 ], [ -79.12405924207242, -0.255472489558652 ], [ -79.124046565374172, -0.255382489289096 ], [ -79.123946423202767, -0.25533432001429 ], [ -79.123298666733831, -0.25553206767508 ], [ -79.123175707049683, -0.255562490007466 ], [ -79.123099649437592, -0.255556152734873 ], [ -79.123024859156246, -0.255506715833845 ], [ -79.122900632587005, -0.255298826685984 ], [ -79.122747249269821, -0.254969247579556 ], [ -79.122630627736797, -0.254692908473795 ], [ -79.122564711204404, -0.254491357669962 ], [ -79.122310473558187, -0.253838853635145 ], [ -79.122084677846686, -0.253941847240688 ], [ -79.121456806871109, -0.254193389557295 ], [ -79.12104879020076, -0.254359763563195 ] ] } }
]
}
