{
"type": "FeatureCollection",
"name": "LINEA15_IDA",
"crs": { "type": "name", "properties": { "name": "urn:ogc:def:crs:OGC:1.3:CRS84" } },
"features": [
{ "type": "Feature", "properties": { "OBJECTID": 1, "SHAPE_Leng": 9664.8414769299998 }, "geometry": { "type": "LineString", "coordinates": [ [ -79.21295964084014, -0.258110364753582 ], [ -79.208757464064533, -0.258395577224906 ], [ -79.20870992805834, -0.257368811480139 ], [ -79.208087206715689, -0.257402086115332 ], [ -79.207687905011454, -0.257397332750681 ], [ -79.205643859634122, -0.257178669431273 ], [ -79.203652102789462, -0.256498912242493 ], [ -79.20422134642476, -0.254975400965925 ], [ -79.204329015003665, -0.254720848407819 ], [ -79.204421710385674, -0.25422885587681 ], [ -79.204459738687859, -0.253594257302757 ], [ -79.204407449619637, -0.253071366784238 ], [ -79.204255334511217, -0.252418229249757 ], [ -79.20400161143904, -0.251829740347925 ], [ -79.203359875950056, -0.250867146459005 ], [ -79.202899371701633, -0.250272953330342 ], [ -79.202299229924236, -0.249818395097563 ], [ -79.202091260587665, -0.249827307992534 ], [ -79.201791189438978, -0.250035275167144 ], [ -79.20152974179139, -0.250314546659379 ], [ -79.200183880613622, -0.251785176080196 ], [ -79.198995481631329, -0.253086459654125 ], [ -79.198677585472836, -0.25343406245463 ], [ -79.197991285403504, -0.253927243342484 ], [ -79.197275274473682, -0.25416789210082 ], [ -79.194770725140998, -0.254699694534053 ], [ -79.193834860373627, -0.254904691785591 ], [ -79.193386240523438, -0.254978965531082 ], [ -79.189601190379463, -0.255035413985289 ], [ -79.186954033021649, -0.255038385488468 ], [ -79.182785724258849, -0.255079978781606 ], [ -79.18027820363973, -0.255121572044368 ], [ -79.178837269616722, -0.255071065760729 ], [ -79.178171766740704, -0.254928459637046 ], [ -79.176641703758307, -0.25426890481212 ], [ -79.176513950245948, -0.254286730600759 ], [ -79.176338661693705, -0.254215427496607 ], [ -79.176291125460949, -0.25393615598155 ], [ -79.176213880373027, -0.253817317623826 ], [ -79.176038590850212, -0.253656885227918 ], [ -79.176008880878314, -0.25351130805602 ], [ -79.176083156256837, -0.253413265910312 ], [ -79.176166344123899, -0.253223124236736 ], [ -79.176172286145871, -0.25285472375601 ], [ -79.176133663430377, -0.252628930267585 ], [ -79.176115837387343, -0.252221907787719 ], [ -79.176026707621944, -0.251865392297118 ], [ -79.175910838636938, -0.251553440008424 ], [ -79.175512724966623, -0.250567079173844 ], [ -79.174891786608043, -0.249013262355145 ], [ -79.173420945112966, -0.245543764543387 ], [ -79.173152128939904, -0.24503038168934 ], [ -79.172302424077955, -0.243877645396833 ], [ -79.169161883043344, -0.239749977119561 ], [ -79.168978869591115, -0.239500415705196 ], [ -79.168617596397752, -0.239310274112645 ], [ -79.168189773144334, -0.239357808996826 ], [ -79.168018643433328, -0.239120131393818 ], [ -79.168009136548079, -0.238910975274838 ], [ -79.168170758716514, -0.238673297157312 ], [ -79.168474988424848, -0.238559212366593 ], [ -79.16859858174081, -0.238464140843912 ], [ -79.168817247491802, -0.238074350072072 ], [ -79.169216548779886, -0.237009553957587 ], [ -79.171631375361386, -0.232883468311423 ], [ -79.172192299607161, -0.231932757326763 ], [ -79.172382442825338, -0.231999307234438 ], [ -79.174578603650829, -0.231923249814165 ], [ -79.176261375967655, -0.231809164935001 ], [ -79.1765560988689, -0.231609515920489 ], [ -79.177240616909941, -0.230373590890767 ], [ -79.177972670645858, -0.229232737854496 ], [ -79.178343450420783, -0.228643296569869 ], [ -79.178438522717087, -0.228538718024193 ], [ -79.178771273970298, -0.22844364746876 ], [ -79.178685709288956, -0.227949276966029 ], [ -79.179943035494802, -0.227879954615103 ], [ -79.179925209453245, -0.226982720381088 ], [ -79.17993709295618, -0.226810403866686 ], [ -79.179907383257316, -0.225027820125792 ], [ -79.179978687661475, -0.224950574436182 ], [ -79.180976942061136, -0.224944633017216 ], [ -79.181547373881244, -0.224879271448235 ] ] } }
]
}
