{
"type": "FeatureCollection",
"name": "LINEA05A_RETORNO",
"crs": { "type": "name", "properties": { "name": "urn:ogc:def:crs:OGC:1.3:CRS84" } },
"features": [
{ "type": "Feature", "properties": { "OBJECTID": 2, "SHAPE_Leng": 10531.329939699999, "long": 10.5313, "Nombre_com": "Rio_Toachi", "Punto_part": "Brisas_1", "Punto_lleg": "Luz_del_Dia", "Sentido": "Retorno" }, "geometry": { "type": "LineString", "coordinates": [ [ -79.155040837360673, -0.221567643148091 ], [ -79.155417955365195, -0.221786306869734 ], [ -79.155950357884478, -0.222058844259352 ], [ -79.156473253514548, -0.222363072191857 ], [ -79.156961289725203, -0.222622932898397 ], [ -79.157252842782512, -0.222809906402059 ], [ -79.157363696874441, -0.222620651456903 ], [ -79.157762048316272, -0.221903814732112 ], [ -79.158142018351953, -0.221217083638915 ], [ -79.158292549603971, -0.221278879739223 ], [ -79.158932700023385, -0.221640150564033 ], [ -79.159320909866111, -0.221860398529013 ], [ -79.160303319718338, -0.222391212908611 ], [ -79.160761249766608, -0.222651073892227 ], [ -79.161385554907369, -0.223017098225997 ], [ -79.161746827695055, -0.223237346053763 ], [ -79.162285569114601, -0.223530482719161 ], [ -79.162751421323975, -0.223772913746052 ], [ -79.163196674064963, -0.224035944114435 ], [ -79.163342451565825, -0.224118339096183 ], [ -79.163382751177465, -0.224058919615715 ], [ -79.163639445473393, -0.224188058235099 ], [ -79.163923868905513, -0.224351263096764 ], [ -79.164293856407411, -0.224580424973951 ], [ -79.16473831773628, -0.224839493140641 ], [ -79.165482255370364, -0.225317226081951 ], [ -79.166121613616312, -0.225702264391441 ], [ -79.16662549516748, -0.225975593625022 ], [ -79.166870304733493, -0.226118200216793 ], [ -79.167376562864462, -0.226429558839377 ], [ -79.167604735386448, -0.226531759936108 ], [ -79.167668909291422, -0.227589426892404 ], [ -79.167807238561764, -0.230074427895156 ], [ -79.167756533050735, -0.231037815007307 ], [ -79.167686813772875, -0.232438529515114 ], [ -79.16765512308362, -0.232958251066009 ], [ -79.167769209575923, -0.23339557877527 ], [ -79.167857943267506, -0.233794877030393 ], [ -79.167724843181801, -0.234086428205498 ], [ -79.167496669962318, -0.234289246616348 ], [ -79.167395260095034, -0.234675869097328 ], [ -79.16731920314848, -0.23553150927598 ], [ -79.167306526832689, -0.236216021070927 ], [ -79.167458641745654, -0.236951237070161 ], [ -79.167667799866393, -0.237439268988546 ], [ -79.168054425845611, -0.238054061203504 ], [ -79.168320626986144, -0.238535754913673 ], [ -79.168415698269513, -0.23863716389358 ], [ -79.168586828039167, -0.238725897138339 ], [ -79.16865654776619, -0.238903363266307 ], [ -79.168719928388469, -0.239042800552597 ], [ -79.168846691151572, -0.239194914228454 ], [ -79.169093878411417, -0.239353365839693 ], [ -79.169271345400631, -0.239467451136789 ], [ -79.169423460602829, -0.239435760780066 ], [ -79.169581913911657, -0.239530832246323 ], [ -79.169556561645251, -0.239733650377121 ], [ -79.169575576014722, -0.240031540013249 ], [ -79.169740367007293, -0.240316752520699 ], [ -79.170640380815058, -0.241463943862357 ], [ -79.171888991873899, -0.24310550344788 ], [ -79.173327746336753, -0.244994247729461 ], [ -79.17384113441291, -0.246122424054058 ], [ -79.174728472527576, -0.248201309952018 ], [ -79.175761586332868, -0.250806255399496 ], [ -79.17623060830249, -0.252175277225053 ], [ -79.176344694406097, -0.253322467273487 ], [ -79.176389061614444, -0.253468242773794 ], [ -79.176414413502755, -0.253683736602354 ], [ -79.176465118685215, -0.253905568448895 ], [ -79.176553852788629, -0.254045005919891 ], [ -79.176915125579455, -0.254184443266944 ], [ -79.177821477393991, -0.254640783845222 ], [ -79.178334866042036, -0.254856278652088 ], [ -79.17879121096081, -0.254906982820307 ], [ -79.179919397466719, -0.254970363787984 ], [ -79.181421532982668, -0.254945011052664 ], [ -79.183322971069359, -0.254925996819689 ], [ -79.185287790240082, -0.254894307000679 ], [ -79.188456852975563, -0.254875292661597 ], [ -79.191169571340183, -0.254843601889657 ], [ -79.192912556041847, -0.254837264199384 ], [ -79.193711159368448, -0.254748531619855 ], [ -79.194915403533159, -0.254501346823487 ], [ -79.196734446051892, -0.254102048680382 ], [ -79.197349243964098, -0.253981625247645 ], [ -79.197894323323723, -0.253753455010272 ], [ -79.198496444694001, -0.25335415742165 ], [ -79.198984480969372, -0.252916831228014 ], [ -79.199960551616684, -0.251820346007336 ], [ -79.201348601561932, -0.250273857869155 ], [ -79.201728889120545, -0.249760474070559 ], [ -79.201811284806922, -0.249361175894826 ], [ -79.201938047064189, -0.249107653248576 ], [ -79.202159882149999, -0.248961878065069 ], [ -79.202464112093281, -0.24901892040966 ], [ -79.2026479171424, -0.249228076486602 ], [ -79.20273665103015, -0.249614698659379 ], [ -79.202806370866639, -0.249988644719767 ], [ -79.202964824123129, -0.250223153535076 ], [ -79.20345285933719, -0.250844283655561 ], [ -79.203826809396176, -0.251325976730475 ], [ -79.204150053431022, -0.251909078391574 ], [ -79.204333858835739, -0.252409786017993 ], [ -79.204492312057013, -0.253081620534467 ], [ -79.204514812389519, -0.253327220881222 ], [ -79.204560763758963, -0.253306621372329 ], [ -79.204587700825272, -0.253249579274996 ], [ -79.204594039203016, -0.253129155746411 ], [ -79.204575024309605, -0.252900985952013 ], [ -79.204570271288333, -0.252799576163783 ], [ -79.204689111203393, -0.252733026548382 ], [ -79.205191407217086, -0.252644293921332 ], [ -79.205631709217101, -0.25256447427894 ], [ -79.205943069212466, -0.252581111187076 ], [ -79.206480225651461, -0.25248366413474 ], [ -79.207045903505204, -0.252409983770396 ], [ -79.207843715151583, -0.25238621593912 ], [ -79.208382455791536, -0.252465441926103 ], [ -79.208849893140766, -0.252512977281266 ], [ -79.209364865405746, -0.252528822190556 ], [ -79.210537418982511, -0.252441674069931 ], [ -79.211527750544732, -0.252386215673998 ], [ -79.212510160148184, -0.252291144614245 ], [ -79.213492570430873, -0.252227764167218 ], [ -79.213468802131629, -0.250833389654804 ], [ -79.215354394263954, -0.250706628621873 ], [ -79.215409852956668, -0.252061390214667 ], [ -79.215726759600685, -0.252077235497708 ], [ -79.216146660496236, -0.252148538803246 ], [ -79.216899313032883, -0.252093080333539 ] ] } }
]
}
