{
"type": "FeatureCollection",
"name": "LINEA_19_RETORNO",
"crs": { "type": "name", "properties": { "name": "urn:ogc:def:crs:OGC:1.3:CRS84" } },
"features": [
{ "type": "Feature", "properties": { "OBJECTID": 1, "NOMBRE_RUT": "EJECUTRANS", "PUNTO_PART": "C.C. SHOPPING", "PUNTO_LLEG": "DURAGAS", "LONGITD": 15.4568, "SENTIDO": "RETORNO" }, "geometry": { "type": "LineString", "coordinates": [ [ -79.162602599229544, -0.250280147217995 ], [ -79.162500409393857, -0.250270562987439 ], [ -79.162402977363826, -0.250222698366842 ], [ -79.162341200803354, -0.250124595227007 ], [ -79.162343596456211, -0.249988221887211 ], [ -79.162374506860814, -0.249878169323362 ], [ -79.162452941610951, -0.249815974323187 ], [ -79.162569397966806, -0.249772925202385 ], [ -79.162652582866315, -0.2497274787119 ], [ -79.162771421563889, -0.249643757068733 ], [ -79.162859369467455, -0.249528928037059 ], [ -79.162992481647507, -0.249342328553275 ], [ -79.163089939264751, -0.249205967607873 ], [ -79.16331340023963, -0.248722707343664 ], [ -79.163401374873359, -0.248414082847229 ], [ -79.163470354258848, -0.247985828856992 ], [ -79.163491796352574, -0.24759584838377 ], [ -79.16345860734414, -0.24700010240175 ], [ -79.163456259226848, -0.246791951503936 ], [ -79.163415989718132, -0.245825361654546 ], [ -79.163411267965301, -0.24560046347772 ], [ -79.163311976762429, -0.243933151930711 ], [ -79.163188673179917, -0.241889910654097 ], [ -79.163070095533413, -0.240028502241973 ], [ -79.163013090629306, -0.239789240975726 ], [ -79.16288002866294, -0.239607391065239 ], [ -79.162880048421044, -0.239459053946857 ], [ -79.162918093682492, -0.239301151236466 ], [ -79.163027423754713, -0.23923417545463 ], [ -79.163236558459445, -0.239234203647929 ], [ -79.163436177428181, -0.239315576277404 ], [ -79.163607279012012, -0.239382590798507 ], [ -79.163920983804772, -0.23937306237464 ], [ -79.164942906815796, -0.23929663879216 ], [ -79.167799546667752, -0.239033844056177 ], [ -79.167999184312336, -0.238971664633053 ], [ -79.168060993051114, -0.23883290612856 ], [ -79.16811329058504, -0.238727641245016 ], [ -79.168156086048356, -0.238593664643403 ], [ -79.16812283343009, -0.238454892470136 ], [ -79.167676135530101, -0.237751426170219 ], [ -79.167419533895554, -0.237253742990461 ], [ -79.167257994972971, -0.236751288135905 ], [ -79.167205739678394, -0.23653595301355 ], [ -79.167196275235398, -0.236220136207889 ], [ -79.167224918861535, -0.235263124420153 ], [ -79.167234506420101, -0.234636279951587 ], [ -79.167210773702578, -0.23438745285876 ], [ -79.167130000639617, -0.234157757941042 ], [ -79.167077741945192, -0.233966347957508 ], [ -79.167020731719006, -0.233760582150707 ], [ -79.167049273133159, -0.233583538012211 ], [ -79.167172869573122, -0.233454357347299 ], [ -79.167334483176333, -0.233387386967093 ], [ -79.16753411272262, -0.23339219853247 ], [ -79.167686201015911, -0.233468779934213 ], [ -79.167814512726125, -0.233641059365372 ], [ -79.167895294923838, -0.233794192888129 ], [ -79.168213715835407, -0.234076554641122 ], [ -79.16949217411306, -0.235024169709157 ], [ -79.171150868750715, -0.236062753203254 ], [ -79.171729503748949, -0.23648391738984 ], [ -79.172059224535104, -0.236678356073945 ], [ -79.172466173304443, -0.236950562173662 ], [ -79.172828566036301, -0.237186873867778 ], [ -79.173107791597602, -0.237333454893785 ], [ -79.173268198555377, -0.237411234263579 ], [ -79.173544459252099, -0.237515944613628 ], [ -79.173832601795027, -0.23762663830919 ], [ -79.17439404606499, -0.237749330999027 ], [ -79.174798055124555, -0.237791255160056 ], [ -79.175184243856052, -0.237803269152303 ], [ -79.175421901825246, -0.237785356465387 ], [ -79.176036845087026, -0.237707680142649 ], [ -79.176776563807223, -0.237594132555101 ], [ -79.17713008445547, -0.237531375244924 ], [ -79.178285707703026, -0.237364049590907 ], [ -79.178968982138869, -0.23726245672021 ], [ -79.17909672355519, -0.237253501471311 ], [ -79.180451344006684, -0.237400225440746 ], [ -79.181289044149437, -0.237690433337062 ], [ -79.183439702048275, -0.238704567197554 ], [ -79.185664624917891, -0.239754600098968 ], [ -79.186199318238877, -0.240020844747818 ], [ -79.187179592412761, -0.24048154477523 ], [ -79.188014312839158, -0.240864467065836 ], [ -79.188979737140187, -0.241307221436648 ], [ -79.189181733786114, -0.241396969912176 ], [ -79.190239287952124, -0.241558610114468 ], [ -79.191888010163439, -0.241771171808913 ], [ -79.192669295553031, -0.241878942625596 ], [ -79.1936466471317, -0.242010665186227 ], [ -79.194974539583214, -0.242175333408105 ], [ -79.196115276112906, -0.242345957550378 ], [ -79.196551952094879, -0.242507515098473 ], [ -79.19709555649176, -0.242806660654697 ], [ -79.197440123484057, -0.243087835071094 ], [ -79.198702478575214, -0.244640191508164 ], [ -79.198919306437602, -0.244909386459373 ], [ -79.199976707066639, -0.246261339411747 ], [ -79.200921226233078, -0.24756542652695 ], [ -79.201616253268725, -0.24849862987056 ], [ -79.202106371712162, -0.248893474381684 ], [ -79.202352931642793, -0.248980238907676 ], [ -79.202522252523664, -0.249064003285254 ], [ -79.202626204960055, -0.249234489391441 ], [ -79.202673715931525, -0.249390013625241 ], [ -79.202685576805408, -0.249551514794747 ], [ -79.202917213931968, -0.250143712015837 ], [ -79.202982553960396, -0.250266340932191 ], [ -79.203846882433652, -0.251423875454066 ], [ -79.204048846951238, -0.25175886552094 ], [ -79.204280489383692, -0.252309193289908 ], [ -79.204354733461571, -0.252491638372903 ], [ -79.204455675400439, -0.252952225952273 ], [ -79.20452988024573, -0.253412809849864 ], [ -79.204523875803687, -0.253873382568767 ], [ -79.204523860120176, -0.253987031174286 ], [ -79.204428727263604, -0.254483479716011 ], [ -79.204363328739376, -0.254791516682738 ], [ -79.203757069312019, -0.256427363880095 ], [ -79.202960626752258, -0.258448988107365 ], [ -79.202601040067393, -0.259349147039202 ], [ -79.202565370506917, -0.259492697775568 ], [ -79.202488075233092, -0.259893445048457 ], [ -79.202470223931613, -0.260081857990491 ], [ -79.202473110093194, -0.260677014970341 ], [ -79.202496751631045, -0.261550312500012 ], [ -79.202517381266574, -0.262710720376748 ], [ -79.202537950054506, -0.264295812130534 ], [ -79.202537915204914, -0.264538061408464 ], [ -79.202525981106746, -0.264887975597675 ], [ -79.202487310025745, -0.265249848631355 ], [ -79.202374366276388, -0.265629655361234 ], [ -79.202300065206913, -0.265856939601603 ], [ -79.202023691307431, -0.266508878811817 ], [ -79.201450141622246, -0.267854624532973 ], [ -79.201271836275353, -0.26827629128124 ], [ -79.201037066699243, -0.268826551169381 ], [ -79.200837959859157, -0.269284102874398 ], [ -79.199888777846979, -0.271503681236004 ], [ -79.199598732367093, -0.272187916634335 ], [ -79.199584444434564, -0.272379321046608 ], [ -79.1995178702239, -0.272575503041941 ], [ -79.199475056073624, -0.272814755007827 ], [ -79.199494043460859, -0.272987023493125 ], [ -79.199622330813369, -0.273312434084942 ], [ -79.200667840942756, -0.2745950175712 ], [ -79.201342680764327, -0.275351176797929 ], [ -79.201428228733107, -0.275413396289273 ], [ -79.201366416421592, -0.275556942635121 ], [ -79.200891069685198, -0.275738706127377 ], [ -79.200525061898659, -0.275819998726227 ], [ -79.199873863219139, -0.275896462374327 ], [ -79.198913701885886, -0.276011159760938 ], [ -79.198029587802466, -0.276154579469654 ], [ -79.197112182850645, -0.276422408384932 ], [ -79.196256535805489, -0.276915148953846 ], [ -79.195367592724168, -0.277570579120928 ], [ -79.19438833039321, -0.278278630924001 ], [ -79.193304486794347, -0.279068013685136 ], [ -79.19137448197354, -0.28048890272062 ], [ -79.190613890918868, -0.281039075789011 ], [ -79.18904517115017, -0.28217290822597 ], [ -79.188317867391575, -0.282622597290164 ], [ -79.187704673681424, -0.282856972378954 ], [ -79.187181814770824, -0.282933452421609 ], [ -79.186383284173729, -0.282933326749666 ], [ -79.185736879687056, -0.282775316030058 ], [ -79.184914628910292, -0.282488078641149 ], [ -79.181611394407113, -0.281176435803912 ], [ -79.17408291923752, -0.27802187315482 ], [ -79.173293955294554, -0.277672438650527 ], [ -79.172590528363315, -0.277442644211473 ], [ -79.171445083477153, -0.277078799506134 ], [ -79.168132332657237, -0.275992070259076 ], [ -79.159933653059142, -0.273330302003891 ], [ -79.158964070676504, -0.273028694349546 ], [ -79.158156091946438, -0.272736680736264 ] ] } }
]
}
