{
"type": "FeatureCollection",
"name": "LINEA13_IDA",
"crs": { "type": "name", "properties": { "name": "urn:ogc:def:crs:OGC:1.3:CRS84" } },
"features": [
{ "type": "Feature", "properties": { "OBJECTID": 1, "SHAPE_Leng": 9817.0147046099992 }, "geometry": { "type": "LineString", "coordinates": [ [ -79.197515398743434, -0.237181204941205 ], [ -79.197268211951737, -0.23786571641889 ], [ -79.19679285252279, -0.238226986155886 ], [ -79.196184391904211, -0.238512199931877 ], [ -79.195509382027609, -0.238626285160895 ], [ -79.194387533841322, -0.238483678622213 ], [ -79.192210386922611, -0.238198465548469 ], [ -79.191754042360202, -0.238759384756544 ], [ -79.191183610924114, -0.239776644751639 ], [ -79.190727265273097, -0.240261507167118 ], [ -79.188920899780442, -0.241392853029519 ], [ -79.185755005911531, -0.243018567070354 ], [ -79.18589761323345, -0.245110130361921 ], [ -79.183787017197929, -0.245100623223917 ], [ -79.183882089750981, -0.249445368372025 ], [ -79.183083485570805, -0.249359804440769 ], [ -79.183169050141586, -0.250690798162974 ], [ -79.180316893792039, -0.250633755747328 ], [ -79.179870055941123, -0.25062424810475 ], [ -79.177654880265266, -0.251879184806719 ], [ -79.177883053305194, -0.254065817538069 ], [ -79.177940095975842, -0.254636243204868 ], [ -79.177797488255152, -0.25506406227054 ], [ -79.177550301804175, -0.25552990989229 ], [ -79.176704161710873, -0.256043293205683 ], [ -79.176171759063664, -0.255720051722156 ], [ -79.175553792180665, -0.255558430921832 ], [ -79.174260813943633, -0.25561547347413 ], [ -79.170362866713589, -0.255862658619028 ], [ -79.169202989792936, -0.255805615455754 ], [ -79.168927281059297, -0.255948222013133 ], [ -79.16865157235101, -0.256090828520339 ], [ -79.168242763041746, -0.255995757588104 ], [ -79.167881489958404, -0.255758079989348 ], [ -79.167577259783585, -0.255758080562436 ], [ -79.167339580196469, -0.255729559318628 ], [ -79.167101900648959, -0.255643995221278 ], [ -79.166797670626181, -0.255434839292477 ], [ -79.166598019940423, -0.254892934370179 ], [ -79.166417383206948, -0.254550679495663 ], [ -79.166046602728002, -0.254332015899062 ], [ -79.165923009476955, -0.254408073089488 ], [ -79.165409620918339, -0.256328506016331 ], [ -79.164348381306269, -0.255995757419429 ], [ -79.162678681438294, -0.256283941219293 ], [ -79.161101082118762, -0.256594902387135 ], [ -79.159675003494044, -0.256226502337586 ], [ -79.157844869456042, -0.255822450803461 ], [ -79.156739658425522, -0.255976941119455 ], [ -79.155218508635542, -0.256309689857274 ], [ -79.153317070896463, -0.256915766922311 ], [ -79.152901130821405, -0.257070257622654 ], [ -79.152746639181331, -0.255715496786483 ], [ -79.152678900400758, -0.254922842589593 ], [ -79.152609973187595, -0.254077899574167 ], [ -79.1521726430435, -0.254134941363527 ], [ -79.152087078305755, -0.25323652115131 ], [ -79.152082324728198, -0.25313669676789 ], [ -79.152709799348159, -0.253117682540844 ], [ -79.152847653716393, -0.254843220834929 ], [ -79.153099296589176, -0.257019809899184 ], [ -79.15229118545227, -0.257376325976718 ], [ -79.151714812219936, -0.257673422432281 ], [ -79.150645253942272, -0.257982403483768 ], [ -79.147846574789781, -0.258243848719167 ], [ -79.1443823925582, -0.258564712555576 ], [ -79.143835729611396, -0.258838042102663 ], [ -79.142231391030776, -0.259782809034254 ], [ -79.141702553397408, -0.259871937916494 ], [ -79.1401992298035, -0.259961066906217 ], [ -79.13967633377429, -0.260109614769494 ], [ -79.138838512714827, -0.26057308614271 ], [ -79.136907365652888, -0.261702052842535 ] ] } }
]
}
