{
"type": "FeatureCollection",
"name": "RUTA_23A_REGRESO",
"crs": { "type": "name", "properties": { "name": "urn:ogc:def:crs:OGC:1.3:CRS84" } },
"features": [
{ "type": "Feature", "properties": { "OBJECTID": 1, "SHAPE_Leng": 7582.9644410199999, "Nombre_de": "Ejucutrans L23A", "Punto_Part": "Av Tsachila y Calle Guayaquil", "Punto_Lleg": "Juan Eulogio Calle C", "Sentido": "Retrono", "Longitud": 7.58296 }, "geometry": { "type": "LineString", "coordinates": [ [ -79.168445760313446, -0.252059536422347 ], [ -79.169557989727252, -0.252030983434533 ], [ -79.170575161381549, -0.251973706395782 ], [ -79.171430720500581, -0.251964257492085 ], [ -79.17187750734189, -0.252002600994661 ], [ -79.172305278939248, -0.252060082451139 ], [ -79.173151344560807, -0.251974070442862 ], [ -79.173607653736241, -0.251897573170792 ], [ -79.173940395093325, -0.251725356947126 ], [ -79.174558356789319, -0.251313925728824 ], [ -79.175043227366046, -0.25093118514547 ], [ -79.175556609976113, -0.250596300466876 ], [ -79.175062452996514, -0.24939038540996 ], [ -79.174625314287155, -0.248318462655618 ], [ -79.174273698638174, -0.247476235634341 ], [ -79.173969603162462, -0.246720147996499 ], [ -79.17356096240367, -0.245791783055482 ], [ -79.173332880357805, -0.245294102015948 ], [ -79.172848158207273, -0.244595411393237 ], [ -79.172353923622083, -0.243944570974026 ], [ -79.171707620328206, -0.243064025286199 ], [ -79.171099332365557, -0.242250477104007 ], [ -79.170576575214312, -0.241628344515592 ], [ -79.169825720038943, -0.240623374615165 ], [ -79.169217424208142, -0.239867248945935 ], [ -79.168913281171868, -0.239455690017037 ], [ -79.168666136142576, -0.239331245141747 ], [ -79.168257376792255, -0.239283339141695 ], [ -79.168038762657787, -0.239072765948067 ], [ -79.168086328006567, -0.238814378411816 ], [ -79.168247952082396, -0.238670847003357 ], [ -79.168580683327065, -0.238556049846959 ], [ -79.168922992132323, -0.237905324319327 ], [ -79.169198770800776, -0.237149317699899 ], [ -79.16966467123666, -0.236412476686343 ], [ -79.170083029394078, -0.235752189627877 ], [ -79.170311213385759, -0.235484254813565 ], [ -79.170986095504546, -0.235924572917347 ], [ -79.171499387478917, -0.236250027027749 ], [ -79.171632459273837, -0.236364886636245 ], [ -79.171879597419021, -0.236539575076081 ], [ -79.171998410896293, -0.236647255662005 ], [ -79.172169508397431, -0.236752550509748 ], [ -79.172454669735615, -0.236943992043242 ], [ -79.172635274054954, -0.237049288203995 ], [ -79.172820628373316, -0.237173724754061 ], [ -79.173091536157997, -0.237322098739415 ], [ -79.17330541222239, -0.237422614006273 ], [ -79.173585832245905, -0.237523139054161 ], [ -79.173899523029561, -0.237633237527788 ], [ -79.174070627597317, -0.237685896884032 ], [ -79.174327290092563, -0.237728996858696 ], [ -79.174607717189105, -0.237776885396805 ], [ -79.174788335536888, -0.237776909445029 ], [ -79.174930926623844, -0.237791283701762 ], [ -79.175249385232021, -0.237786540702657 ], [ -79.175577352582422, -0.237767443681384 ], [ -79.175781737492613, -0.237757900992924 ], [ -79.175990880223722, -0.237714862973185 ], [ -79.176290332856226, -0.237667051552706 ], [ -79.176779912856958, -0.237590554803288 ], [ -79.177150663442276, -0.237533182901929 ], [ -79.177687777178861, -0.237447122462778 ], [ -79.178101306534373, -0.237384970752887 ], [ -79.178519590367742, -0.237308464330174 ], [ -79.178942623592178, -0.237270239905914 ], [ -79.17936089697443, -0.2372750798422 ], [ -79.179959784939385, -0.237313440635022 ], [ -79.18025922757036, -0.237346976347148 ], [ -79.180439842104491, -0.237380495415035 ], [ -79.180648970337458, -0.237452300623889 ], [ -79.180967416186803, -0.237552830075466 ], [ -79.181257342143269, -0.237662925688386 ], [ -79.181504502888231, -0.237682099196193 ], [ -79.181856243544928, -0.237610369186152 ], [ -79.182070156365171, -0.23743813356716 ], [ -79.182174741516008, -0.237313733940507 ], [ -79.182132009654751, -0.236959629515982 ], [ -79.182075018997111, -0.236600737814927 ], [ -79.182013281698133, -0.236189209601795 ], [ -79.181932548922617, -0.23564369554182 ], [ -79.181809069781337, -0.234858918942202 ], [ -79.181714090855536, -0.234208130434998 ], [ -79.181595372256183, -0.233356364326777 ], [ -79.181486146019992, -0.232614656758476 ], [ -79.18135316370973, -0.231791598761694 ], [ -79.181243942670108, -0.230997255499402 ], [ -79.181144205073295, -0.23038474734399 ], [ -79.181186993409028, -0.230303406311826 ], [ -79.181339113048679, -0.230150301790502 ], [ -79.181719400341379, -0.229853673236384 ], [ -79.182009372112745, -0.229604884385864 ], [ -79.182403922091936, -0.229289116664658 ], [ -79.18295534093032, -0.228839386266008 ], [ -79.183502006070839, -0.228399223986689 ], [ -79.183925080522798, -0.228030823354611 ], [ -79.184324382488143, -0.227719840916808 ], [ -79.184961369857632, -0.227179202765351 ], [ -79.185550817963787, -0.22670076415574 ], [ -79.185969135460809, -0.22636107276665 ], [ -79.186316145108606, -0.226117074370042 ], [ -79.186634620881051, -0.22598791612802 ], [ -79.186900803104805, -0.225935312631227 ], [ -79.187708846466705, -0.225854067324494 ], [ -79.188288735151417, -0.225811073985527 ], [ -79.188863871179223, -0.225763294569561 ], [ -79.189381968598212, -0.225725078811452 ], [ -79.189980870342197, -0.225677302273475 ], [ -79.190327853395274, -0.225653419485667 ], [ -79.190812678373348, -0.225619984880975 ], [ -79.191368801741007, -0.225576988293233 ], [ -79.192338452372411, -0.225510117091376 ], [ -79.192851798505444, -0.225462329587316 ], [ -79.193579037759164, -0.225409784219835 ], [ -79.194268253297636, -0.225342877694315 ], [ -79.194838635379611, -0.225314238017266 ], [ -79.195432786928563, -0.2252616758365 ], [ -79.196411946873241, -0.225185235231224 ], [ -79.196996591153678, -0.225147027163509 ], [ -79.197353082986766, -0.2251040051954 ], [ -79.197681053916128, -0.22508490510983 ], [ -79.19761933595133, -0.22448675197377 ], [ -79.197562368329727, -0.223912525825948 ], [ -79.197486441790346, -0.222893277402467 ], [ -79.197448485438372, -0.222328623683428 ], [ -79.197405788198083, -0.221658695781972 ], [ -79.197329861586383, -0.220629876633195 ] ] } }
]
}
