{
"type": "FeatureCollection",
"name": "Ruta16B_Ida",
"crs": { "type": "name", "properties": { "name": "urn:ogc:def:crs:OGC:1.3:CRS84" } },
"features": [
{ "type": "Feature", "properties": { "OBJECTID": 1, "SHAPE_Leng": 10725.4497219, "Longitud": "10.725", "Punto_Lleg": "Maya Moncayo", "Sentido": "Ida", "Punto_Part": "Calle_Humberto Fiallos", "Nombre_Ope": "Ejecutrans" }, "geometry": { "type": "LineString", "coordinates": [ [ -79.122151859279853, -0.270251555135569 ], [ -79.121131444116031, -0.268995593761643 ], [ -79.119317275765965, -0.267397020129348 ], [ -79.118155061563371, -0.26645499076332 ], [ -79.117276423209518, -0.265027811017807 ], [ -79.116737921356759, -0.264028797423801 ], [ -79.116341293598751, -0.262202120755459 ], [ -79.116341344767349, -0.261859630289206 ], [ -79.119715262431939, -0.260176224312485 ], [ -79.121416462423795, -0.258892136239606 ], [ -79.123230963571757, -0.258293045895469 ], [ -79.12442169431651, -0.258150517961579 ], [ -79.124932078397606, -0.257608314413599 ], [ -79.12552752958446, -0.256951958703451 ], [ -79.128816418704332, -0.255182897246327 ], [ -79.129581964074333, -0.254583646232648 ], [ -79.131764972003722, -0.254355636231496 ], [ -79.13315419731444, -0.253956262437131 ], [ -79.136499780755287, -0.252301358011954 ], [ -79.139590198577153, -0.250760575204462 ], [ -79.140724266061753, -0.250418242184984 ], [ -79.141631601779594, -0.249562132671262 ], [ -79.142680754588653, -0.248249382032168 ], [ -79.143928309073488, -0.247307694484274 ], [ -79.145345942899553, -0.246537276957332 ], [ -79.152490206394262, -0.247194731204631 ], [ -79.157791612767753, -0.24847984283307 ], [ -79.162072420191393, -0.249650650457431 ], [ -79.162554376231483, -0.24970780078743 ], [ -79.162951252359562, -0.249964731562593 ], [ -79.163036245093124, -0.25039286872156 ], [ -79.167033219868756, -0.253961145179688 ], [ -79.170492043402149, -0.253904554988776 ], [ -79.173100410802476, -0.253362632238451 ], [ -79.174914928296047, -0.252991845521244 ], [ -79.175510272406996, -0.25319172274719 ], [ -79.176105612719539, -0.253420142448868 ], [ -79.176275767379778, -0.253077664423442 ], [ -79.176105831661374, -0.251850340122124 ], [ -79.175198899028587, -0.24968103299745 ], [ -79.173356671948667, -0.245370962672721 ], [ -79.171514204556672, -0.242801949445005 ], [ -79.16913311882881, -0.23986182555477 ], [ -79.169048103332969, -0.239576396943725 ], [ -79.169218235777521, -0.23937662762666 ], [ -79.169785234929847, -0.239519412481359 ], [ -79.171713137206382, -0.239234253121938 ], [ -79.171741386497558, -0.240004885487525 ] ] } }
]
}
