{
"type": "FeatureCollection",
"name": "Ruta24A",
"crs": { "type": "name", "properties": { "name": "urn:ogc:def:crs:OGC:1.3:CRS84" } },
"features": [
{ "type": "Feature", "properties": { "OBJECTID": 1, "SHAPE_Leng": 9279.4610472599998, "Longitud": 9.27946, "Nombre_Ope": "Ejecutrans", "Punto_Part": "Av. Abraham Calazacón", "Punto_Lleg": "Av. Tsafiqui", "Sentido": "Ida" }, "geometry": { "type": "LineString", "coordinates": [ [ -79.163487424205087, -0.247024662587722 ], [ -79.163059600798334, -0.239799263783537 ], [ -79.162881341031479, -0.239525934321607 ], [ -79.162976412676528, -0.239216953216283 ], [ -79.163261627781239, -0.239193186028955 ], [ -79.163558727504352, -0.239430863778421 ], [ -79.167813195375643, -0.239038695466189 ], [ -79.169393764934668, -0.239466515407876 ], [ -79.1717824463055, -0.239216953835719 ], [ -79.175407062517806, -0.239038695423774 ], [ -79.179293126268078, -0.238907972486921 ], [ -79.182382962413769, -0.240238967830922 ], [ -79.183428752932102, -0.240916349029568 ], [ -79.183761505094282, -0.241938362170577 ], [ -79.183809040345224, -0.24651365600562 ], [ -79.183868460417102, -0.250586259647217 ], [ -79.184068111272424, -0.253267261244919 ], [ -79.181258737356416, -0.258358309504423 ], [ -79.178235450678628, -0.263520660232954 ], [ -79.178278233635638, -0.26377735104718 ], [ -79.178121364901486, -0.263991261203758 ], [ -79.177764845308644, -0.263848654859555 ], [ -79.177522411889683, -0.263677526606765 ], [ -79.175098078374504, -0.262850410083551 ], [ -79.17284487486117, -0.262080336376722 ], [ -79.171946445836909, -0.261623995912731 ], [ -79.170791321609002, -0.260953745503141 ], [ -79.167183343387663, -0.260069586757078 ], [ -79.163218846295919, -0.259071341860717 ], [ -79.162063722774548, -0.258814650153503 ], [ -79.161108249947944, -0.258287006658724 ], [ -79.161179553544301, -0.255905479849629 ], [ -79.161350682783976, -0.253224479071115 ], [ -79.161621637938438, -0.251698590335239 ], [ -79.161864071805368, -0.250957036333689 ], [ -79.162320416772729, -0.250358089218397 ], [ -79.162320416458471, -0.249973051421112 ], [ -79.162548589251827, -0.249744881080793 ], [ -79.16283380499614, -0.249530971693372 ], [ -79.163318671247538, -0.248675332825195 ], [ -79.163461279547192, -0.247933779095132 ], [ -79.163475540367884, -0.24702109723194 ] ] } }
]
}
