{
"type": "FeatureCollection",
"name": "RUTA_16A_IDA",
"crs": { "type": "name", "properties": { "name": "urn:ogc:def:crs:OGC:1.3:CRS84" } },
"features": [
{ "type": "Feature", "properties": { "OBJECTID": 1, "NOMBRE_RUT": "CIA_EJECUTRANS", "P_PARTIDA": "CHIGUILPE_TERMINAL_TERRESTRE", "P_LLEGADA": "TERMINAL_TERRESTRE_CHIGUILPE", "LONGITUD": 11.7768, "SENTIDO": "IDA" }, "geometry": { "type": "LineString", "coordinates": [ [ -79.103376784493264, -0.273165353201705 ], [ -79.103528885981319, -0.273117529020232 ], [ -79.103652466818829, -0.273084054081868 ], [ -79.10374277557888, -0.27306492854171 ], [ -79.103814071616611, -0.273050585177071 ], [ -79.103866356577953, -0.273036238791398 ], [ -79.103918640642462, -0.27302189240448 ], [ -79.103970930104552, -0.272978836634919 ], [ -79.103970942097064, -0.272902277982311 ], [ -79.104142052458798, -0.272868810558471 ], [ -79.104645875247044, -0.272792331821745 ], [ -79.105282784059298, -0.27269194991415 ], [ -79.105734323643048, -0.272620247947357 ], [ -79.106361730116248, -0.272495939228677 ], [ -79.106608891708561, -0.272443344704964 ], [ -79.106722970171944, -0.272390729106749 ], [ -79.10709848011922, -0.272208961488078 ], [ -79.10738844127917, -0.272008040339052 ], [ -79.107773468941105, -0.271754501337047 ], [ -79.108367647609356, -0.271357446076503 ], [ -79.10881446971365, -0.271065636585825 ], [ -79.109323085332164, -0.270735556733726 ], [ -79.110164444672094, -0.270166283420918 ], [ -79.110425891929992, -0.269936647543813 ], [ -79.110520971198554, -0.269807469708425 ], [ -79.110639821486629, -0.269635230428878 ], [ -79.110715889430153, -0.269501265276492 ], [ -79.11083475001152, -0.269262037431148 ], [ -79.1109203301327, -0.269085008577602 ], [ -79.11099642525717, -0.268774000261174 ], [ -79.111029737114066, -0.268501264293094 ], [ -79.111053543516491, -0.268233312054979 ], [ -79.111015583215931, -0.26781701749967 ], [ -79.110782934500918, -0.266209246889929 ], [ -79.110768726651116, -0.265874299372036 ], [ -79.110778249850412, -0.265764248072225 ], [ -79.110797289345243, -0.265577638373369 ], [ -79.110840093370825, -0.265395817543137 ], [ -79.110868626957611, -0.26529055437648 ], [ -79.11090191377339, -0.265185291032523 ], [ -79.110958965688269, -0.265075246117235 ], [ -79.111035031090523, -0.264955634581769 ], [ -79.11110634397528, -0.26483123799179 ], [ -79.111182405743492, -0.264735550718222 ], [ -79.111229946269376, -0.264663784251545 ], [ -79.111361272209308, -0.26448975244556 ], [ -79.111570426628774, -0.264327096974043 ], [ -79.11265418742714, -0.26374350098733 ], [ -79.113823502122798, -0.263150347652949 ], [ -79.115154435868135, -0.2624423796665 ], [ -79.116124113417627, -0.261944893367344 ], [ -79.11705576655531, -0.26145697025745 ], [ -79.117835303528054, -0.261112571699435 ], [ -79.118614839320401, -0.260777743260606 ], [ -79.119147209940763, -0.260519435755604 ], [ -79.119384891019237, -0.26029936394592 ], [ -79.119746148703456, -0.260079310610782 ], [ -79.119926785794007, -0.259916649400255 ], [ -79.12024051311306, -0.259706158365908 ], [ -79.120411640864106, -0.259562635712063 ], [ -79.120839453384818, -0.25925646211943 ], [ -79.121020086256564, -0.259122510370474 ], [ -79.12148591517871, -0.258864192873839 ], [ -79.122398535260587, -0.258529381405649 ], [ -79.123225595283159, -0.258242407510891 ], [ -79.12403360837915, -0.258194677795074 ], [ -79.124309294941455, -0.258099019084736 ], [ -79.124499425264887, -0.258022487755257 ], [ -79.124775154791109, -0.257639731702743 ], [ -79.125098417571195, -0.257228272822195 ], [ -79.125269548303336, -0.257065609330664 ], [ -79.125583277483216, -0.256845547387328 ], [ -79.125906502576285, -0.256692475866682 ], [ -79.126229727708449, -0.256539404280878 ], [ -79.126781109625156, -0.256290667343261 ], [ -79.127437066696814, -0.255984526060894 ], [ -79.128026477462925, -0.255707084525213 ], [ -79.128872611586033, -0.254999031666012 ], [ -79.129347957925376, -0.254673722853273 ], [ -79.129737728553394, -0.25450152094946 ], [ -79.130232047769738, -0.254444173483745 ], [ -79.130564763443971, -0.254405941670883 ], [ -79.131306238524616, -0.254348630159361 ], [ -79.131867104741772, -0.254262582390906 ], [ -79.132304391401064, -0.25418608619517 ], [ -79.132789216145909, -0.254061747700709 ], [ -79.133074413522053, -0.253937379182817 ], [ -79.133549746952468, -0.253707769319137 ], [ -79.13398705179884, -0.253506862770997 ], [ -79.13422471995348, -0.253382488061603 ], [ -79.135878878698591, -0.252597987864073 ], [ -79.137095744371692, -0.251928264580386 ], [ -79.138246057894264, -0.251335089964725 ], [ -79.13928228074775, -0.250875878287387 ], [ -79.139966752772011, -0.250608015885851 ], [ -79.140632206805407, -0.25038800080734 ], [ -79.141021990034417, -0.250139235300809 ], [ -79.141516383368526, -0.249574674531068 ], [ -79.141991773200488, -0.248952690702785 ], [ -79.142486170354786, -0.248359419229404 ], [ -79.142704838781455, -0.248148910302905 ], [ -79.142933012502553, -0.24794797146632 ], [ -79.143113642421469, -0.247842726567705 ], [ -79.143522437198868, -0.247593963654105 ], [ -79.144615725862764, -0.246933785606807 ], [ -79.145300212312534, -0.246570219751696 ], [ -79.145642440158994, -0.246503277893496 ], [ -79.146973272202501, -0.246627874551033 ], [ -79.149501855888772, -0.246877050282556 ], [ -79.150100729949372, -0.246944125140358 ], [ -79.153199677717708, -0.247241231684692 ], [ -79.153808053557199, -0.247346587941078 ], [ -79.15612865116438, -0.247953417827731 ], [ -79.158310214730747, -0.248628416056222 ], [ -79.161361572989335, -0.249447090463122 ], [ -79.162331149815913, -0.249820462208527 ], [ -79.162587823583664, -0.249763077660755 ], [ -79.16274466893563, -0.24980616526553 ], [ -79.162887234040099, -0.250007157800702 ], [ -79.162958490177758, -0.250294272275133 ], [ -79.16465513899557, -0.251744388410805 ], [ -79.166950587086419, -0.25384057856248 ], [ -79.167091976259442, -0.253947066927084 ], [ -79.167995062034421, -0.253965140095437 ], [ -79.169153627585303, -0.253977267944259 ], [ -79.169646766330388, -0.253947431474238 ], [ -79.170734050842611, -0.253857865995267 ], [ -79.171542101148077, -0.253696484341852 ], [ -79.173300805038693, -0.253313926958277 ], [ -79.174270469715424, -0.25309873464822 ], [ -79.175059500888068, -0.252993574163199 ], [ -79.175439735214795, -0.253098900345986 ], [ -79.175800929684016, -0.253405197784322 ], [ -79.176029065448446, -0.253500932615637 ], [ -79.176181177553332, -0.253414822492791 ], [ -79.176171730496421, -0.25299373164717 ], [ -79.176086321283677, -0.251940996745304 ], [ -79.175506649213034, -0.250438392639132 ], [ -79.173661870046729, -0.245941339456031 ], [ -79.173162923747086, -0.244984251021114 ], [ -79.172212472897399, -0.243728033744679 ], [ -79.170596707068924, -0.24157452256197 ], [ -79.169372987242127, -0.240055092355751 ], [ -79.169078342718151, -0.239705740922338 ], [ -79.169064114969629, -0.239461700164094 ], [ -79.169377828976081, -0.239389966212599 ], [ -79.170133573355969, -0.239375712557771 ], [ -79.171103214682816, -0.2393040657017 ], [ -79.173028237697054, -0.239175126703438 ] ] } }
]
}
