{
"type": "FeatureCollection",
"name": "RUTA_23A_IDA",
"crs": { "type": "name", "properties": { "name": "urn:ogc:def:crs:OGC:1.3:CRS84" } },
"features": [
{ "type": "Feature", "properties": { "OBJECTID": 2, "SHAPE_Leng": 1722.22107347, "Nombre_de": "Ejecutrans L23A", "Punto_Part": "Juna Eulogio Calle C", "Punto_Lleg": "Av Tsachila y Guayaquil", "Sentido": "Ida", "Longitud": 1.72222 }, "geometry": { "type": "LineString", "coordinates": [ [ -79.197377395143135, -0.220615526979764 ], [ -79.19749129166901, -0.222098940781204 ], [ -79.197576669264564, -0.223572781238747 ], [ -79.197671618324108, -0.224510684824574 ], [ -79.197747590462356, -0.225151905215575 ], [ -79.197205724048402, -0.225199689559408 ], [ -79.196074460161825, -0.225285681276403 ], [ -79.194971717931594, -0.225362106368825 ], [ -79.193859468009762, -0.225457670964012 ], [ -79.192623636457341, -0.225553218997062 ], [ -79.191283237562104, -0.225639183733297 ], [ -79.190009380869299, -0.225744297384305 ], [ -79.18888762706392, -0.22583985990551 ], [ -79.187870449015904, -0.225887583796754 ], [ -79.186834251318302, -0.226002296591981 ] ] } },
{ "type": "Feature", "properties": { "OBJECTID": 3, "SHAPE_Leng": 4492.2854125000003, "Nombre_de": null, "Punto_Part": null, "Punto_Lleg": null, "Sentido": null, "Longitud": 4.49229 }, "geometry": { "type": "LineString", "coordinates": [ [ -79.186834251318302, -0.226002296591981 ], [ -79.186472999447759, -0.226107524160249 ], [ -79.186168777717455, -0.226279750250903 ], [ -79.185626862286796, -0.226748625250122 ], [ -79.184923328748098, -0.227303610716303 ], [ -79.184238806545068, -0.227877738891255 ], [ -79.183326112121634, -0.228624102540459 ], [ -79.182042635149827, -0.229676665297728 ], [ -79.181272550058623, -0.230298631896093 ], [ -79.181205998274038, -0.230365615458439 ], [ -79.181386465101369, -0.231561917864864 ], [ -79.181699903587472, -0.233648269897997 ], [ -79.181899361357083, -0.234997699555474 ], [ -79.182041820919792, -0.236031303822722 ], [ -79.182155794904403, -0.236806508522694 ], [ -79.182231800173227, -0.237151047428899 ], [ -79.182231761437777, -0.237447724885255 ], [ -79.182098623767374, -0.237830516679907 ], [ -79.18199402479334, -0.238060188989714 ], [ -79.181157518568824, -0.23772511915349 ], [ -79.180340021712411, -0.23741876363555 ], [ -79.179284838141271, -0.237342061803832 ], [ -79.178609891594377, -0.237370682917852 ], [ -79.177554679872713, -0.237523666666074 ], [ -79.176575515284014, -0.237695800042376 ], [ -79.175824507239511, -0.237820113200389 ], [ -79.175377712925084, -0.23783919349746 ], [ -79.174930917822621, -0.237858274674576 ], [ -79.174484130377039, -0.23781993474973 ], [ -79.174056362019883, -0.237733746173717 ], [ -79.173552553634806, -0.237580555674195 ], [ -79.173153311608985, -0.237436949932187 ], [ -79.172611498579172, -0.237121061317835 ], [ -79.171813048498748, -0.236585024684647 ], [ -79.170919534167936, -0.236058545753136 ], [ -79.170377727575541, -0.235704377535898 ], [ -79.169531748348788, -0.235158765950439 ], [ -79.168799830039873, -0.234708871056518 ], [ -79.168143961199149, -0.234268557254087 ], [ -79.167801749762674, -0.234182380901744 ], [ -79.167611626311512, -0.234182355875082 ], [ -79.16748802204657, -0.234364172909421 ], [ -79.167373870936288, -0.234957507858227 ], [ -79.167364305149761, -0.235416874295996 ], [ -79.167326241157426, -0.235713544244238 ], [ -79.167307168065236, -0.236182479242629 ], [ -79.16742115531882, -0.236842835977508 ], [ -79.16749717217759, -0.237091670100144 ], [ -79.167782280099416, -0.237675487473907 ], [ -79.168124433359552, -0.238201892696917 ], [ -79.168371540776207, -0.238603872850705 ], [ -79.168571161004337, -0.238680461098239 ], [ -79.168685207123332, -0.238891019360433 ], [ -79.168713696461026, -0.239111137812365 ], [ -79.16859960470471, -0.239245104862148 ], [ -79.168418975538629, -0.239331211906941 ], [ -79.168304891402812, -0.239407758039277 ], [ -79.16833326603161, -0.240489190550063 ], [ -79.168323656642286, -0.241264372038111 ], [ -79.168352031449317, -0.242336234741827 ], [ -79.168361383948451, -0.243475085603103 ] ] } },
{ "type": "Feature", "properties": { "OBJECTID": 4, "SHAPE_Leng": 949.48645718, "Nombre_de": null, "Punto_Part": null, "Punto_Lleg": null, "Sentido": null, "Longitud": 0.949486 }, "geometry": { "type": "LineString", "coordinates": [ [ -79.168361383948451, -0.243475085603103 ], [ -79.168351720098585, -0.24464264430125 ], [ -79.168351561360836, -0.245810205202001 ], [ -79.168408377243637, -0.247427571221038 ], [ -79.168408224621075, -0.248537710368577 ], [ -79.16843657525888, -0.24975312543296 ], [ -79.168436394577753, -0.251054667835247 ], [ -79.168445760313446, -0.252059536422347 ] ] } }
]
}
