{
"type": "FeatureCollection",
"name": "RUTA_17A_RETORNO",
"crs": { "type": "name", "properties": { "name": "urn:ogc:def:crs:OGC:1.3:CRS84" } },
"features": [
{ "type": "Feature", "properties": { "OBJECTID": 1, "SHAPE_Leng": 10360.4888309, "Nombre_de_": "EJECUTRANS L17A", "Punto_de_p": "Av.Italia (UTE)", "Punto_de_l": "Av.Portal del lago", "Sentido": "Retorno", "Longitud": 10.3605 }, "geometry": { "type": "LineString", "coordinates": [ [ -79.136127353765247, -0.253471107209713 ], [ -79.13573518282665, -0.252693901606757 ], [ -79.13678335028645, -0.252137736956572 ], [ -79.137909951896489, -0.251538789184431 ], [ -79.138444731794038, -0.25126070680364 ], [ -79.138979510670637, -0.250996885169834 ], [ -79.139485769040121, -0.2507829757377 ], [ -79.139849418858631, -0.250654629534317 ], [ -79.140234459314613, -0.250540544561572 ], [ -79.14057671835269, -0.250419328817532 ], [ -79.140797760704075, -0.250305243822738 ], [ -79.141025933462501, -0.250162636996836 ], [ -79.14123984464824, -0.249948727829872 ], [ -79.141460886727785, -0.249670644853145 ], [ -79.142437750795665, -0.248422838460817 ], [ -79.142929747629168, -0.247966497337098 ], [ -79.143222094356418, -0.247781108900021 ], [ -79.14382817723309, -0.24917865278325 ], [ -79.144263131240294, -0.248979003773103 ], [ -79.144783649306078, -0.2488007451327 ], [ -79.145575123485841, -0.248593965632543 ], [ -79.146002946388109, -0.248501271329358 ], [ -79.146459292167918, -0.248465619570419 ], [ -79.1470938969656, -0.248487010748198 ], [ -79.147527662624938, -0.248517908919563 ], [ -79.147497952300654, -0.247899947585351 ], [ -79.14744447393231, -0.247186914969994 ], [ -79.147402880694315, -0.246705618428844 ], [ -79.148317947134586, -0.246794747152575 ], [ -79.149571707648718, -0.246931411297904 ], [ -79.150629382827375, -0.247044308580822 ], [ -79.151645463106107, -0.247139379886212 ], [ -79.152709872914215, -0.247210682342414 ], [ -79.153256536085919, -0.247276043640364 ], [ -79.153648707698906, -0.247347346896777 ], [ -79.154213196392448, -0.247495896193703 ], [ -79.154706382120295, -0.247626618048711 ], [ -79.15535405964512, -0.24780487682372 ], [ -79.156275068711139, -0.248060379729447 ], [ -79.156881151292168, -0.24823269643908 ], [ -79.157843754296024, -0.248517908670097 ], [ -79.158729111466442, -0.248749644952974 ], [ -79.160624607813688, -0.249242825212776 ], [ -79.162044743615539, -0.249694412872595 ], [ -79.162276481173734, -0.249771657778803 ], [ -79.162549813542, -0.249783541204066 ], [ -79.162734014792861, -0.249789483730647 ], [ -79.162823144565905, -0.249902379952752 ], [ -79.162835028684398, -0.250033102793761 ], [ -79.162829087294696, -0.250134116274473 ], [ -79.163001404457788, -0.250306431624529 ], [ -79.163821399707061, -0.251055115603199 ], [ -79.165122696319088, -0.252225676947329 ], [ -79.165728779507901, -0.252760451865805 ], [ -79.16628138495544, -0.25324769043942 ], [ -79.16673891862051, -0.253675509131547 ], [ -79.166982540037722, -0.253913186570921 ], [ -79.167261813738293, -0.253984489780435 ], [ -79.16788572328889, -0.253978548311657 ], [ -79.168996875866995, -0.253960722831884 ], [ -79.170173390903926, -0.253936954667232 ], [ -79.170708170162783, -0.253865651664491 ], [ -79.17261554942344, -0.253467541661091 ], [ -79.174095105603158, -0.253164503477459 ], [ -79.174618001008369, -0.253045664434005 ], [ -79.174944811347558, -0.252998128999168 ], [ -79.175212200505058, -0.253021896706634 ], [ -79.175426112346543, -0.25314667729922 ], [ -79.175675675761553, -0.253360586873389 ], [ -79.175883645753345, -0.253473483680855 ], [ -79.175996543594266, -0.253467541460787 ], [ -79.176168861691835, -0.253378413036227 ], [ -79.176341179146888, -0.253390296963194 ], [ -79.17640059905267, -0.253515077452624 ], [ -79.176406541208664, -0.253711161087287 ], [ -79.176477845030405, -0.253954780627054 ], [ -79.176947262522162, -0.254234051576401 ], [ -79.177820735963195, -0.254649986501839 ], [ -79.178337688742189, -0.254840128776068 ], [ -79.178866526118, -0.254947083503457 ], [ -79.180548110710973, -0.254970851157369 ], [ -79.182639692472819, -0.254923316219027 ], [ -79.18472533173788, -0.254917373879847 ], [ -79.186846623097139, -0.254893605743289 ], [ -79.188997625270005, -0.254887664690177 ], [ -79.191695289788484, -0.254857954765008 ], [ -79.193162962540427, -0.254840129059225 ], [ -79.193965130910726, -0.254733173930804 ], [ -79.194975269888374, -0.254495496434951 ], [ -79.196514246287308, -0.254186516364424 ], [ -79.197565979267637, -0.253942896413545 ], [ -79.198071048891165, -0.253699277209133 ], [ -79.198683073391734, -0.253247689981717 ], [ -79.199360460987208, -0.252540599588562 ], [ -79.200216108037679, -0.251572064832578 ], [ -79.201024219383228, -0.25067483242189 ], [ -79.201553056508672, -0.250056870949718 ], [ -79.201737258457854, -0.249783541665306 ], [ -79.201850156068787, -0.24936760617027 ], [ -79.20188580776933, -0.249177463930464 ], [ -79.202046242018739, -0.249005147765492 ], [ -79.202272037791928, -0.248969496675154 ], [ -79.202462181159859, -0.248904134981401 ], [ -79.202658267715293, -0.248809063865284 ], [ -79.202919714534787, -0.248541676953396 ], [ -79.203365364322437, -0.24801878636452 ], [ -79.203793187701592, -0.24744836030543 ], [ -79.204007100045615, -0.247097785990536 ], [ -79.204155649695608, -0.246717501501341 ], [ -79.204286373462693, -0.246218378962494 ], [ -79.204411155633608, -0.245285494936637 ], [ -79.20458347334133, -0.244126816542055 ], [ -79.204726081312842, -0.243740590640927 ], [ -79.204981586819301, -0.243294944818977 ], [ -79.205474772239299, -0.242879009261654 ], [ -79.205896653745, -0.242653216032297 ], [ -79.206395781121799, -0.242469015628816 ], [ -79.206829546382536, -0.242421480057549 ], [ -79.207512875889179, -0.242320466616857 ], [ -79.207388093891126, -0.241227149871563 ], [ -79.207221718096434, -0.239824851550157 ], [ -79.206989979940204, -0.237887778632182 ], [ -79.206789140886741, -0.235966154496277 ] ] } }
]
}
