{
"type": "FeatureCollection",
"name": "Ruta16B_Retorno",
"crs": { "type": "name", "properties": { "name": "urn:ogc:def:crs:OGC:1.3:CRS84" } },
"features": [
{ "type": "Feature", "properties": { "OBJECTID": 1, "SHAPE_Leng": 10561.120049200001, "Punto_Part": "Maya Moncayo", "Punto_Lleg": "Terminal Terrestre", "Nombre_Ope": "Ejecutrans", "Longitud": 10.5611, "Sentido": "Ida" }, "geometry": { "type": "LineString", "coordinates": [ [ -79.171743854886628, -0.240031371816834 ], [ -79.170527054358189, -0.24018825470578 ], [ -79.170963775833769, -0.240722275195256 ], [ -79.170433338901674, -0.241067707645244 ], [ -79.1735839183427, -0.245308418536785 ], [ -79.174020553873817, -0.246470631129554 ], [ -79.175143376813693, -0.249109187952413 ], [ -79.175798347671488, -0.250711166662971 ], [ -79.176297388178796, -0.251810571101728 ], [ -79.176453237787811, -0.25287851867099 ], [ -79.176203522181652, -0.253726541028127 ], [ -79.17626586815814, -0.254103464920421 ], [ -79.175829065033795, -0.254166222425987 ], [ -79.176016170547143, -0.254825849589686 ], [ -79.172240982289708, -0.255107995705258 ], [ -79.171304978393934, -0.255233499782333 ], [ -79.168715446678405, -0.255044672468713 ], [ -79.168122665391593, -0.254981768181728 ], [ -79.16699959595347, -0.254196372294545 ], [ -79.164909521090109, -0.252154464820078 ], [ -79.162632220578402, -0.250332400612636 ], [ -79.162070680330814, -0.249986818890081 ], [ -79.160635597621337, -0.249358430313066 ], [ -79.157734159412726, -0.248667018481255 ], [ -79.153460020925422, -0.247535687398158 ], [ -79.151525715581897, -0.247221324981738 ], [ -79.14784426302927, -0.24690671797629 ], [ -79.145691548019343, -0.246749370340401 ], [ -79.144349915394216, -0.247283134639248 ], [ -79.143164257020757, -0.247973965231366 ], [ -79.142134527507238, -0.249135951381711 ], [ -79.141323212559769, -0.250140923101695 ], [ -79.140511968262615, -0.25064334970535 ], [ -79.139107948328046, -0.251114282568985 ], [ -79.136112633138779, -0.252652886955059 ], [ -79.133678946268233, -0.253877478370859 ], [ -79.132243722254771, -0.254411218660465 ], [ -79.131526136357834, -0.254505341086295 ], [ -79.12993496931638, -0.25469356098377 ], [ -79.128998947616836, -0.255101737194243 ], [ -79.12793806653147, -0.255949617195765 ], [ -79.126534040562689, -0.256514766899926 ], [ -79.12525476999005, -0.257362612308451 ], [ -79.124724276476996, -0.258147749801175 ], [ -79.12388187071744, -0.258430301864906 ], [ -79.123008293153035, -0.258524398488225 ], [ -79.122072296004276, -0.258775527174788 ], [ -79.121448291035392, -0.258995294167153 ], [ -79.120668246385577, -0.259529124051021 ], [ -79.120013004838881, -0.260000154507688 ], [ -79.119108161217198, -0.260565372535115 ], [ -79.117267314130615, -0.261444533647205 ], [ -79.116393678547396, -0.261946937966715 ], [ -79.116336515897871, -0.262155393480526 ], [ -79.116455228933688, -0.262903063458358 ], [ -79.116692744164851, -0.263800282957492 ], [ -79.11695999660175, -0.264488164082879 ], [ -79.117643086302252, -0.265505076923828 ], [ -79.118147938579284, -0.266521963104038 ], [ -79.118801408185959, -0.266970655435177 ], [ -79.119989490766528, -0.26807736707541 ], [ -79.120761763271034, -0.268675609531094 ], [ -79.122157726887664, -0.270201042376 ] ] } }
]
}
