{
"type": "FeatureCollection",
"name": "RUTA_16_RETORNO",
"crs": { "type": "name", "properties": { "name": "urn:ogc:def:crs:OGC:1.3:CRS84" } },
"features": [
{ "type": "Feature", "properties": { "OBJECTID": 1, "NOMBRE_RUT": "CIA_EJECTURANS", "P_PARTIDA": "CHIGUILPE_TERMINAL_TERRESTRE", "P_LLEGADA": "TERMINAL_TERRESTRE_CHIGUILPE", "LONGITUD": 11.7453, "SENTIDO": "RETORNO" }, "geometry": { "type": "LineString", "coordinates": [ [ -79.17315691716766, -0.239933899192192 ], [ -79.171949618810103, -0.240010298429901 ], [ -79.171531339199532, -0.240058093245434 ], [ -79.17054268554233, -0.24012495089174 ], [ -79.170495145075662, -0.240201506053275 ], [ -79.170856317697471, -0.240670493196726 ], [ -79.170903841239721, -0.24072792057797 ], [ -79.170447497840186, -0.241072385525157 ], [ -79.170380945059108, -0.241139368227237 ], [ -79.171492981177579, -0.242555905331999 ], [ -79.172937672069366, -0.244431859639392 ], [ -79.173498422765419, -0.245288468570524 ], [ -79.174396482879573, -0.247327043762346 ], [ -79.174966665229064, -0.248719586960171 ], [ -79.175935965566708, -0.251145769838588 ], [ -79.17622105123769, -0.251877930257434 ], [ -79.176320714483708, -0.252968948612478 ], [ -79.17643944749183, -0.25364845011686 ], [ -79.176486946710099, -0.253878142328819 ], [ -79.176534455740324, -0.25403127182381 ], [ -79.176258764385437, -0.254107794458773 ], [ -79.175907036471216, -0.254088603774191 ], [ -79.175697893776871, -0.254126855383169 ], [ -79.175916471159127, -0.254595826246389 ], [ -79.17590694101969, -0.25476808916271 ], [ -79.172304033394951, -0.25511210105725 ], [ -79.170944621783804, -0.255274599568947 ], [ -79.169404640024752, -0.255111686005012 ], [ -79.168168851174173, -0.254987097307801 ], [ -79.16706625344851, -0.254135194719293 ], [ -79.166372394828741, -0.253474755258659 ], [ -79.165070211395047, -0.252316581501591 ], [ -79.163311790288446, -0.250737258285719 ], [ -79.1628175235209, -0.250354383168127 ], [ -79.16271297030849, -0.25024909683394 ], [ -79.162484820683346, -0.250258635369818 ], [ -79.162332748038196, -0.250076781141187 ], [ -79.162133144830463, -0.249885350433462 ], [ -79.160469647847606, -0.249310907897133 ], [ -79.159832759280945, -0.249148126261613 ], [ -79.154509530256078, -0.247673582972828 ], [ -79.153083661381572, -0.247328859740051 ], [ -79.149747060124, -0.247041289457607 ], [ -79.148378201095284, -0.246916687237577 ], [ -79.146077763373938, -0.246686682850866 ], [ -79.145488368618402, -0.246820580769776 ], [ -79.144680301979093, -0.247184129190131 ], [ -79.144223988490154, -0.247346755560125 ], [ -79.143472946051659, -0.247806011263294 ], [ -79.14304514511511, -0.248016491695648 ], [ -79.142702886953998, -0.24830354357037 ], [ -79.142113412788817, -0.249011641709395 ], [ -79.141580978675279, -0.249691038365349 ], [ -79.141020035769657, -0.250303439018211 ], [ -79.139993320111955, -0.250753083297372 ], [ -79.138605362960732, -0.251288805024113 ], [ -79.137892356090276, -0.251671502557464 ], [ -79.134698104442805, -0.253278800514074 ], [ -79.132768250532507, -0.254216377314115 ], [ -79.131846135878064, -0.254445922667648 ], [ -79.130001955241895, -0.254570062504132 ], [ -79.129517126568018, -0.254732680897636 ], [ -79.128899175517304, -0.255163238410631 ], [ -79.127710802329844, -0.256033929947493 ], [ -79.125676389455933, -0.256961913817138 ], [ -79.125134492429368, -0.257354201315604 ], [ -79.124649589070572, -0.258033594262167 ], [ -79.124364380492594, -0.258234519971652 ], [ -79.123727460054567, -0.258377974776435 ], [ -79.123176110988354, -0.258406602468657 ], [ -79.122900429297871, -0.25846398084413 ], [ -79.122368067838977, -0.258655299823916 ], [ -79.121854718659876, -0.25884662149931 ], [ -79.121341365367144, -0.25906665271163 ], [ -79.120961095389418, -0.259286703664748 ], [ -79.120780461096089, -0.259430225881258 ], [ -79.120295604550364, -0.259793809279269 ], [ -79.119592087567739, -0.260320047917915 ], [ -79.119373424266968, -0.260501843396303 ], [ -79.117148882000777, -0.261544626823688 ], [ -79.11442997926784, -0.26295098678137 ], [ -79.11354586185584, -0.263410205852386 ], [ -79.112623718250617, -0.263878988121145 ], [ -79.111606504921298, -0.264424315160282 ], [ -79.111387837674741, -0.264634817740174 ], [ -79.111311775905179, -0.264730505030857 ], [ -79.111140632512246, -0.264979294765952 ], [ -79.110988492982159, -0.265275936837776 ], [ -79.110931415631242, -0.265553453519094 ], [ -79.110883811792306, -0.266041508562151 ], [ -79.110931265680364, -0.266539148696563 ], [ -79.110978744265196, -0.266874100492329 ], [ -79.1111686306797, -0.268386166675781 ], [ -79.110949855501218, -0.269295268892431 ], [ -79.110322325791728, -0.270204306852525 ], [ -79.1089058054839, -0.271132359086364 ], [ -79.107185060286923, -0.272290037961901 ], [ -79.105882692038449, -0.272701334178609 ], [ -79.104998623983207, -0.272844741958229 ], [ -79.104304679459446, -0.27294989901926 ], [ -79.1040955458692, -0.272978576108883 ], [ -79.104043268546462, -0.272949857520792 ], [ -79.104000481023263, -0.273021625089298 ], [ -79.103891152774452, -0.273088595981422 ], [ -79.103682016978553, -0.273131626824224 ], [ -79.103515657619425, -0.273179449648804 ], [ -79.103382569602999, -0.273217707357508 ] ] } }
]
}
