{
"type": "FeatureCollection",
"name": "ÑINEA14__BRETORNO",
"crs": { "type": "name", "properties": { "name": "urn:ogc:def:crs:OGC:1.3:CRS84" } },
"features": [
{ "type": "Feature", "properties": { "OBJECTID": 1, "SHAPE_Leng": 6832.3727126800004 }, "geometry": { "type": "LineString", "coordinates": [ [ -79.169593706959475, -0.258638325135944 ], [ -79.168699695067829, -0.258737575908446 ], [ -79.168528565070304, -0.257021545503995 ], [ -79.166646141556853, -0.257254468994319 ], [ -79.166560577280407, -0.25725922299444 ], [ -79.165790494659547, -0.257344786085691 ], [ -79.165524293679226, -0.257501653683468 ], [ -79.165343657424316, -0.257625245860024 ], [ -79.165148760105538, -0.257610985384751 ], [ -79.165063195175861, -0.257482638904578 ], [ -79.165096470513546, -0.257206933582658 ], [ -79.165177281234435, -0.256869431378908 ], [ -79.165548061767183, -0.255538438532254 ], [ -79.165895073982171, -0.254235966743424 ], [ -79.166009160144498, -0.254022056656223 ], [ -79.166669910143867, -0.253394588467994 ], [ -79.167649150334199, -0.252363068689554 ], [ -79.167693121167872, -0.252271563258956 ], [ -79.167690744261989, -0.252125391117604 ], [ -79.167682425121981, -0.252014871514704 ], [ -79.168302769739498, -0.25198278469562 ], [ -79.169075229008499, -0.251959016898432 ], [ -79.171539650214868, -0.251890169978956 ], [ -79.172186139166271, -0.25201756502748 ], [ -79.172319240457398, -0.252011860724437 ], [ -79.173161577445654, -0.251907282633391 ], [ -79.173361228093199, -0.251895873631117 ], [ -79.173697782249121, -0.251808408735617 ], [ -79.173933560918002, -0.251677210911313 ], [ -79.1749413232357, -0.250922346970689 ], [ -79.175490838629685, -0.250523049033338 ], [ -79.173331597329636, -0.245442455203299 ], [ -79.17316046822674, -0.245062170577308 ], [ -79.172304820803049, -0.243968853796627 ], [ -79.169034347739128, -0.239652628349712 ], [ -79.168673074969774, -0.239310372902442 ], [ -79.168530467209592, -0.239310372718363 ], [ -79.168302293906862, -0.239338894230543 ], [ -79.168055107358214, -0.239196287220995 ], [ -79.167988556680783, -0.238977624124966 ], [ -79.168161468614969, -0.238665077944146 ], [ -79.168310018627906, -0.238647252180818 ], [ -79.168431829870173, -0.238599716789139 ], [ -79.168660596477125, -0.238445226481807 ], [ -79.168936899299084, -0.237830235012916 ], [ -79.16918349199463, -0.237149882639813 ], [ -79.169233999045872, -0.237019159588493 ], [ -79.169504359349631, -0.236632933646819 ], [ -79.169866821476276, -0.23605359467275 ], [ -79.170544208119182, -0.23509991246703 ], [ -79.170802685479785, -0.234603759841584 ], [ -79.171402826196655, -0.233275735878464 ], [ -79.172106952784404, -0.23206952124724 ], [ -79.172502095078784, -0.231430762508598 ], [ -79.17257339887837, -0.231267358777206 ], [ -79.17259419590566, -0.230961348136844 ], [ -79.172606080307673, -0.22910449046607 ], [ -79.172713035962047, -0.228516238034437 ], [ -79.173215773208469, -0.227685059191315 ], [ -79.174528314620972, -0.226513802191584 ], [ -79.176001929463581, -0.225078821633861 ], [ -79.177653803598631, -0.223587392764831 ], [ -79.178604522376361, -0.222728781409669 ], [ -79.178729303983573, -0.222580232427011 ], [ -79.179475023697023, -0.221617636802069 ], [ -79.179567125421769, -0.221540391761647 ], [ -79.180232627966163, -0.221050180581089 ], [ -79.180660452092013, -0.220818444919156 ], [ -79.180915957588766, -0.220693664232071 ], [ -79.183245218409368, -0.219618171206802 ], [ -79.18401767790742, -0.219448825624895 ] ] } }
]
}
